{"type":"FeatureCollection", "features": [
{"type":"Feature","geometry":{"type":"Point","coordinates":[-4.7500308,55.93329]},"properties":{"SCALERANK":8,"NATSCALE":10,"LABELRANK":5,"FEATURECLA":"Populated place","NAME":"Greenock","NAMEPAR":"","NAMEALT":"","NAMEASCII":"Greenock","ADM0CAP":0,"CAPIN":"","WORLDCITY":0,"MEGACITY":0,"SOV0NAME":"United Kingdom","SOV_A3":"GBR","ADM0NAME":"United Kingdom","ADM0_A3":"GBR","ADM1NAME":"Inverclyde","ISO_A2":"GB","NOTE":"","LATITUDE":55.93329,"LONGITUDE":-4.750031,"POP_MAX":74635,"POP_MIN":43495,"POP_OTHER":17365,"RANK_MAX":8,"RANK_MIN":7,"MEGANAME":"","LS_NAME":"Greenock","MAX_POP10":74635,"MAX_POP20":0,"MAX_POP50":0,"MAX_POP300":0,"MAX_POP310":0,"MAX_NATSCA":10,"MIN_AREAKM":37,"MAX_AREAKM":37,"MIN_AREAMI":14,"MAX_AREAMI":14,"MIN_PERKM":66,"MAX_PERKM":66,"MIN_PERMI":41,"MAX_PERMI":41,"MIN_BBXMIN":-4.866667,"MAX_BBXMIN":-4.866667,"MIN_BBXMAX":-4.633333,"MAX_BBXMAX":-4.633333,"MIN_BBYMIN":55.916667,"MAX_BBYMIN":55.916667,"MIN_BBYMAX":55.966667,"MAX_BBYMAX":55.966667,"MEAN_BBXC":-4.758662,"MEAN_BBYC":55.940132,"TIMEZONE":"Europe/London","UN_FID":0,"POP1950":0,"POP1955":0,"POP1960":0,"POP1965":0,"POP1970":0,"POP1975":0,"POP1980":0,"POP1985":0,"POP1990":0,"POP1995":0,"POP2000":0,"POP2005":0,"POP2010":0,"POP2015":0,"POP2020":0,"POP2025":0,"POP2050":0,"MIN_ZOOM":7,"WIKIDATAID":"Q217831","WOF_ID":101750635,"CAPALT":0,"NAME_EN":"Greenock","NAME_DE":"Greenock","NAME_ES":"Greenock","NAME_FR":"Greenock","NAME_PT":"Greenock","NAME_RU":"Гринок","NAME_ZH":"格里诺克","LABEL":"","NAME_AR":"غرينوك","NAME_BN":"গ্রীনক","NAME_EL":"Γκρήνοκ","NAME_HI":"ग्रीनॉक","NAME_HU":"Greenock","NAME_ID":"Greenock","NAME_IT":"Greenock","NAME_JA":"グリーノック","NAME_KO":"그리녹","NAME_NL":"Greenock","NAME_PL":"Greenock","NAME_SV":"Greenock","NAME_TR":"Greenock","NAME_VI":"Greenock","NE_ID":1159127257,"NAME_FA":"گرینوک","NAME_HE":"גרינוק","NAME_UK":"Грінок","NAME_UR":"گریناک","NAME_ZHT":"格里諾克","GEONAMESID":2647948,"FCLASS_ISO":"","FCLASS_US":"","FCLASS_FR":"","FCLASS_RU":"","FCLASS_ES":"","FCLASS_CN":"","FCLASS_TW":"","FCLASS_IN":"","FCLASS_NP":"","FCLASS_PK":"","FCLASS_DE":"","FCLASS_GB":"","FCLASS_BR":"","FCLASS_IL":"","FCLASS_PS":"","FCLASS_SA":"","FCLASS_EG":"","FCLASS_MA":"","FCLASS_PT":"","FCLASS_AR":"","FCLASS_JP":"","FCLASS_KO":"","FCLASS_VN":"","FCLASS_TR":"","FCLASS_ID":"","FCLASS_PL":"","FCLASS_GR":"","FCLASS_IT":"","FCLASS_NL":"","FCLASS_SE":"","FCLASS_BD":"","FCLASS_UA":"","FCLASS_TLC":""}},
{"type":"Feature","geometry":{"type":"Point","coordinates":[-1.3798815645185654,54.903407084625925]},"properties":{"SCALERANK":8,"NATSCALE":10,"LABELRANK":5,"FEATURECLA":"Populated place","NAME":"Sunderland","NAMEPAR":"","NAMEALT":"","NAMEASCII":"Sunderland","ADM0CAP":0,"CAPIN":"","WORLDCITY":0,"MEGACITY":0,"SOV0NAME":"United Kingdom","SOV_A3":"GBR","ADM0NAME":"United Kingdom","ADM0_A3":"GBR","ADM1NAME":"Tyne and Wear","ISO_A2":"GB","NOTE":"","LATITUDE":54.920019,"LONGITUDE":-1.38003,"POP_MAX":452934,"POP_MIN":177965,"POP_OTHER":423067,"RANK_MAX":10,"RANK_MIN":9,"MEGANAME":"","LS_NAME":"Sunderland","MAX_POP10":452934,"MAX_POP20":0,"MAX_POP50":0,"MAX_POP300":0,"MAX_POP310":0,"MAX_NATSCA":10,"MIN_AREAKM":170,"MAX_AREAKM":170,"MIN_AREAMI":65,"MAX_AREAMI":65,"MIN_PERKM":145,"MAX_PERKM":145,"MIN_PERMI":90,"MAX_PERMI":90,"MIN_BBXMIN":-1.53608,"MAX_BBXMIN":-1.53608,"MIN_BBXMAX":-1.35,"MAX_BBXMAX":-1.35,"MIN_BBYMIN":54.791667,"MAX_BBYMIN":54.791667,"MIN_BBYMAX":55.066667,"MAX_BBYMAX":55.066667,"MEAN_BBXC":-1.438547,"MEAN_BBYC":54.914539,"TIMEZONE":"Europe/London","UN_FID":0,"POP1950":0,"POP1955":0,"POP1960":0,"POP1965":0,"POP1970":0,"POP1975":0,"POP1980":0,"POP1985":0,"POP1990":0,"POP1995":0,"POP2000":0,"POP2005":0,"POP2010":0,"POP2015":0,"POP2020":0,"POP2025":0,"POP2050":0,"MIN_ZOOM":7,"WIKIDATAID":"Q188304","WOF_ID":101750611,"CAPALT":0,"NAME_EN":"Sunderland","NAME_DE":"Sunderland","NAME_ES":"Sunderland","NAME_FR":"Sunderland","NAME_PT":"Sunderland","NAME_RU":"Сандерленд","NAME_ZH":"桑德兰","LABEL":"","NAME_AR":"سندرلاند","NAME_BN":"সান্ডারল্যান্ড","NAME_EL":"Σάντερλαντ","NAME_HI":"सुंदरलैंड","NAME_HU":"Sunderland","NAME_ID":"Sunderland","NAME_IT":"Sunderland","NAME_JA":"サンダーランド","NAME_KO":"선덜랜드","NAME_NL":"Sunderland","NAME_PL":"Sunderland","NAME_SV":"Sunderland","NAME_TR":"Sunderland","NAME_VI":"Sunderland","NE_ID":1159127269,"NAME_FA":"ساندرلند","NAME_HE":"סנדרלנד","NAME_UK":"Сандерленд","NAME_UR":"سندر لینڈ","NAME_ZHT":"巽德蘭","GEONAMESID":2636531,"FCLASS_ISO":"","FCLASS_US":"","FCLASS_FR":"","FCLASS_RU":"","FCLASS_ES":"","FCLASS_CN":"","FCLASS_TW":"","FCLASS_IN":"","FCLASS_NP":"","FCLASS_PK":"","FCLASS_DE":"","FCLASS_GB":"","FCLASS_BR":"","FCLASS_IL":"","FCLASS_PS":"","FCLASS_SA":"","FCLASS_EG":"","FCLASS_MA":"","FCLASS_PT":"","FCLASS_AR":"","FCLASS_JP":"","FCLASS_KO":"","FCLASS_VN":"","FCLASS_TR":"","FCLASS_ID":"","FCLASS_PL":"","FCLASS_GR":"","FCLASS_IT":"","FCLASS_NL":"","FCLASS_SE":"","FCLASS_BD":"","FCLASS_UA":"","FCLASS_TLC":""}},
{"type":"Feature","geometry":{"type":"Point","coordinates":[-1.3999768,50.9000314]},"properties":{"SCALERANK":8,"NATSCALE":10,"LABELRANK":5,"FEATURECLA":"Populated place","NAME":"Southampton","NAMEPAR":"","NAMEALT":"","NAMEASCII":"Southampton","ADM0CAP":0,"CAPIN":"","WORLDCITY":0,"MEGACITY":0,"SOV0NAME":"United Kingdom","SOV_A3":"GBR","ADM0NAME":"United Kingdom","ADM0_A3":"GBR","ADM1NAME":"Southampton","ISO_A2":"GB","NOTE":"","LATITUDE":50.900031,"LONGITUDE":-1.399977,"POP_MAX":384417,"POP_MIN":384417,"POP_OTHER":379571,"RANK_MAX":10,"RANK_MIN":10,"MEGANAME":"","LS_NAME":"Southampton","MAX_POP10":384417,"MAX_POP20":0,"MAX_POP50":0,"MAX_POP300":0,"MAX_POP310":0,"MAX_NATSCA":10,"MIN_AREAKM":158,"MAX_AREAKM":158,"MIN_AREAMI":61,"MAX_AREAMI":61,"MIN_PERKM":165,"MAX_PERKM":165,"MIN_PERMI":102,"MAX_PERMI":102,"MIN_BBXMIN":-1.483333,"MAX_BBXMIN":-1.483333,"MIN_BBXMAX":-1.233333,"MAX_BBXMAX":-1.233333,"MIN_BBYMIN":50.841667,"MAX_BBYMIN":50.841667,"MIN_BBYMAX":51.008333,"MAX_BBYMAX":51.008333,"MEAN_BBXC":-1.357849,"MEAN_BBYC":50.921727,"TIMEZONE":"","UN_FID":0,"POP1950":0,"POP1955":0,"POP1960":0,"POP1965":0,"POP1970":0,"POP1975":0,"POP1980":0,"POP1985":0,"POP1990":0,"POP1995":0,"POP2000":0,"POP2005":0,"POP2010":0,"POP2015":0,"POP2020":0,"POP2025":0,"POP2050":0,"MIN_ZOOM":7,"WIKIDATAID":"Q79848","WOF_ID":1141906373,"CAPALT":0,"NAME_EN":"Southampton","NAME_DE":"Southampton","NAME_ES":"Southampton","NAME_FR":"Southampton","NAME_PT":"Southampton","NAME_RU":"Саутгемптон","NAME_ZH":"南安普敦","LABEL":"","NAME_AR":"ساوثهامبتون","NAME_BN":"সাউদাম্পটন","NAME_EL":"Σαουθάμπτον","NAME_HI":"साउथहैंपटन","NAME_HU":"Southampton","NAME_ID":"Southampton","NAME_IT":"Southampton","NAME_JA":"サウサンプトン","NAME_KO":"사우샘프턴","NAME_NL":"Southampton","NAME_PL":"Southampton","NAME_SV":"Southampton","NAME_TR":"Southampton","NAME_VI":"Southampton","NE_ID":1159127279,"NAME_FA":"ساوتهمپتون","NAME_HE":"סאות'המפטון","NAME_UK":"Саутгемптон","NAME_UR":"ساؤتھمپٹن","NAME_ZHT":"修咸頓","GEONAMESID":-1,"FCLASS_ISO":"","FCLASS_US":"","FCLASS_FR":"","FCLASS_RU":"","FCLASS_ES":"","FCLASS_CN":"","FCLASS_TW":"","FCLASS_IN":"","FCLASS_NP":"","FCLASS_PK":"","FCLASS_DE":"","FCLASS_GB":"","FCLASS_BR":"","FCLASS_IL":"","FCLASS_PS":"","FCLASS_SA":"","FCLASS_EG":"","FCLASS_MA":"","FCLASS_PT":"","FCLASS_AR":"","FCLASS_JP":"","FCLASS_KO":"","FCLASS_VN":"","FCLASS_TR":"","FCLASS_ID":"","FCLASS_PL":"","FCLASS_GR":"","FCLASS_IT":"","FCLASS_NL":"","FCLASS_SE":"","FCLASS_BD":"","FCLASS_UA":"","FCLASS_TLC":""}},
{"type":"Feature","geometry":{"type":"Point","coordinates":[-2.5833155,51.4499978]},"properties":{"SCALERANK":8,"NATSCALE":10,"LABELRANK":5,"FEATURECLA":"Populated place","NAME":"Bristol","NAMEPAR":"","NAMEALT":"","NAMEASCII":"Bristol","ADM0CAP":0,"CAPIN":"","WORLDCITY":0,"MEGACITY":0,"SOV0NAME":"United Kingdom","SOV_A3":"GBR","ADM0NAME":"United Kingdom","ADM0_A3":"GBR","ADM1NAME":"Bristol","ISO_A2":"GB","NOTE":"","LATITUDE":51.449998,"LONGITUDE":-2.583316,"POP_MAX":553528,"POP_MIN":430713,"POP_OTHER":36360,"RANK_MAX":11,"RANK_MIN":10,"MEGANAME":"","LS_NAME":"Bristol2","MAX_POP10":553528,"MAX_POP20":0,"MAX_POP50":0,"MAX_POP300":0,"MAX_POP310":0,"MAX_NATSCA":10,"MIN_AREAKM":218,"MAX_AREAKM":218,"MIN_AREAMI":84,"MAX_AREAMI":84,"MIN_PERKM":155,"MAX_PERKM":155,"MIN_PERMI":96,"MAX_PERMI":96,"MIN_BBXMIN":-2.741667,"MAX_BBXMIN":-2.741667,"MIN_BBXMAX":-2.45477,"MAX_BBXMAX":-2.45477,"MIN_BBYMIN":51.383333,"MAX_BBYMIN":51.383333,"MIN_BBYMAX":51.583333,"MAX_BBYMAX":51.583333,"MEAN_BBXC":-2.582181,"MEAN_BBYC":51.479994,"TIMEZONE":"Europe/London","UN_FID":0,"POP1950":0,"POP1955":0,"POP1960":0,"POP1965":0,"POP1970":0,"POP1975":0,"POP1980":0,"POP1985":0,"POP1990":0,"POP1995":0,"POP2000":0,"POP2005":0,"POP2010":0,"POP2015":0,"POP2020":0,"POP2025":0,"POP2050":0,"MIN_ZOOM":7,"WIKIDATAID":"Q23154","WOF_ID":101750389,"CAPALT":0,"NAME_EN":"Bristol","NAME_DE":"Bristol","NAME_ES":"Brístol","NAME_FR":"Bristol","NAME_PT":"Bristol","NAME_RU":"Бристоль","NAME_ZH":"布里斯托尔","LABEL":"","NAME_AR":"برستل","NAME_BN":"ব্রিস্টল","NAME_EL":"Μπρίστολ","NAME_HI":"ब्रिस्टल","NAME_HU":"Bristol","NAME_ID":"Bristol","NAME_IT":"Bristol","NAME_JA":"ブリストル","NAME_KO":"브리스틀","NAME_NL":"Bristol","NAME_PL":"Bristol","NAME_SV":"Bristol","NAME_TR":"Bristol","NAME_VI":"Bristol","NE_ID":1159127297,"NAME_FA":"بریستول","NAME_HE":"בריסטול","NAME_UK":"Бристоль","NAME_UR":"برسٹل","NAME_ZHT":"布里斯托","GEONAMESID":2654675,"FCLASS_ISO":"","FCLASS_US":"","FCLASS_FR":"","FCLASS_RU":"","FCLASS_ES":"","FCLASS_CN":"","FCLASS_TW":"","FCLASS_IN":"","FCLASS_NP":"","FCLASS_PK":"","FCLASS_DE":"","FCLASS_GB":"","FCLASS_BR":"","FCLASS_IL":"","FCLASS_PS":"","FCLASS_SA":"","FCLASS_EG":"","FCLASS_MA":"","FCLASS_PT":"","FCLASS_AR":"","FCLASS_JP":"","FCLASS_KO":"","FCLASS_VN":"","FCLASS_TR":"","FCLASS_ID":"","FCLASS_PL":"","FCLASS_GR":"","FCLASS_IT":"","FCLASS_NL":"","FCLASS_SE":"","FCLASS_BD":"","FCLASS_UA":"","FCLASS_TLC":""}},
{"type":"Feature","geometry":{"type":"Point","coordinates":[-1.9000497,50.7299901]},"properties":{"SCALERANK":8,"NATSCALE":10,"LABELRANK":5,"FEATURECLA":"Populated place","NAME":"Bournemouth","NAMEPAR":"","NAMEALT":"","NAMEASCII":"Bournemouth","ADM0CAP":0,"CAPIN":"","WORLDCITY":0,"MEGACITY":0,"SOV0NAME":"United Kingdom","SOV_A3":"GBR","ADM0NAME":"United Kingdom","ADM0_A3":"GBR","ADM1NAME":"Bournemouth","ISO_A2":"GB","NOTE":"","LATITUDE":50.72999,"LONGITUDE":-1.90005,"POP_MAX":426945,"POP_MIN":163600,"POP_OTHER":398991,"RANK_MAX":10,"RANK_MIN":9,"MEGANAME":"","LS_NAME":"Bournemouth","MAX_POP10":426945,"MAX_POP20":0,"MAX_POP50":0,"MAX_POP300":0,"MAX_POP310":0,"MAX_NATSCA":10,"MIN_AREAKM":194,"MAX_AREAKM":194,"MIN_AREAMI":75,"MAX_AREAMI":75,"MIN_PERKM":206,"MAX_PERKM":206,"MIN_PERMI":128,"MAX_PERMI":128,"MIN_BBXMIN":-2.041667,"MAX_BBXMIN":-2.041667,"MIN_BBXMAX":-1.627913,"MAX_BBXMAX":-1.627913,"MIN_BBYMIN":50.691667,"MAX_BBYMIN":50.691667,"MIN_BBYMAX":50.866667,"MAX_BBYMAX":50.866667,"MEAN_BBXC":-1.867449,"MEAN_BBYC":50.761156,"TIMEZONE":"Europe/London","UN_FID":0,"POP1950":0,"POP1955":0,"POP1960":0,"POP1965":0,"POP1970":0,"POP1975":0,"POP1980":0,"POP1985":0,"POP1990":0,"POP1995":0,"POP2000":0,"POP2005":0,"POP2010":0,"POP2015":0,"POP2020":0,"POP2025":0,"POP2050":0,"MIN_ZOOM":7,"WIKIDATAID":"Q170478","WOF_ID":101750305,"CAPALT":0,"NAME_EN":"Bournemouth","NAME_DE":"Bournemouth","NAME_ES":"Bournemouth","NAME_FR":"Bournemouth","NAME_PT":"Bournemouth","NAME_RU":"Борнмут","NAME_ZH":"伯恩茅斯","LABEL":"","NAME_AR":"بورنموث","NAME_BN":"বোর্নমাথ","NAME_EL":"Μπόρνμουθ","NAME_HI":"बर्नमाउथ","NAME_HU":"Bournemouth","NAME_ID":"Bournemouth","NAME_IT":"Bournemouth","NAME_JA":"ボーンマス","NAME_KO":"본머스","NAME_NL":"Bournemouth","NAME_PL":"Bournemouth","NAME_SV":"Bournemouth","NAME_TR":"Bournemouth","NAME_VI":"Bournemouth","NE_ID":1159127311,"NAME_FA":"بورنموث","NAME_HE":"בורנמות'","NAME_UK":"Борнмут","NAME_UR":"بورنموتھ","NAME_ZHT":"伯恩茅斯","GEONAMESID":2655095,"FCLASS_ISO":"","FCLASS_US":"","FCLASS_FR":"","FCLASS_RU":"","FCLASS_ES":"","FCLASS_CN":"","FCLASS_TW":"","FCLASS_IN":"","FCLASS_NP":"","FCLASS_PK":"","FCLASS_DE":"","FCLASS_GB":"","FCLASS_BR":"","FCLASS_IL":"","FCLASS_PS":"","FCLASS_SA":"","FCLASS_EG":"","FCLASS_MA":"","FCLASS_PT":"","FCLASS_AR":"","FCLASS_JP":"","FCLASS_KO":"","FCLASS_VN":"","FCLASS_TR":"","FCLASS_ID":"","FCLASS_PL":"","FCLASS_GR":"","FCLASS_IT":"","FCLASS_NL":"","FCLASS_SE":"","FCLASS_BD":"","FCLASS_UA":"","FCLASS_TLC":""}},
{"type":"Feature","geometry":{"type":"Point","coordinates":[-7.3000043,54.6000122]},"properties":{"SCALERANK":8,"NATSCALE":10,"LABELRANK":5,"FEATURECLA":"Populated place","NAME":"Omagh","NAMEPAR":"","NAMEALT":"","NAMEASCII":"Omagh","ADM0CAP":0,"CAPIN":"","WORLDCITY":0,"MEGACITY":0,"SOV0NAME":"United Kingdom","SOV_A3":"GBR","ADM0NAME":"United Kingdom","ADM0_A3":"GBR","ADM1NAME":"Omagh","ISO_A2":"GB","NOTE":"","LATITUDE":54.600012,"LONGITUDE":-7.300004,"POP_MAX":21056,"POP_MIN":16326,"POP_OTHER":15288,"RANK_MAX":7,"RANK_MIN":6,"MEGANAME":"","LS_NAME":"Omagh","MAX_POP10":16326,"MAX_POP20":0,"MAX_POP50":0,"MAX_POP300":0,"MAX_POP310":0,"MAX_NATSCA":10,"MIN_AREAKM":14,"MAX_AREAKM":14,"MIN_AREAMI":5,"MAX_AREAMI":5,"MIN_PERKM":24,"MAX_PERKM":24,"MIN_PERMI":15,"MAX_PERMI":15,"MIN_BBXMIN":-7.333333,"MAX_BBXMIN":-7.333333,"MIN_BBXMAX":-7.25,"MAX_BBXMAX":-7.25,"MIN_BBYMIN":54.583333,"MAX_BBYMIN":54.583333,"MIN_BBYMAX":54.616667,"MAX_BBYMAX":54.616667,"MEAN_BBXC":-7.293452,"MEAN_BBYC":54.603869,"TIMEZONE":"Europe/London","UN_FID":0,"POP1950":0,"POP1955":0,"POP1960":0,"POP1965":0,"POP1970":0,"POP1975":0,"POP1980":0,"POP1985":0,"POP1990":0,"POP1995":0,"POP2000":0,"POP2005":0,"POP2010":0,"POP2015":0,"POP2020":0,"POP2025":0,"POP2050":0,"MIN_ZOOM":7,"WIKIDATAID":"Q510513","WOF_ID":101873819,"CAPALT":0,"NAME_EN":"Omagh","NAME_DE":"Omagh","NAME_ES":"Omagh","NAME_FR":"Omagh","NAME_PT":"Omagh","NAME_RU":"Ома","NAME_ZH":"奧馬","LABEL":"","NAME_AR":"أوماه","NAME_BN":"ওমাঘ","NAME_EL":"Ομάχ","NAME_HI":"ओमाघ","NAME_HU":"Omagh","NAME_ID":"Omagh","NAME_IT":"Omagh","NAME_JA":"オマー","NAME_KO":"오마","NAME_NL":"Omagh","NAME_PL":"Omagh","NAME_SV":"Omagh","NAME_TR":"Omagh","NAME_VI":"Omagh","NE_ID":1159127323,"NAME_FA":"اوماگ","NAME_HE":"אומג'","NAME_UK":"Ома","NAME_UR":"اوما","NAME_ZHT":"奧馬","GEONAMESID":2640967,"FCLASS_ISO":"","FCLASS_US":"","FCLASS_FR":"","FCLASS_RU":"","FCLASS_ES":"","FCLASS_CN":"","FCLASS_TW":"","FCLASS_IN":"","FCLASS_NP":"","FCLASS_PK":"","FCLASS_DE":"","FCLASS_GB":"","FCLASS_BR":"","FCLASS_IL":"","FCLASS_PS":"","FCLASS_SA":"","FCLASS_EG":"","FCLASS_MA":"","FCLASS_PT":"","FCLASS_AR":"","FCLASS_JP":"","FCLASS_KO":"","FCLASS_VN":"","FCLASS_TR":"","FCLASS_ID":"","FCLASS_PL":"","FCLASS_GR":"","FCLASS_IT":"","FCLASS_NL":"","FCLASS_SE":"","FCLASS_BD":"","FCLASS_UA":"","FCLASS_TLC":""}},
{"type":"Feature","geometry":{"type":"Point","coordinates":[-2.9029645759748974,53.18632509137432]},"properties":{"SCALERANK":8,"NATSCALE":10,"LABELRANK":5,"FEATURECLA":"Populated place","NAME":"Chester","NAMEPAR":"","NAMEALT":"","NAMEASCII":"Chester","ADM0CAP":0,"CAPIN":"","WORLDCITY":0,"MEGACITY":0,"SOV0NAME":"United Kingdom","SOV_A3":"GBR","ADM0NAME":"United Kingdom","ADM0_A3":"GBR","ADM1NAME":"Cheshire","ISO_A2":"GB","NOTE":"","LATITUDE":53.20002,"LONGITUDE":-2.919987,"POP_MAX":89531,"POP_MIN":77040,"POP_OTHER":85111,"RANK_MAX":8,"RANK_MIN":8,"MEGANAME":"","LS_NAME":"Chester","MAX_POP10":89531,"MAX_POP20":0,"MAX_POP50":0,"MAX_POP300":0,"MAX_POP310":0,"MAX_NATSCA":10,"MIN_AREAKM":47,"MAX_AREAKM":47,"MIN_AREAMI":18,"MAX_AREAMI":18,"MIN_PERKM":67,"MAX_PERKM":67,"MIN_PERMI":42,"MAX_PERMI":42,"MIN_BBXMIN":-2.95,"MAX_BBXMIN":-2.95,"MIN_BBXMAX":-2.808333,"MAX_BBXMAX":-2.808333,"MIN_BBYMIN":53.158333,"MAX_BBYMIN":53.158333,"MIN_BBYMAX":53.241667,"MAX_BBYMAX":53.241667,"MEAN_BBXC":-2.884753,"MEAN_BBYC":53.195375,"TIMEZONE":"Europe/London","UN_FID":0,"POP1950":0,"POP1955":0,"POP1960":0,"POP1965":0,"POP1970":0,"POP1975":0,"POP1980":0,"POP1985":0,"POP1990":0,"POP1995":0,"POP2000":0,"POP2005":0,"POP2010":0,"POP2015":0,"POP2020":0,"POP2025":0,"POP2050":0,"MIN_ZOOM":7,"WIKIDATAID":"Q170263","WOF_ID":101750511,"CAPALT":0,"NAME_EN":"Chester","NAME_DE":"Chester","NAME_ES":"Chester","NAME_FR":"Chester","NAME_PT":"Chester","NAME_RU":"Честер","NAME_ZH":"切斯特","LABEL":"","NAME_AR":"تشستر","NAME_BN":"চেস্টার","NAME_EL":"Τσέστερ","NAME_HI":"चेस्टर","NAME_HU":"Chester","NAME_ID":"Chester","NAME_IT":"Chester","NAME_JA":"チェスター","NAME_KO":"체스터","NAME_NL":"Chester","NAME_PL":"Chester","NAME_SV":"Chester","NAME_TR":"Chester","NAME_VI":"Chester","NE_ID":1159127337,"NAME_FA":"چستر","NAME_HE":"צ'סטר","NAME_UK":"Честер","NAME_UR":"چیسٹر","NAME_ZHT":"切斯特","GEONAMESID":2653228,"FCLASS_ISO":"","FCLASS_US":"","FCLASS_FR":"","FCLASS_RU":"","FCLASS_ES":"","FCLASS_CN":"","FCLASS_TW":"","FCLASS_IN":"","FCLASS_NP":"","FCLASS_PK":"","FCLASS_DE":"","FCLASS_GB":"","FCLASS_BR":"","FCLASS_IL":"","FCLASS_PS":"","FCLASS_SA":"","FCLASS_EG":"","FCLASS_MA":"","FCLASS_PT":"","FCLASS_AR":"","FCLASS_JP":"","FCLASS_KO":"","FCLASS_VN":"","FCLASS_TR":"","FCLASS_ID":"","FCLASS_PL":"","FCLASS_GR":"","FCLASS_IT":"","FCLASS_NL":"","FCLASS_SE":"","FCLASS_BD":"","FCLASS_UA":"","FCLASS_TLC":""}},
{"type":"Feature","geometry":{"type":"Point","coordinates":[-3.9500021,51.6299868]},"properties":{"SCALERANK":8,"NATSCALE":10,"LABELRANK":5,"FEATURECLA":"Populated place","NAME":"Swansea","NAMEPAR":"","NAMEALT":"","NAMEASCII":"Swansea","ADM0CAP":0,"CAPIN":"","WORLDCITY":0,"MEGACITY":0,"SOV0NAME":"United Kingdom","SOV_A3":"GBR","ADM0NAME":"United Kingdom","ADM0_A3":"GBR","ADM1NAME":"Swansea","ISO_A2":"GB","NOTE":"","LATITUDE":51.629987,"LONGITUDE":-3.950002,"POP_MAX":294339,"POP_MIN":170883,"POP_OTHER":290654,"RANK_MAX":10,"RANK_MIN":9,"MEGANAME":"","LS_NAME":"Swansea","MAX_POP10":294339,"MAX_POP20":0,"MAX_POP50":0,"MAX_POP300":0,"MAX_POP310":0,"MAX_NATSCA":10,"MIN_AREAKM":179,"MAX_AREAKM":179,"MIN_AREAMI":69,"MAX_AREAMI":69,"MIN_PERKM":234,"MAX_PERKM":234,"MIN_PERMI":145,"MAX_PERMI":145,"MIN_BBXMIN":-4.075,"MAX_BBXMIN":-4.075,"MIN_BBXMAX":-3.741667,"MAX_BBXMAX":-3.741667,"MIN_BBYMIN":51.541667,"MAX_BBYMIN":51.541667,"MIN_BBYMAX":51.733333,"MAX_BBYMAX":51.733333,"MEAN_BBXC":-3.902898,"MEAN_BBYC":51.642351,"TIMEZONE":"Europe/London","UN_FID":0,"POP1950":0,"POP1955":0,"POP1960":0,"POP1965":0,"POP1970":0,"POP1975":0,"POP1980":0,"POP1985":0,"POP1990":0,"POP1995":0,"POP2000":0,"POP2005":0,"POP2010":0,"POP2015":0,"POP2020":0,"POP2025":0,"POP2050":0,"MIN_ZOOM":6.1,"WIKIDATAID":"Q23051","WOF_ID":101750431,"CAPALT":0,"NAME_EN":"Swansea","NAME_DE":"Swansea","NAME_ES":"Swansea","NAME_FR":"Swansea","NAME_PT":"Swansea","NAME_RU":"Суонси","NAME_ZH":"斯旺西","LABEL":"","NAME_AR":"سوانزي","NAME_BN":"সোয়ানসি","NAME_EL":"Σουόνσι","NAME_HI":"स्वान्ज़ी","NAME_HU":"Swansea","NAME_ID":"Swansea","NAME_IT":"Swansea","NAME_JA":"スウォンジ","NAME_KO":"스완지","NAME_NL":"Swansea","NAME_PL":"Swansea","NAME_SV":"Swansea","NAME_TR":"Swansea","NAME_VI":"Swansea","NE_ID":1159127355,"NAME_FA":"سوانزی","NAME_HE":"סוונסי","NAME_UK":"Свонсі","NAME_UR":"سوانزی","NAME_ZHT":"斯旺西","GEONAMESID":2636432,"FCLASS_ISO":"","FCLASS_US":"","FCLASS_FR":"","FCLASS_RU":"","FCLASS_ES":"","FCLASS_CN":"","FCLASS_TW":"","FCLASS_IN":"","FCLASS_NP":"","FCLASS_PK":"","FCLASS_DE":"","FCLASS_GB":"","FCLASS_BR":"","FCLASS_IL":"","FCLASS_PS":"","FCLASS_SA":"","FCLASS_EG":"","FCLASS_MA":"","FCLASS_PT":"","FCLASS_AR":"","FCLASS_JP":"","FCLASS_KO":"","FCLASS_VN":"","FCLASS_TR":"","FCLASS_ID":"","FCLASS_PL":"","FCLASS_GR":"","FCLASS_IT":"","FCLASS_NL":"","FCLASS_SE":"","FCLASS_BD":"","FCLASS_UA":"","FCLASS_TLC":""}},
{"type":"Feature","geometry":{"type":"Point","coordinates":[-2.9299868,54.8799951]},"properties":{"SCALERANK":8,"NATSCALE":10,"LABELRANK":5,"FEATURECLA":"Populated place","NAME":"Carlisle","NAMEPAR":"","NAMEALT":"","NAMEASCII":"Carlisle","ADM0CAP":0,"CAPIN":"","WORLDCITY":0,"MEGACITY":0,"SOV0NAME":"United Kingdom","SOV_A3":"GBR","ADM0NAME":"United Kingdom","ADM0_A3":"GBR","ADM1NAME":"Cumbria","ISO_A2":"GB","NOTE":"","LATITUDE":54.879995,"LONGITUDE":-2.929987,"POP_MAX":72633,"POP_MIN":65907,"POP_OTHER":64362,"RANK_MAX":8,"RANK_MIN":8,"MEGANAME":"","LS_NAME":"Carlisle","MAX_POP10":65907,"MAX_POP20":0,"MAX_POP50":0,"MAX_POP300":0,"MAX_POP310":0,"MAX_NATSCA":10,"MIN_AREAKM":42,"MAX_AREAKM":42,"MIN_AREAMI":16,"MAX_AREAMI":16,"MIN_PERKM":48,"MAX_PERKM":48,"MIN_PERMI":30,"MAX_PERMI":30,"MIN_BBXMIN":-3,"MAX_BBXMIN":-3,"MIN_BBXMAX":-2.866667,"MAX_BBXMAX":-2.866667,"MIN_BBYMIN":54.858333,"MAX_BBYMIN":54.858333,"MIN_BBYMAX":54.941667,"MAX_BBYMAX":54.941667,"MEAN_BBXC":-2.936422,"MEAN_BBYC":54.894853,"TIMEZONE":"Europe/London","UN_FID":0,"POP1950":0,"POP1955":0,"POP1960":0,"POP1965":0,"POP1970":0,"POP1975":0,"POP1980":0,"POP1985":0,"POP1990":0,"POP1995":0,"POP2000":0,"POP2005":0,"POP2010":0,"POP2015":0,"POP2020":0,"POP2025":0,"POP2050":0,"MIN_ZOOM":7,"WIKIDATAID":"Q192896","WOF_ID":101750619,"CAPALT":0,"NAME_EN":"Carlisle","NAME_DE":"Carlisle","NAME_ES":"Carlisle","NAME_FR":"Carlisle","NAME_PT":"Carlisle","NAME_RU":"Карлайл","NAME_ZH":"卡莱尔","LABEL":"","NAME_AR":"كارلايل","NAME_BN":"চার্লিসলে","NAME_EL":"Κάρλαϊλ","NAME_HI":"कार्लाइल","NAME_HU":"Carlisle","NAME_ID":"Carlisle","NAME_IT":"Carlisle","NAME_JA":"カーライル","NAME_KO":"칼라일","NAME_NL":"Carlisle","NAME_PL":"Carlisle","NAME_SV":"Carlisle","NAME_TR":"Carlisle","NAME_VI":"Carlisle","NE_ID":1159127365,"NAME_FA":"کارلایل","NAME_HE":"קרליסל","NAME_UK":"Карлайл","NAME_UR":"کارلایل","NAME_ZHT":"卡萊爾","GEONAMESID":2653775,"FCLASS_ISO":"","FCLASS_US":"","FCLASS_FR":"","FCLASS_RU":"","FCLASS_ES":"","FCLASS_CN":"","FCLASS_TW":"","FCLASS_IN":"","FCLASS_NP":"","FCLASS_PK":"","FCLASS_DE":"","FCLASS_GB":"","FCLASS_BR":"","FCLASS_IL":"","FCLASS_PS":"","FCLASS_SA":"","FCLASS_EG":"","FCLASS_MA":"","FCLASS_PT":"","FCLASS_AR":"","FCLASS_JP":"","FCLASS_KO":"","FCLASS_VN":"","FCLASS_TR":"","FCLASS_ID":"","FCLASS_PL":"","FCLASS_GR":"","FCLASS_IT":"","FCLASS_NL":"","FCLASS_SE":"","FCLASS_BD":"","FCLASS_UA":"","FCLASS_TLC":""}},
{"type":"Feature","geometry":{"type":"Point","coordinates":[0.7199971,51.5500175]},"properties":{"SCALERANK":8,"NATSCALE":10,"LABELRANK":5,"FEATURECLA":"Populated place","NAME":"Southend-on-Sea","NAMEPAR":"","NAMEALT":"Southend","NAMEASCII":"Southend-on-Sea","ADM0CAP":0,"CAPIN":"","WORLDCITY":0,"MEGACITY":0,"SOV0NAME":"United Kingdom","SOV_A3":"GBR","ADM0NAME":"United Kingdom","ADM0_A3":"GBR","ADM1NAME":"Southend-on-Sea","ISO_A2":"GB","NOTE":"","LATITUDE":51.550018,"LONGITUDE":0.719997,"POP_MAX":618386,"POP_MIN":173600,"POP_OTHER":560273,"RANK_MAX":11,"RANK_MIN":9,"MEGANAME":"","LS_NAME":"Southend","MAX_POP10":618386,"MAX_POP20":0,"MAX_POP50":0,"MAX_POP300":0,"MAX_POP310":0,"MAX_NATSCA":10,"MIN_AREAKM":298,"MAX_AREAKM":298,"MIN_AREAMI":115,"MAX_AREAMI":115,"MIN_PERKM":355,"MAX_PERKM":355,"MIN_PERMI":221,"MAX_PERMI":221,"MIN_BBXMIN":0.303123,"MAX_BBXMIN":0.303123,"MIN_BBXMAX":0.816667,"MAX_BBXMAX":0.816667,"MIN_BBYMIN":51.35,"MAX_BBYMIN":51.35,"MIN_BBYMAX":51.658333,"MAX_BBYMAX":51.658333,"MEAN_BBXC":0.525417,"MEAN_BBYC":51.534473,"TIMEZONE":"Europe/London","UN_FID":0,"POP1950":0,"POP1955":0,"POP1960":0,"POP1965":0,"POP1970":0,"POP1975":0,"POP1980":0,"POP1985":0,"POP1990":0,"POP1995":0,"POP2000":0,"POP2005":0,"POP2010":0,"POP2015":0,"POP2020":0,"POP2025":0,"POP2050":0,"MIN_ZOOM":7,"WIKIDATAID":"Q203995","WOF_ID":101750371,"CAPALT":0,"NAME_EN":"Southend-on-Sea","NAME_DE":"Southend-on-Sea","NAME_ES":"Southend-on-Sea","NAME_FR":"Southend-on-Sea","NAME_PT":"Southend-on-Sea","NAME_RU":"Саутенд-он-Си","NAME_ZH":"滨海绍森德","LABEL":"","NAME_AR":"ساوثند أون سي","NAME_BN":"সাউথএন্ড-অন-সী","NAME_EL":"Σάουθεντ-ον-Σι","NAME_HI":"साउथेंड-ऑन-सी","NAME_HU":"Southend-on-Sea","NAME_ID":"Southend-on-Sea","NAME_IT":"Southend-on-Sea","NAME_JA":"サウスエンド・オン・シー","NAME_KO":"사우스엔드온시","NAME_NL":"Southend-on-Sea","NAME_PL":"Southend-on-Sea","NAME_SV":"Southend-on-Sea","NAME_TR":"Southend-on-Sea","NAME_VI":"Southend-on-Sea","NE_ID":1159127607,"NAME_FA":"ساوتند-آن-سی","NAME_HE":"סאות׳אנד-און-סי","NAME_UK":"Саутенд-он-Сі","NAME_UR":"ساوتھاینڈ-آن-سی","NAME_ZHT":"修安","GEONAMESID":2637433,"FCLASS_ISO":"","FCLASS_US":"","FCLASS_FR":"","FCLASS_RU":"","FCLASS_ES":"","FCLASS_CN":"","FCLASS_TW":"","FCLASS_IN":"","FCLASS_NP":"","FCLASS_PK":"","FCLASS_DE":"","FCLASS_GB":"","FCLASS_BR":"","FCLASS_IL":"","FCLASS_PS":"","FCLASS_SA":"","FCLASS_EG":"","FCLASS_MA":"","FCLASS_PT":"","FCLASS_AR":"","FCLASS_JP":"","FCLASS_KO":"","FCLASS_VN":"","FCLASS_TR":"","FCLASS_ID":"","FCLASS_PL":"","FCLASS_GR":"","FCLASS_IT":"","FCLASS_NL":"","FCLASS_SE":"","FCLASS_BD":"","FCLASS_UA":"","FCLASS_TLC":""}},
{"type":"Feature","geometry":{"type":"Point","coordinates":[-0.9800283,51.4699707]},"properties":{"SCALERANK":8,"NATSCALE":10,"LABELRANK":5,"FEATURECLA":"Populated place","NAME":"Reading","NAMEPAR":"","NAMEALT":"","NAMEASCII":"Reading","ADM0CAP":0,"CAPIN":"","WORLDCITY":0,"MEGACITY":0,"SOV0NAME":"United Kingdom","SOV_A3":"GBR","ADM0NAME":"United Kingdom","ADM0_A3":"GBR","ADM1NAME":"Oxfordshire","ISO_A2":"GB","NOTE":"","LATITUDE":51.469971,"LONGITUDE":-0.980028,"POP_MAX":369804,"POP_MIN":145700,"POP_OTHER":756426,"RANK_MAX":10,"RANK_MIN":9,"MEGANAME":"","LS_NAME":"Reading","MAX_POP10":877245,"MAX_POP20":0,"MAX_POP50":0,"MAX_POP300":0,"MAX_POP310":0,"MAX_NATSCA":10,"MIN_AREAKM":466,"MAX_AREAKM":466,"MIN_AREAMI":180,"MAX_AREAMI":180,"MIN_PERKM":554,"MAX_PERKM":554,"MIN_PERMI":344,"MAX_PERMI":344,"MIN_BBXMIN":-1.091667,"MAX_BBXMIN":-1.091667,"MIN_BBXMAX":-0.539621,"MAX_BBXMAX":-0.539621,"MIN_BBYMIN":51.133333,"MAX_BBYMIN":51.133333,"MIN_BBYMAX":51.558333,"MAX_BBYMAX":51.558333,"MEAN_BBXC":-0.779411,"MEAN_BBYC":51.349434,"TIMEZONE":"Europe/London","UN_FID":0,"POP1950":0,"POP1955":0,"POP1960":0,"POP1965":0,"POP1970":0,"POP1975":0,"POP1980":0,"POP1985":0,"POP1990":0,"POP1995":0,"POP2000":0,"POP2005":0,"POP2010":0,"POP2015":0,"POP2020":0,"POP2025":0,"POP2050":0,"MIN_ZOOM":7,"WIKIDATAID":"Q161491","WOF_ID":101750379,"CAPALT":0,"NAME_EN":"Reading","NAME_DE":"Reading","NAME_ES":"Reading","NAME_FR":"Reading","NAME_PT":"Reading","NAME_RU":"Рединг","NAME_ZH":"雷丁","LABEL":"","NAME_AR":"ريدنغ","NAME_BN":"রিডিং","NAME_EL":"Ρέντινγκ","NAME_HI":"रेडिंग","NAME_HU":"Reading","NAME_ID":"Reading","NAME_IT":"Reading","NAME_JA":"レディング","NAME_KO":"레딩","NAME_NL":"Reading","NAME_PL":"Reading","NAME_SV":"Reading","NAME_TR":"Reading","NAME_VI":"Reading","NE_ID":1159127619,"NAME_FA":"ردینگ","NAME_HE":"רדינג","NAME_UK":"Редінг","NAME_UR":"ریڈنگ","NAME_ZHT":"雷丁","GEONAMESID":2639577,"FCLASS_ISO":"","FCLASS_US":"","FCLASS_FR":"","FCLASS_RU":"","FCLASS_ES":"","FCLASS_CN":"","FCLASS_TW":"","FCLASS_IN":"","FCLASS_NP":"","FCLASS_PK":"","FCLASS_DE":"","FCLASS_GB":"","FCLASS_BR":"","FCLASS_IL":"","FCLASS_PS":"","FCLASS_SA":"","FCLASS_EG":"","FCLASS_MA":"","FCLASS_PT":"","FCLASS_AR":"","FCLASS_JP":"","FCLASS_KO":"","FCLASS_VN":"","FCLASS_TR":"","FCLASS_ID":"","FCLASS_PL":"","FCLASS_GR":"","FCLASS_IT":"","FCLASS_NL":"","FCLASS_SE":"","FCLASS_BD":"","FCLASS_UA":"","FCLASS_TLC":""}},
{"type":"Feature","geometry":{"type":"Point","coordinates":[-1.1332489,52.6299774]},"properties":{"SCALERANK":8,"NATSCALE":10,"LABELRANK":5,"FEATURECLA":"Populated place","NAME":"Leicester","NAMEPAR":"","NAMEALT":"","NAMEASCII":"Leicester","ADM0CAP":0,"CAPIN":"","WORLDCITY":0,"MEGACITY":0,"SOV0NAME":"United Kingdom","SOV_A3":"GBR","ADM0NAME":"United Kingdom","ADM0_A3":"GBR","ADM1NAME":"Leicester","ISO_A2":"GB","NOTE":"","LATITUDE":52.629977,"LONGITUDE":-1.133249,"POP_MAX":457983,"POP_MIN":339239,"POP_OTHER":420985,"RANK_MAX":10,"RANK_MIN":10,"MEGANAME":"","LS_NAME":"Leicester","MAX_POP10":457983,"MAX_POP20":0,"MAX_POP50":0,"MAX_POP300":0,"MAX_POP310":0,"MAX_NATSCA":10,"MIN_AREAKM":199,"MAX_AREAKM":199,"MIN_AREAMI":77,"MAX_AREAMI":77,"MIN_PERKM":179,"MAX_PERKM":179,"MIN_PERMI":111,"MAX_PERMI":111,"MIN_BBXMIN":-1.25,"MAX_BBXMIN":-1.25,"MIN_BBXMAX":-1.033333,"MAX_BBXMAX":-1.033333,"MIN_BBYMIN":52.541667,"MAX_BBYMIN":52.541667,"MIN_BBYMAX":52.758333,"MAX_BBYMAX":52.758333,"MEAN_BBXC":-1.137084,"MEAN_BBYC":52.642881,"TIMEZONE":"Europe/London","UN_FID":0,"POP1950":0,"POP1955":0,"POP1960":0,"POP1965":0,"POP1970":0,"POP1975":0,"POP1980":0,"POP1985":0,"POP1990":0,"POP1995":0,"POP2000":0,"POP2005":0,"POP2010":0,"POP2015":0,"POP2020":0,"POP2025":0,"POP2050":0,"MIN_ZOOM":7,"WIKIDATAID":"Q83065","WOF_ID":101750485,"CAPALT":0,"NAME_EN":"Leicester","NAME_DE":"Leicester","NAME_ES":"Leicester","NAME_FR":"Leicester","NAME_PT":"Leicester","NAME_RU":"Лестер","NAME_ZH":"莱斯特","LABEL":"","NAME_AR":"ليستر","NAME_BN":"লেস্টার","NAME_EL":"Λέστερ","NAME_HI":"लीसेस्टर","NAME_HU":"Leicester","NAME_ID":"Leicester","NAME_IT":"Leicester","NAME_JA":"レスター","NAME_KO":"레스터","NAME_NL":"Leicester","NAME_PL":"Leicester","NAME_SV":"Leicester","NAME_TR":"Leicester","NAME_VI":"Leicester","NE_ID":1159127629,"NAME_FA":"لستر","NAME_HE":"לסטר","NAME_UK":"Лестер","NAME_UR":"لیسٹر","NAME_ZHT":"李斯特城","GEONAMESID":2644668,"FCLASS_ISO":"","FCLASS_US":"","FCLASS_FR":"","FCLASS_RU":"","FCLASS_ES":"","FCLASS_CN":"","FCLASS_TW":"","FCLASS_IN":"","FCLASS_NP":"","FCLASS_PK":"","FCLASS_DE":"","FCLASS_GB":"","FCLASS_BR":"","FCLASS_IL":"","FCLASS_PS":"","FCLASS_SA":"","FCLASS_EG":"","FCLASS_MA":"","FCLASS_PT":"","FCLASS_AR":"","FCLASS_JP":"","FCLASS_KO":"","FCLASS_VN":"","FCLASS_TR":"","FCLASS_ID":"","FCLASS_PL":"","FCLASS_GR":"","FCLASS_IT":"","FCLASS_NL":"","FCLASS_SE":"","FCLASS_BD":"","FCLASS_UA":"","FCLASS_TLC":""}},
{"type":"Feature","geometry":{"type":"Point","coordinates":[-1.754464650200906,53.79167546080204]},"properties":{"SCALERANK":8,"NATSCALE":10,"LABELRANK":5,"FEATURECLA":"Populated place","NAME":"Bradford","NAMEPAR":"","NAMEALT":"","NAMEASCII":"Bradford","ADM0CAP":0,"CAPIN":"","WORLDCITY":0,"MEGACITY":0,"SOV0NAME":"United Kingdom","SOV_A3":"GBR","ADM0NAME":"United Kingdom","ADM0_A3":"GBR","ADM1NAME":"West Yorkshire","ISO_A2":"GB","NOTE":"","LATITUDE":53.800035,"LONGITUDE":-1.749981,"POP_MAX":501700,"POP_MIN":293717,"POP_OTHER":841600,"RANK_MAX":11,"RANK_MIN":10,"MEGANAME":"","LS_NAME":"Bradford","MAX_POP10":905968,"MAX_POP20":0,"MAX_POP50":0,"MAX_POP300":0,"MAX_POP310":0,"MAX_NATSCA":10,"MIN_AREAKM":387,"MAX_AREAKM":387,"MIN_AREAMI":149,"MAX_AREAMI":149,"MIN_PERKM":341,"MAX_PERKM":341,"MIN_PERMI":212,"MAX_PERMI":212,"MIN_BBXMIN":-1.966667,"MAX_BBXMIN":-1.966667,"MIN_BBXMAX":-1.637376,"MAX_BBXMAX":-1.637376,"MIN_BBYMIN":53.558333,"MAX_BBYMIN":53.558333,"MIN_BBYMAX":53.891667,"MAX_BBYMAX":53.891667,"MEAN_BBXC":-1.787257,"MEAN_BBYC":53.734537,"TIMEZONE":"Europe/London","UN_FID":0,"POP1950":0,"POP1955":0,"POP1960":0,"POP1965":0,"POP1970":0,"POP1975":0,"POP1980":0,"POP1985":0,"POP1990":0,"POP1995":0,"POP2000":0,"POP2005":0,"POP2010":0,"POP2015":0,"POP2020":0,"POP2025":0,"POP2050":0,"MIN_ZOOM":7,"WIKIDATAID":"Q22905","WOF_ID":101750581,"CAPALT":0,"NAME_EN":"Bradford","NAME_DE":"Bradford","NAME_ES":"Bradford","NAME_FR":"Bradford","NAME_PT":"Bradford","NAME_RU":"Брадфорд","NAME_ZH":"布拉德福德","LABEL":"","NAME_AR":"برادفورد","NAME_BN":"ব্রাডফোর্ড","NAME_EL":"Μπράντφορντ","NAME_HI":"ब्रैडफोर्ड","NAME_HU":"Bradford","NAME_ID":"Bradford","NAME_IT":"Bradford","NAME_JA":"ブラッドフォード","NAME_KO":"브래드퍼드","NAME_NL":"Bradford","NAME_PL":"Bradford","NAME_SV":"Bradford","NAME_TR":"Bradford","NAME_VI":"Bradford","NE_ID":1159127641,"NAME_FA":"بردفورد","NAME_HE":"ברדפורד","NAME_UK":"Бредфорд","NAME_UR":"بریڈفورڈ","NAME_ZHT":"布拉德福德","GEONAMESID":2654993,"FCLASS_ISO":"","FCLASS_US":"","FCLASS_FR":"","FCLASS_RU":"","FCLASS_ES":"","FCLASS_CN":"","FCLASS_TW":"","FCLASS_IN":"","FCLASS_NP":"","FCLASS_PK":"","FCLASS_DE":"","FCLASS_GB":"","FCLASS_BR":"","FCLASS_IL":"","FCLASS_PS":"","FCLASS_SA":"","FCLASS_EG":"","FCLASS_MA":"","FCLASS_PT":"","FCLASS_AR":"","FCLASS_JP":"","FCLASS_KO":"","FCLASS_VN":"","FCLASS_TR":"","FCLASS_ID":"","FCLASS_PL":"","FCLASS_GR":"","FCLASS_IT":"","FCLASS_NL":"","FCLASS_SE":"","FCLASS_BD":"","FCLASS_UA":"","FCLASS_TLC":""}},
{"type":"Feature","geometry":{"type":"Point","coordinates":[-1.4999966,53.3666767]},"properties":{"SCALERANK":8,"NATSCALE":10,"LABELRANK":5,"FEATURECLA":"Populated place","NAME":"Sheffield","NAMEPAR":"","NAMEALT":"","NAMEASCII":"Sheffield","ADM0CAP":0,"CAPIN":"","WORLDCITY":0,"MEGACITY":0,"SOV0NAME":"United Kingdom","SOV_A3":"GBR","ADM0NAME":"United Kingdom","ADM0_A3":"GBR","ADM1NAME":"South Yorkshire","ISO_A2":"GB","NOTE":"","LATITUDE":53.366677,"LONGITUDE":-1.499997,"POP_MAX":1292900,"POP_MIN":552700,"POP_OTHER":992542,"RANK_MAX":12,"RANK_MIN":11,"MEGANAME":"","LS_NAME":"Sheffield","MAX_POP10":1251028,"MAX_POP20":0,"MAX_POP50":0,"MAX_POP300":0,"MAX_POP310":0,"MAX_NATSCA":10,"MIN_AREAKM":624,"MAX_AREAKM":624,"MIN_AREAMI":241,"MAX_AREAMI":241,"MIN_PERKM":605,"MAX_PERKM":605,"MIN_PERMI":376,"MAX_PERMI":376,"MIN_BBXMIN":-1.566667,"MAX_BBXMIN":-1.566667,"MIN_BBXMAX":-1.048196,"MAX_BBXMAX":-1.048196,"MIN_BBYMIN":53.141667,"MAX_BBYMIN":53.141667,"MIN_BBYMAX":53.615345,"MAX_BBYMAX":53.615345,"MEAN_BBXC":-1.374161,"MEAN_BBYC":53.418898,"TIMEZONE":"Europe/London","UN_FID":0,"POP1950":0,"POP1955":0,"POP1960":0,"POP1965":0,"POP1970":0,"POP1975":0,"POP1980":0,"POP1985":0,"POP1990":0,"POP1995":0,"POP2000":0,"POP2005":0,"POP2010":0,"POP2015":0,"POP2020":0,"POP2025":0,"POP2050":0,"MIN_ZOOM":7,"WIKIDATAID":"Q42448","WOF_ID":101750529,"CAPALT":0,"NAME_EN":"Sheffield","NAME_DE":"Sheffield","NAME_ES":"Sheffield","NAME_FR":"Sheffield","NAME_PT":"Sheffield","NAME_RU":"Шеффилд","NAME_ZH":"谢菲尔德","LABEL":"","NAME_AR":"شفيلد","NAME_BN":"শেফিল্ড","NAME_EL":"Σέφιλντ","NAME_HI":"शेफ़ील्ड","NAME_HU":"Sheffield","NAME_ID":"Sheffield","NAME_IT":"Sheffield","NAME_JA":"シェフィールド","NAME_KO":"셰필드","NAME_NL":"Sheffield","NAME_PL":"Sheffield","NAME_SV":"Sheffield","NAME_TR":"Sheffield","NAME_VI":"Sheffield","NE_ID":1159127645,"NAME_FA":"شفیلد","NAME_HE":"שפילד","NAME_UK":"Шеффілд","NAME_UR":"شیفیلڈ","NAME_ZHT":"錫菲","GEONAMESID":2638077,"FCLASS_ISO":"","FCLASS_US":"","FCLASS_FR":"","FCLASS_RU":"","FCLASS_ES":"","FCLASS_CN":"","FCLASS_TW":"","FCLASS_IN":"","FCLASS_NP":"","FCLASS_PK":"","FCLASS_DE":"","FCLASS_GB":"","FCLASS_BR":"","FCLASS_IL":"","FCLASS_PS":"","FCLASS_SA":"","FCLASS_EG":"","FCLASS_MA":"","FCLASS_PT":"","FCLASS_AR":"","FCLASS_JP":"","FCLASS_KO":"","FCLASS_VN":"","FCLASS_TR":"","FCLASS_ID":"","FCLASS_PL":"","FCLASS_GR":"","FCLASS_IT":"","FCLASS_NL":"","FCLASS_SE":"","FCLASS_BD":"","FCLASS_UA":"","FCLASS_TLC":""}},
{"type":"Feature","geometry":{"type":"Point","coordinates":[-5.1120758,56.8164779]},"properties":{"SCALERANK":8,"NATSCALE":10,"LABELRANK":5,"FEATURECLA":"Populated place","NAME":"Fort William","NAMEPAR":"","NAMEALT":"","NAMEASCII":"Fort William","ADM0CAP":0,"CAPIN":"","WORLDCITY":0,"MEGACITY":0,"SOV0NAME":"United Kingdom","SOV_A3":"GBR","ADM0NAME":"United Kingdom","ADM0_A3":"GBR","ADM1NAME":"Highland","ISO_A2":"GB","NOTE":"","LATITUDE":56.816478,"LONGITUDE":-5.112076,"POP_MAX":9652,"POP_MIN":9652,"POP_OTHER":0,"RANK_MAX":5,"RANK_MIN":5,"MEGANAME":"","LS_NAME":"","MAX_POP10":0,"MAX_POP20":0,"MAX_POP50":0,"MAX_POP300":0,"MAX_POP310":0,"MAX_NATSCA":0,"MIN_AREAKM":0,"MAX_AREAKM":0,"MIN_AREAMI":0,"MAX_AREAMI":0,"MIN_PERKM":0,"MAX_PERKM":0,"MIN_PERMI":0,"MAX_PERMI":0,"MIN_BBXMIN":0,"MAX_BBXMIN":0,"MIN_BBXMAX":0,"MAX_BBXMAX":0,"MIN_BBYMIN":0,"MAX_BBYMIN":0,"MIN_BBYMAX":0,"MAX_BBYMAX":0,"MEAN_BBXC":0,"MEAN_BBYC":0,"TIMEZONE":"Europe/London","UN_FID":0,"POP1950":0,"POP1955":0,"POP1960":0,"POP1965":0,"POP1970":0,"POP1975":0,"POP1980":0,"POP1985":0,"POP1990":0,"POP1995":0,"POP2000":0,"POP2005":0,"POP2010":0,"POP2015":0,"POP2020":0,"POP2025":0,"POP2050":0,"MIN_ZOOM":7,"WIKIDATAID":"Q848909","WOF_ID":101872715,"CAPALT":0,"NAME_EN":"Fort William","NAME_DE":"Fort William","NAME_ES":"Fort William","NAME_FR":"Fort William","NAME_PT":"Fort William","NAME_RU":"Форт-Уильям","NAME_ZH":"威廉堡","LABEL":"","NAME_AR":"فورت ويليام","NAME_BN":"ফোর্ট উইলিয়াম","NAME_EL":"Φορτ Γουίλιαμ","NAME_HI":"फ़ोर्ट विलियम","NAME_HU":"Fort William","NAME_ID":"Fort William","NAME_IT":"Fort William","NAME_JA":"フォート・ウィリアム","NAME_KO":"포트윌리엄","NAME_NL":"Fort William","NAME_PL":"Fort William","NAME_SV":"Fort William","NAME_TR":"Fort William","NAME_VI":"Fort William","NE_ID":1159132367,"NAME_FA":"فورت ویلیام","NAME_HE":"פורט ויליאם","NAME_UK":"Форт-Вільям","NAME_UR":"فورٹ ولیم","NAME_ZHT":"威廉堡","GEONAMESID":2649169,"FCLASS_ISO":"","FCLASS_US":"","FCLASS_FR":"","FCLASS_RU":"","FCLASS_ES":"","FCLASS_CN":"","FCLASS_TW":"","FCLASS_IN":"","FCLASS_NP":"","FCLASS_PK":"","FCLASS_DE":"","FCLASS_GB":"","FCLASS_BR":"","FCLASS_IL":"","FCLASS_PS":"","FCLASS_SA":"","FCLASS_EG":"","FCLASS_MA":"","FCLASS_PT":"","FCLASS_AR":"","FCLASS_JP":"","FCLASS_KO":"","FCLASS_VN":"","FCLASS_TR":"","FCLASS_ID":"","FCLASS_PL":"","FCLASS_GR":"","FCLASS_IT":"","FCLASS_NL":"","FCLASS_SE":"","FCLASS_BD":"","FCLASS_UA":"","FCLASS_TLC":""}},
{"type":"Feature","geometry":{"type":"Point","coordinates":[-4.6166797,55.4503996]},"properties":{"SCALERANK":7,"NATSCALE":20,"LABELRANK":5,"FEATURECLA":"Populated place","NAME":"Ayr","NAMEPAR":"","NAMEALT":"","NAMEASCII":"Ayr","ADM0CAP":0,"CAPIN":"","WORLDCITY":0,"MEGACITY":0,"SOV0NAME":"United Kingdom","SOV_A3":"GBR","ADM0NAME":"United Kingdom","ADM0_A3":"GBR","ADM1NAME":"South Ayrshire","ISO_A2":"GB","NOTE":"","LATITUDE":55.4504,"LONGITUDE":-4.61668,"POP_MAX":69042,"POP_MIN":45513,"POP_OTHER":5254,"RANK_MAX":8,"RANK_MIN":7,"MEGANAME":"","LS_NAME":"Ayr1","MAX_POP10":69042,"MAX_POP20":69042,"MAX_POP50":0,"MAX_POP300":0,"MAX_POP310":0,"MAX_NATSCA":20,"MIN_AREAKM":27,"MAX_AREAKM":27,"MIN_AREAMI":11,"MAX_AREAMI":11,"MIN_PERKM":42,"MAX_PERKM":42,"MIN_PERMI":26,"MAX_PERMI":26,"MIN_BBXMIN":-4.675,"MAX_BBXMIN":-4.675,"MIN_BBXMAX":-4.583333,"MAX_BBXMAX":-4.583333,"MIN_BBYMIN":55.425,"MAX_BBYMIN":55.425,"MIN_BBYMAX":55.516667,"MAX_BBYMAX":55.516667,"MEAN_BBXC":-4.619792,"MEAN_BBYC":55.462798,"TIMEZONE":"Europe/London","UN_FID":0,"POP1950":0,"POP1955":0,"POP1960":0,"POP1965":0,"POP1970":0,"POP1975":0,"POP1980":0,"POP1985":0,"POP1990":0,"POP1995":0,"POP2000":0,"POP2005":0,"POP2010":0,"POP2015":0,"POP2020":0,"POP2025":0,"POP2050":0,"MIN_ZOOM":6.7,"WIKIDATAID":"Q654216","WOF_ID":101873467,"CAPALT":0,"NAME_EN":"Ayr","NAME_DE":"Ayr","NAME_ES":"Ayr","NAME_FR":"Ayr","NAME_PT":"Ayr","NAME_RU":"Эр","NAME_ZH":"艾尔","LABEL":"","NAME_AR":"آير","NAME_BN":"আয়ির","NAME_EL":"Αϊρ","NAME_HI":"आइर","NAME_HU":"Ayr","NAME_ID":"Ayr","NAME_IT":"Ayr","NAME_JA":"エア","NAME_KO":"에어","NAME_NL":"Ayr","NAME_PL":"Ayr","NAME_SV":"Ayr","NAME_TR":"Ayr","NAME_VI":"Ayr","NE_ID":1159135041,"NAME_FA":"ایر","NAME_HE":"אייר","NAME_UK":"Ер","NAME_UR":"ایر","NAME_ZHT":"艾爾","GEONAMESID":2656708,"FCLASS_ISO":"","FCLASS_US":"","FCLASS_FR":"","FCLASS_RU":"","FCLASS_ES":"","FCLASS_CN":"","FCLASS_TW":"","FCLASS_IN":"","FCLASS_NP":"","FCLASS_PK":"","FCLASS_DE":"","FCLASS_GB":"","FCLASS_BR":"","FCLASS_IL":"","FCLASS_PS":"","FCLASS_SA":"","FCLASS_EG":"","FCLASS_MA":"","FCLASS_PT":"","FCLASS_AR":"","FCLASS_JP":"","FCLASS_KO":"","FCLASS_VN":"","FCLASS_TR":"","FCLASS_ID":"","FCLASS_PL":"","FCLASS_GR":"","FCLASS_IT":"","FCLASS_NL":"","FCLASS_SE":"","FCLASS_BD":"","FCLASS_UA":"","FCLASS_TLC":""}},
{"type":"Feature","geometry":{"type":"Point","coordinates":[-2.105049991692299,57.145133499698055]},"properties":{"SCALERANK":7,"NATSCALE":20,"LABELRANK":5,"FEATURECLA":"Populated place","NAME":"Aberdeen","NAMEPAR":"","NAMEALT":"","NAMEASCII":"Aberdeen","ADM0CAP":0,"CAPIN":"","WORLDCITY":0,"MEGACITY":0,"SOV0NAME":"United Kingdom","SOV_A3":"GBR","ADM0NAME":"United Kingdom","ADM0_A3":"GBR","ADM1NAME":"Aberdeen","ISO_A2":"GB","NOTE":"","LATITUDE":57.170398,"LONGITUDE":-2.079987,"POP_MAX":189364,"POP_MIN":183790,"POP_OTHER":26041,"RANK_MAX":9,"RANK_MIN":9,"MEGANAME":"","LS_NAME":"Aberdeen3","MAX_POP10":189364,"MAX_POP20":189364,"MAX_POP50":0,"MAX_POP300":0,"MAX_POP310":0,"MAX_NATSCA":20,"MIN_AREAKM":76,"MAX_AREAKM":76,"MIN_AREAMI":29,"MAX_AREAMI":29,"MIN_PERKM":85,"MAX_PERKM":85,"MIN_PERMI":53,"MAX_PERMI":53,"MIN_BBXMIN":-2.225,"MAX_BBXMIN":-2.225,"MIN_BBXMAX":-2.058333,"MAX_BBXMAX":-2.058333,"MIN_BBYMIN":57.091667,"MAX_BBYMIN":57.091667,"MIN_BBYMAX":57.216667,"MAX_BBYMAX":57.216667,"MEAN_BBXC":-2.135199,"MEAN_BBYC":57.154678,"TIMEZONE":"Europe/London","UN_FID":0,"POP1950":0,"POP1955":0,"POP1960":0,"POP1965":0,"POP1970":0,"POP1975":0,"POP1980":0,"POP1985":0,"POP1990":0,"POP1995":0,"POP2000":0,"POP2005":0,"POP2010":0,"POP2015":0,"POP2020":0,"POP2025":0,"POP2050":0,"MIN_ZOOM":6.1,"WIKIDATAID":"Q36405","WOF_ID":101750639,"CAPALT":0,"NAME_EN":"Aberdeen","NAME_DE":"Aberdeen","NAME_ES":"Aberdeen","NAME_FR":"Aberdeen","NAME_PT":"Aberdeen","NAME_RU":"Абердин","NAME_ZH":"阿伯丁","LABEL":"","NAME_AR":"أبردين","NAME_BN":"অ্যাবরদিন","NAME_EL":"Αμπερντήν","NAME_HI":"एबरडीन","NAME_HU":"Aberdeen","NAME_ID":"Aberdeen","NAME_IT":"Aberdeen","NAME_JA":"アバディーン","NAME_KO":"애버딘","NAME_NL":"Aberdeen","NAME_PL":"Aberdeen","NAME_SV":"Aberdeen","NAME_TR":"Aberdeen","NAME_VI":"Aberdeen","NE_ID":1159135045,"NAME_FA":"ابردین","NAME_HE":"אברדין","NAME_UK":"Абердин","NAME_UR":"ابرڈین","NAME_ZHT":"亞伯丁","GEONAMESID":2657832,"FCLASS_ISO":"","FCLASS_US":"","FCLASS_FR":"","FCLASS_RU":"","FCLASS_ES":"","FCLASS_CN":"","FCLASS_TW":"","FCLASS_IN":"","FCLASS_NP":"","FCLASS_PK":"","FCLASS_DE":"","FCLASS_GB":"","FCLASS_BR":"","FCLASS_IL":"","FCLASS_PS":"","FCLASS_SA":"","FCLASS_EG":"","FCLASS_MA":"","FCLASS_PT":"","FCLASS_AR":"","FCLASS_JP":"","FCLASS_KO":"","FCLASS_VN":"","FCLASS_TR":"","FCLASS_ID":"","FCLASS_PL":"","FCLASS_GR":"","FCLASS_IT":"","FCLASS_NL":"","FCLASS_SE":"","FCLASS_BD":"","FCLASS_UA":"","FCLASS_TLC":""}},
{"type":"Feature","geometry":{"type":"Point","coordinates":[-3.4363752200061097,56.3926089503458]},"properties":{"SCALERANK":7,"NATSCALE":20,"LABELRANK":5,"FEATURECLA":"Populated place","NAME":"Perth","NAMEPAR":"","NAMEALT":"","NAMEASCII":"Perth","ADM0CAP":0,"CAPIN":"","WORLDCITY":0,"MEGACITY":0,"SOV0NAME":"United Kingdom","SOV_A3":"GBR","ADM0NAME":"United Kingdom","ADM0_A3":"GBR","ADM1NAME":"Perthshire and Kinross","ISO_A2":"GB","NOTE":"","LATITUDE":56.400342,"LONGITUDE":-3.46998,"POP_MAX":39654,"POP_MIN":39654,"POP_OTHER":855538,"RANK_MAX":7,"RANK_MIN":7,"MEGANAME":"","LS_NAME":"Perth1","MAX_POP10":39654,"MAX_POP20":39654,"MAX_POP50":0,"MAX_POP300":0,"MAX_POP310":0,"MAX_NATSCA":20,"MIN_AREAKM":22,"MAX_AREAKM":22,"MIN_AREAMI":8,"MAX_AREAMI":8,"MIN_PERKM":26,"MAX_PERKM":26,"MIN_PERMI":16,"MAX_PERMI":16,"MIN_BBXMIN":-3.491667,"MAX_BBXMIN":-3.491667,"MIN_BBXMAX":-3.408333,"MAX_BBXMAX":-3.408333,"MIN_BBYMIN":56.366667,"MAX_BBYMIN":56.366667,"MIN_BBYMAX":56.425,"MAX_BBYMAX":56.425,"MEAN_BBXC":-3.449457,"MEAN_BBYC":56.399457,"TIMEZONE":"","UN_FID":0,"POP1950":0,"POP1955":0,"POP1960":0,"POP1965":0,"POP1970":0,"POP1975":0,"POP1980":0,"POP1985":0,"POP1990":0,"POP1995":0,"POP2000":0,"POP2005":0,"POP2010":0,"POP2015":0,"POP2020":0,"POP2025":0,"POP2050":0,"MIN_ZOOM":6.1,"WIKIDATAID":"Q203000","WOF_ID":1141906969,"CAPALT":0,"NAME_EN":"Perth","NAME_DE":"Perth","NAME_ES":"Perth","NAME_FR":"Perth","NAME_PT":"Perth","NAME_RU":"Перт","NAME_ZH":"伯斯","LABEL":"","NAME_AR":"بيرث","NAME_BN":"পার্থ","NAME_EL":"Περθ","NAME_HI":"पर्थ","NAME_HU":"Perth","NAME_ID":"Perth","NAME_IT":"Perth","NAME_JA":"パース","NAME_KO":"퍼스","NAME_NL":"Perth","NAME_PL":"Perth","NAME_SV":"Perth","NAME_TR":"Perth","NAME_VI":"Perth","NE_ID":1159135051,"NAME_FA":"پرت","NAME_HE":"פרת'","NAME_UK":"Перт","NAME_UR":"پرتھ","NAME_ZHT":"伯斯","GEONAMESID":-1,"FCLASS_ISO":"","FCLASS_US":"","FCLASS_FR":"","FCLASS_RU":"","FCLASS_ES":"","FCLASS_CN":"","FCLASS_TW":"","FCLASS_IN":"","FCLASS_NP":"","FCLASS_PK":"","FCLASS_DE":"","FCLASS_GB":"","FCLASS_BR":"","FCLASS_IL":"","FCLASS_PS":"","FCLASS_SA":"","FCLASS_EG":"","FCLASS_MA":"","FCLASS_PT":"","FCLASS_AR":"","FCLASS_JP":"","FCLASS_KO":"","FCLASS_VN":"","FCLASS_TR":"","FCLASS_ID":"","FCLASS_PL":"","FCLASS_GR":"","FCLASS_IT":"","FCLASS_NL":"","FCLASS_SE":"","FCLASS_BD":"","FCLASS_UA":"","FCLASS_TLC":""}},
{"type":"Feature","geometry":{"type":"Point","coordinates":[-3.0000084,56.470389]},"properties":{"SCALERANK":7,"NATSCALE":20,"LABELRANK":5,"FEATURECLA":"Populated place","NAME":"Dundee","NAMEPAR":"","NAMEALT":"","NAMEASCII":"Dundee","ADM0CAP":0,"CAPIN":"","WORLDCITY":0,"MEGACITY":0,"SOV0NAME":"United Kingdom","SOV_A3":"GBR","ADM0NAME":"United Kingdom","ADM0_A3":"GBR","ADM1NAME":"Dundee","ISO_A2":"GB","NOTE":"","LATITUDE":56.470389,"LONGITUDE":-3.000008,"POP_MAX":151592,"POP_MIN":150435,"POP_OTHER":149097,"RANK_MAX":9,"RANK_MIN":9,"MEGANAME":"","LS_NAME":"Dundee","MAX_POP10":150435,"MAX_POP20":150435,"MAX_POP50":0,"MAX_POP300":0,"MAX_POP310":0,"MAX_NATSCA":20,"MIN_AREAKM":59,"MAX_AREAKM":59,"MIN_AREAMI":23,"MAX_AREAMI":23,"MIN_PERKM":77,"MAX_PERKM":77,"MIN_PERMI":48,"MAX_PERMI":48,"MIN_BBXMIN":-3.075,"MAX_BBXMIN":-3.075,"MIN_BBXMAX":-2.8,"MAX_BBXMAX":-2.8,"MIN_BBYMIN":56.45,"MAX_BBYMIN":56.45,"MIN_BBYMAX":56.508333,"MAX_BBYMAX":56.508333,"MEAN_BBXC":-2.954368,"MEAN_BBYC":56.476411,"TIMEZONE":"Europe/London","UN_FID":0,"POP1950":0,"POP1955":0,"POP1960":0,"POP1965":0,"POP1970":0,"POP1975":0,"POP1980":0,"POP1985":0,"POP1990":0,"POP1995":0,"POP2000":0,"POP2005":0,"POP2010":0,"POP2015":0,"POP2020":0,"POP2025":0,"POP2050":0,"MIN_ZOOM":6.7,"WIKIDATAID":"Q123709","WOF_ID":101750641,"CAPALT":0,"NAME_EN":"Dundee","NAME_DE":"Dundee","NAME_ES":"Dundee","NAME_FR":"Dundee","NAME_PT":"Dundee","NAME_RU":"Данди","NAME_ZH":"邓迪","LABEL":"","NAME_AR":"دندي","NAME_BN":"ড্যান্ডি","NAME_EL":"Νταντί","NAME_HI":"डन्डी नोड","NAME_HU":"Dundee","NAME_ID":"Dundee","NAME_IT":"Dundee","NAME_JA":"ダンディー","NAME_KO":"던디","NAME_NL":"Dundee","NAME_PL":"Dundee","NAME_SV":"Dundee","NAME_TR":"Dundee","NAME_VI":"Dundee","NE_ID":1159135055,"NAME_FA":"داندی","NAME_HE":"דנדי","NAME_UK":"Данді","NAME_UR":"ڈنڈی","NAME_ZHT":"鄧迪","GEONAMESID":2650752,"FCLASS_ISO":"","FCLASS_US":"","FCLASS_FR":"","FCLASS_RU":"","FCLASS_ES":"","FCLASS_CN":"","FCLASS_TW":"","FCLASS_IN":"","FCLASS_NP":"","FCLASS_PK":"","FCLASS_DE":"","FCLASS_GB":"","FCLASS_BR":"","FCLASS_IL":"","FCLASS_PS":"","FCLASS_SA":"","FCLASS_EG":"","FCLASS_MA":"","FCLASS_PT":"","FCLASS_AR":"","FCLASS_JP":"","FCLASS_KO":"","FCLASS_VN":"","FCLASS_TR":"","FCLASS_ID":"","FCLASS_PL":"","FCLASS_GR":"","FCLASS_IT":"","FCLASS_NL":"","FCLASS_SE":"","FCLASS_BD":"","FCLASS_UA":"","FCLASS_TLC":""}},
{"type":"Feature","geometry":{"type":"Point","coordinates":[-1.2300131,54.5803752]},"properties":{"SCALERANK":7,"NATSCALE":20,"LABELRANK":5,"FEATURECLA":"Populated place","NAME":"Middlesbrough","NAMEPAR":"","NAMEALT":"","NAMEASCII":"Middlesbrough","ADM0CAP":0,"CAPIN":"","WORLDCITY":0,"MEGACITY":0,"SOV0NAME":"United Kingdom","SOV_A3":"GBR","ADM0NAME":"United Kingdom","ADM0_A3":"GBR","ADM1NAME":"Stockton-on-Tees","ISO_A2":"GB","NOTE":"","LATITUDE":54.580375,"LONGITUDE":-1.230013,"POP_MAX":416042,"POP_MIN":142707,"POP_OTHER":399747,"RANK_MAX":10,"RANK_MIN":9,"MEGANAME":"","LS_NAME":"Middlesbrough","MAX_POP10":416042,"MAX_POP20":416042,"MAX_POP50":0,"MAX_POP300":0,"MAX_POP310":0,"MAX_NATSCA":20,"MIN_AREAKM":214,"MAX_AREAKM":214,"MIN_AREAMI":83,"MAX_AREAMI":83,"MIN_PERKM":174,"MAX_PERKM":174,"MIN_PERMI":108,"MAX_PERMI":108,"MIN_BBXMIN":-1.391667,"MAX_BBXMIN":-1.391667,"MIN_BBXMAX":-0.958333,"MAX_BBXMAX":-0.958333,"MIN_BBYMIN":54.483333,"MAX_BBYMIN":54.483333,"MIN_BBYMAX":54.641667,"MAX_BBYMAX":54.641667,"MEAN_BBXC":-1.216569,"MEAN_BBYC":54.568224,"TIMEZONE":"Europe/London","UN_FID":0,"POP1950":0,"POP1955":0,"POP1960":0,"POP1965":0,"POP1970":0,"POP1975":0,"POP1980":0,"POP1985":0,"POP1990":0,"POP1995":0,"POP2000":0,"POP2005":0,"POP2010":0,"POP2015":0,"POP2020":0,"POP2025":0,"POP2050":0,"MIN_ZOOM":6.1,"WIKIDATAID":"Q171866","WOF_ID":101750599,"CAPALT":0,"NAME_EN":"Middlesbrough","NAME_DE":"Middlesbrough","NAME_ES":"Middlesbrough","NAME_FR":"Middlesbrough","NAME_PT":"Middlesbrough","NAME_RU":"Мидлсбро","NAME_ZH":"米德尔斯伯勒","LABEL":"","NAME_AR":"ميدلزبرة","NAME_BN":"মিডলসব্রো","NAME_EL":"Μίντλεσμπρο","NAME_HI":"मिडल्ज़ब्रो","NAME_HU":"Middlesbrough","NAME_ID":"Middlesbrough","NAME_IT":"Middlesbrough","NAME_JA":"ミドルズブラ","NAME_KO":"미들즈브러","NAME_NL":"Middlesbrough","NAME_PL":"Middlesbrough","NAME_SV":"Middlesbrough","NAME_TR":"Middlesbrough","NAME_VI":"Middlesbrough","NE_ID":1159135059,"NAME_FA":"میدلزبورو","NAME_HE":"מידלסברו","NAME_UK":"Мідлсбро","NAME_UR":"میڈیلزبرو","NAME_ZHT":"米德爾斯伯勒","GEONAMESID":2642607,"FCLASS_ISO":"","FCLASS_US":"","FCLASS_FR":"","FCLASS_RU":"","FCLASS_ES":"","FCLASS_CN":"","FCLASS_TW":"","FCLASS_IN":"","FCLASS_NP":"","FCLASS_PK":"","FCLASS_DE":"","FCLASS_GB":"","FCLASS_BR":"","FCLASS_IL":"","FCLASS_PS":"","FCLASS_SA":"","FCLASS_EG":"","FCLASS_MA":"","FCLASS_PT":"","FCLASS_AR":"","FCLASS_JP":"","FCLASS_KO":"","FCLASS_VN":"","FCLASS_TR":"","FCLASS_ID":"","FCLASS_PL":"","FCLASS_GR":"","FCLASS_IT":"","FCLASS_NL":"","FCLASS_SE":"","FCLASS_BD":"","FCLASS_UA":"","FCLASS_TLC":""}},
{"type":"Feature","geometry":{"type":"Point","coordinates":[-1.5026745279244569,52.40074087605872]},"properties":{"SCALERANK":7,"NATSCALE":20,"LABELRANK":5,"FEATURECLA":"Populated place","NAME":"Coventry","NAMEPAR":"","NAMEALT":"","NAMEASCII":"Coventry","ADM0CAP":0,"CAPIN":"","WORLDCITY":0,"MEGACITY":0,"SOV0NAME":"United Kingdom","SOV_A3":"GBR","ADM0NAME":"United Kingdom","ADM0_A3":"GBR","ADM1NAME":"West Midlands","ISO_A2":"GB","NOTE":"","LATITUDE":52.420404,"LONGITUDE":-1.499997,"POP_MAX":388271,"POP_MIN":308313,"POP_OTHER":365326,"RANK_MAX":10,"RANK_MIN":10,"MEGANAME":"","LS_NAME":"Coventry","MAX_POP10":388271,"MAX_POP20":388271,"MAX_POP50":0,"MAX_POP300":0,"MAX_POP310":0,"MAX_NATSCA":20,"MIN_AREAKM":167,"MAX_AREAKM":167,"MIN_AREAMI":64,"MAX_AREAMI":64,"MIN_PERKM":156,"MAX_PERKM":156,"MIN_PERMI":97,"MAX_PERMI":97,"MIN_BBXMIN":-1.608333,"MAX_BBXMIN":-1.608333,"MIN_BBXMAX":-1.408333,"MAX_BBXMAX":-1.408333,"MIN_BBYMIN":52.333333,"MAX_BBYMIN":52.333333,"MIN_BBYMAX":52.55,"MAX_BBYMAX":52.55,"MEAN_BBXC":-1.49812,"MEAN_BBYC":52.438683,"TIMEZONE":"Europe/London","UN_FID":0,"POP1950":0,"POP1955":0,"POP1960":0,"POP1965":0,"POP1970":0,"POP1975":0,"POP1980":0,"POP1985":0,"POP1990":0,"POP1995":0,"POP2000":0,"POP2005":0,"POP2010":0,"POP2015":0,"POP2020":0,"POP2025":0,"POP2050":0,"MIN_ZOOM":6.7,"WIKIDATAID":"Q6225","WOF_ID":101750449,"CAPALT":0,"NAME_EN":"Coventry","NAME_DE":"Coventry","NAME_ES":"Coventry","NAME_FR":"Coventry","NAME_PT":"Coventry","NAME_RU":"Ковентри","NAME_ZH":"考文垂","LABEL":"","NAME_AR":"كوفنتري","NAME_BN":"কোভেন্ট্রি","NAME_EL":"Κόβεντρι","NAME_HI":"कोवेन्ट्री","NAME_HU":"Coventry","NAME_ID":"Coventry","NAME_IT":"Coventry","NAME_JA":"コヴェントリー","NAME_KO":"코번트리","NAME_NL":"Coventry","NAME_PL":"Coventry","NAME_SV":"Coventry","NAME_TR":"Coventry","NAME_VI":"Coventry","NE_ID":1159135067,"NAME_FA":"کاونتری","NAME_HE":"קובנטרי","NAME_UK":"Ковентрі","NAME_UR":"کووینٹری","NAME_ZHT":"科芬特里","GEONAMESID":2652221,"FCLASS_ISO":"","FCLASS_US":"","FCLASS_FR":"","FCLASS_RU":"","FCLASS_ES":"","FCLASS_CN":"","FCLASS_TW":"","FCLASS_IN":"","FCLASS_NP":"","FCLASS_PK":"","FCLASS_DE":"","FCLASS_GB":"","FCLASS_BR":"","FCLASS_IL":"","FCLASS_PS":"","FCLASS_SA":"","FCLASS_EG":"","FCLASS_MA":"","FCLASS_PT":"","FCLASS_AR":"","FCLASS_JP":"","FCLASS_KO":"","FCLASS_VN":"","FCLASS_TR":"","FCLASS_ID":"","FCLASS_PL":"","FCLASS_GR":"","FCLASS_IT":"","FCLASS_NL":"","FCLASS_SE":"","FCLASS_BD":"","FCLASS_UA":"","FCLASS_TLC":""}},
{"type":"Feature","geometry":{"type":"Point","coordinates":[-2.3500222,51.3837486]},"properties":{"SCALERANK":7,"NATSCALE":20,"LABELRANK":5,"FEATURECLA":"Populated place","NAME":"Bath","NAMEPAR":"","NAMEALT":"","NAMEASCII":"Bath","ADM0CAP":0,"CAPIN":"","WORLDCITY":0,"MEGACITY":0,"SOV0NAME":"United Kingdom","SOV_A3":"GBR","ADM0NAME":"United Kingdom","ADM0_A3":"GBR","ADM1NAME":"Bath and North East Somerset","ISO_A2":"GB","NOTE":"","LATITUDE":51.383749,"LONGITUDE":-2.350022,"POP_MAX":93238,"POP_MIN":92120,"POP_OTHER":91037,"RANK_MAX":8,"RANK_MIN":8,"MEGANAME":"","LS_NAME":"Bath","MAX_POP10":92120,"MAX_POP20":92120,"MAX_POP50":0,"MAX_POP300":0,"MAX_POP310":0,"MAX_NATSCA":20,"MIN_AREAKM":42,"MAX_AREAKM":42,"MIN_AREAMI":16,"MAX_AREAMI":16,"MIN_PERKM":47,"MAX_PERKM":47,"MIN_PERMI":29,"MAX_PERMI":29,"MIN_BBXMIN":-2.425,"MAX_BBXMIN":-2.425,"MIN_BBXMAX":-2.291667,"MAX_BBXMAX":-2.291667,"MIN_BBYMIN":51.35,"MAX_BBYMIN":51.35,"MIN_BBYMAX":51.416667,"MAX_BBYMAX":51.416667,"MEAN_BBXC":-2.359188,"MEAN_BBYC":51.384615,"TIMEZONE":"Europe/London","UN_FID":0,"POP1950":0,"POP1955":0,"POP1960":0,"POP1965":0,"POP1970":0,"POP1975":0,"POP1980":0,"POP1985":0,"POP1990":0,"POP1995":0,"POP2000":0,"POP2005":0,"POP2010":0,"POP2015":0,"POP2020":0,"POP2025":0,"POP2050":0,"MIN_ZOOM":6.1,"WIKIDATAID":"Q22889","WOF_ID":101750387,"CAPALT":0,"NAME_EN":"Bath","NAME_DE":"Bath","NAME_ES":"Bath","NAME_FR":"Bath","NAME_PT":"Bath","NAME_RU":"Бат","NAME_ZH":"巴斯","LABEL":"","NAME_AR":"باث","NAME_BN":"বাথ","NAME_EL":"Μπαθ","NAME_HI":"बाथ","NAME_HU":"Bath","NAME_ID":"Bath","NAME_IT":"Bath","NAME_JA":"バース","NAME_KO":"바스","NAME_NL":"Bath","NAME_PL":"Bath","NAME_SV":"Bath","NAME_TR":"Bath","NAME_VI":"Bath","NE_ID":1159135071,"NAME_FA":"باث","NAME_HE":"באת'","NAME_UK":"Бат","NAME_UR":"باتھ","NAME_ZHT":"巴斯","GEONAMESID":2656173,"FCLASS_ISO":"","FCLASS_US":"","FCLASS_FR":"","FCLASS_RU":"","FCLASS_ES":"","FCLASS_CN":"","FCLASS_TW":"","FCLASS_IN":"","FCLASS_NP":"","FCLASS_PK":"","FCLASS_DE":"","FCLASS_GB":"","FCLASS_BR":"","FCLASS_IL":"","FCLASS_PS":"","FCLASS_SA":"","FCLASS_EG":"","FCLASS_MA":"","FCLASS_PT":"","FCLASS_AR":"","FCLASS_JP":"","FCLASS_KO":"","FCLASS_VN":"","FCLASS_TR":"","FCLASS_ID":"","FCLASS_PL":"","FCLASS_GR":"","FCLASS_IT":"","FCLASS_NL":"","FCLASS_SE":"","FCLASS_BD":"","FCLASS_UA":"","FCLASS_TLC":""}},
{"type":"Feature","geometry":{"type":"Point","coordinates":[-3.5299502,50.7004053]},"properties":{"SCALERANK":7,"NATSCALE":20,"LABELRANK":5,"FEATURECLA":"Populated place","NAME":"Exeter","NAMEPAR":"","NAMEALT":"","NAMEASCII":"Exeter","ADM0CAP":0,"CAPIN":"","WORLDCITY":0,"MEGACITY":0,"SOV0NAME":"United Kingdom","SOV_A3":"GBR","ADM0NAME":"United Kingdom","ADM0_A3":"GBR","ADM1NAME":"Devon","ISO_A2":"GB","NOTE":"","LATITUDE":50.700405,"LONGITUDE":-3.52995,"POP_MAX":113118,"POP_MIN":103366,"POP_OTHER":93512,"RANK_MAX":9,"RANK_MIN":9,"MEGANAME":"","LS_NAME":"Exeter","MAX_POP10":103366,"MAX_POP20":103366,"MAX_POP50":0,"MAX_POP300":0,"MAX_POP310":0,"MAX_NATSCA":20,"MIN_AREAKM":50,"MAX_AREAKM":50,"MIN_AREAMI":19,"MAX_AREAMI":19,"MIN_PERKM":48,"MAX_PERKM":48,"MIN_PERMI":30,"MAX_PERMI":30,"MIN_BBXMIN":-3.566667,"MAX_BBXMIN":-3.566667,"MIN_BBXMAX":-3.45,"MAX_BBXMAX":-3.45,"MIN_BBYMIN":50.675,"MAX_BBYMIN":50.675,"MIN_BBYMAX":50.75,"MAX_BBYMAX":50.75,"MEAN_BBXC":-3.508104,"MEAN_BBYC":50.718544,"TIMEZONE":"Europe/London","UN_FID":0,"POP1950":0,"POP1955":0,"POP1960":0,"POP1965":0,"POP1970":0,"POP1975":0,"POP1980":0,"POP1985":0,"POP1990":0,"POP1995":0,"POP2000":0,"POP2005":0,"POP2010":0,"POP2015":0,"POP2020":0,"POP2025":0,"POP2050":0,"MIN_ZOOM":5.1,"WIKIDATAID":"Q134672","WOF_ID":101750383,"CAPALT":0,"NAME_EN":"Exeter","NAME_DE":"Exeter","NAME_ES":"Exeter","NAME_FR":"Exeter","NAME_PT":"Exeter","NAME_RU":"Эксетер","NAME_ZH":"埃克塞特","LABEL":"","NAME_AR":"إكستر","NAME_BN":"এক্সেটার","NAME_EL":"Έξετερ","NAME_HI":"एक्सेर","NAME_HU":"Exeter","NAME_ID":"Exeter","NAME_IT":"Exeter","NAME_JA":"エクセター","NAME_KO":"엑서터","NAME_NL":"Exeter","NAME_PL":"Exeter","NAME_SV":"Exeter","NAME_TR":"Exeter","NAME_VI":"Exeter","NE_ID":1159135075,"NAME_FA":"اکستر","NAME_HE":"אקסטר","NAME_UK":"Ексетер","NAME_UR":"ایکسٹر","NAME_ZHT":"艾克希特","GEONAMESID":2649808,"FCLASS_ISO":"","FCLASS_US":"","FCLASS_FR":"","FCLASS_RU":"","FCLASS_ES":"","FCLASS_CN":"","FCLASS_TW":"","FCLASS_IN":"","FCLASS_NP":"","FCLASS_PK":"","FCLASS_DE":"","FCLASS_GB":"","FCLASS_BR":"","FCLASS_IL":"","FCLASS_PS":"","FCLASS_SA":"","FCLASS_EG":"","FCLASS_MA":"","FCLASS_PT":"","FCLASS_AR":"","FCLASS_JP":"","FCLASS_KO":"","FCLASS_VN":"","FCLASS_TR":"","FCLASS_ID":"","FCLASS_PL":"","FCLASS_GR":"","FCLASS_IT":"","FCLASS_NL":"","FCLASS_SE":"","FCLASS_BD":"","FCLASS_UA":"","FCLASS_TLC":""}},
{"type":"Feature","geometry":{"type":"Point","coordinates":[0.1166231,52.2003913]},"properties":{"SCALERANK":7,"NATSCALE":20,"LABELRANK":5,"FEATURECLA":"Populated place","NAME":"Cambridge","NAMEPAR":"","NAMEALT":"","NAMEASCII":"Cambridge","ADM0CAP":0,"CAPIN":"","WORLDCITY":0,"MEGACITY":0,"SOV0NAME":"United Kingdom","SOV_A3":"GBR","ADM0NAME":"United Kingdom","ADM0_A3":"GBR","ADM1NAME":"Cambridgeshire","ISO_A2":"GB","NOTE":"","LATITUDE":52.200391,"LONGITUDE":0.116623,"POP_MAX":128488,"POP_MIN":128488,"POP_OTHER":0,"RANK_MAX":9,"RANK_MIN":9,"MEGANAME":"","LS_NAME":"","MAX_POP10":0,"MAX_POP20":0,"MAX_POP50":0,"MAX_POP300":0,"MAX_POP310":0,"MAX_NATSCA":0,"MIN_AREAKM":0,"MAX_AREAKM":0,"MIN_AREAMI":0,"MAX_AREAMI":0,"MIN_PERKM":0,"MAX_PERKM":0,"MIN_PERMI":0,"MAX_PERMI":0,"MIN_BBXMIN":0,"MAX_BBXMIN":0,"MIN_BBXMAX":0,"MAX_BBXMAX":0,"MIN_BBYMIN":0,"MAX_BBYMIN":0,"MIN_BBYMAX":0,"MAX_BBYMAX":0,"MEAN_BBXC":0,"MEAN_BBYC":0,"TIMEZONE":"Europe/London","UN_FID":0,"POP1950":0,"POP1955":0,"POP1960":0,"POP1965":0,"POP1970":0,"POP1975":0,"POP1980":0,"POP1985":0,"POP1990":0,"POP1995":0,"POP2000":0,"POP2005":0,"POP2010":0,"POP2015":0,"POP2020":0,"POP2025":0,"POP2050":0,"MIN_ZOOM":6.1,"WIKIDATAID":"Q350","WOF_ID":101750465,"CAPALT":0,"NAME_EN":"Cambridge","NAME_DE":"Cambridge","NAME_ES":"Cambridge","NAME_FR":"Cambridge","NAME_PT":"Cambridge","NAME_RU":"Кембридж","NAME_ZH":"剑桥","LABEL":"","NAME_AR":"كامبريدج","NAME_BN":"ক্যামব্রিজ","NAME_EL":"Κέιμπριτζ","NAME_HI":"कैम्ब्रिज","NAME_HU":"Cambridge","NAME_ID":"Cambridge","NAME_IT":"Cambridge","NAME_JA":"ケンブリッジ","NAME_KO":"케임브리지","NAME_NL":"Cambridge","NAME_PL":"Cambridge","NAME_SV":"Cambridge","NAME_TR":"Cambridge","NAME_VI":"Cambridge","NE_ID":1159135079,"NAME_FA":"کمبریج","NAME_HE":"קיימברידג'","NAME_UK":"Кембридж","NAME_UR":"کیمبرج","NAME_ZHT":"劍橋","GEONAMESID":2653941,"FCLASS_ISO":"","FCLASS_US":"","FCLASS_FR":"","FCLASS_RU":"","FCLASS_ES":"","FCLASS_CN":"","FCLASS_TW":"","FCLASS_IN":"","FCLASS_NP":"","FCLASS_PK":"","FCLASS_DE":"","FCLASS_GB":"","FCLASS_BR":"","FCLASS_IL":"","FCLASS_PS":"","FCLASS_SA":"","FCLASS_EG":"","FCLASS_MA":"","FCLASS_PT":"","FCLASS_AR":"","FCLASS_JP":"","FCLASS_KO":"","FCLASS_VN":"","FCLASS_TR":"","FCLASS_ID":"","FCLASS_PL":"","FCLASS_GR":"","FCLASS_IT":"","FCLASS_NL":"","FCLASS_SE":"","FCLASS_BD":"","FCLASS_UA":"","FCLASS_TLC":""}},
{"type":"Feature","geometry":{"type":"Point","coordinates":[-0.3299905,53.7504258]},"properties":{"SCALERANK":7,"NATSCALE":20,"LABELRANK":5,"FEATURECLA":"Populated place","NAME":"Kingston upon Hull","NAMEPAR":"","NAMEALT":"","NAMEASCII":"Kingston upon Hull","ADM0CAP":0,"CAPIN":"","WORLDCITY":0,"MEGACITY":0,"SOV0NAME":"United Kingdom","SOV_A3":"GBR","ADM0NAME":"United Kingdom","ADM0_A3":"GBR","ADM1NAME":"Kingston upon Hull","ISO_A2":"GB","NOTE":"","LATITUDE":53.750426,"LONGITUDE":-0.329991,"POP_MAX":302296,"POP_MIN":292501,"POP_OTHER":280237,"RANK_MAX":10,"RANK_MIN":10,"MEGANAME":"","LS_NAME":"Kingston upon Hull","MAX_POP10":292501,"MAX_POP20":292501,"MAX_POP50":0,"MAX_POP300":0,"MAX_POP310":0,"MAX_NATSCA":20,"MIN_AREAKM":120,"MAX_AREAKM":120,"MIN_AREAMI":46,"MAX_AREAMI":46,"MIN_PERKM":121,"MAX_PERKM":121,"MIN_PERMI":75,"MAX_PERMI":75,"MIN_BBXMIN":-0.516667,"MAX_BBXMIN":-0.516667,"MIN_BBXMAX":-0.216667,"MAX_BBXMAX":-0.216667,"MIN_BBYMIN":53.708333,"MAX_BBYMIN":53.708333,"MIN_BBYMAX":53.825,"MAX_BBYMAX":53.825,"MEAN_BBXC":-0.363771,"MEAN_BBYC":53.762677,"TIMEZONE":"Europe/London","UN_FID":0,"POP1950":0,"POP1955":0,"POP1960":0,"POP1965":0,"POP1970":0,"POP1975":0,"POP1980":0,"POP1985":0,"POP1990":0,"POP1995":0,"POP2000":0,"POP2005":0,"POP2010":0,"POP2015":0,"POP2020":0,"POP2025":0,"POP2050":0,"MIN_ZOOM":6.1,"WIKIDATAID":"Q128147","WOF_ID":101750561,"CAPALT":0,"NAME_EN":"Kingston upon Hull","NAME_DE":"Kingston upon Hull","NAME_ES":"Kingston upon Hull","NAME_FR":"Kingston-upon-Hull","NAME_PT":"Kingston upon Hull","NAME_RU":"Кингстон-апон-Халл","NAME_ZH":"赫尔河畔金斯顿","LABEL":"","NAME_AR":"كينغستون أبون هال","NAME_BN":"কিংস্টন আপন হাল","NAME_EL":"Κίνγκστον απόν Χαλ","NAME_HI":"किंग्स्टन अपॉन हुल","NAME_HU":"Kingston upon Hull","NAME_ID":"Kingston upon Hull","NAME_IT":"Kingston upon Hull","NAME_JA":"キングストン・アポン・ハル","NAME_KO":"킹스턴어폰헐","NAME_NL":"Kingston upon Hull","NAME_PL":"Kingston upon Hull","NAME_SV":"Kingston upon Hull","NAME_TR":"Kingston upon Hull","NAME_VI":"Kingston trên sông Hull","NE_ID":1159135085,"NAME_FA":"کینگستن هال","NAME_HE":"האל","NAME_UK":"Кінгстон-апон-Галл","NAME_UR":"کنگسٹن اپون ہل","NAME_ZHT":"赫爾河畔京斯頓","GEONAMESID":2645425,"FCLASS_ISO":"","FCLASS_US":"","FCLASS_FR":"","FCLASS_RU":"","FCLASS_ES":"","FCLASS_CN":"","FCLASS_TW":"","FCLASS_IN":"","FCLASS_NP":"","FCLASS_PK":"","FCLASS_DE":"","FCLASS_GB":"","FCLASS_BR":"","FCLASS_IL":"","FCLASS_PS":"","FCLASS_SA":"","FCLASS_EG":"","FCLASS_MA":"","FCLASS_PT":"","FCLASS_AR":"","FCLASS_JP":"","FCLASS_KO":"","FCLASS_VN":"","FCLASS_TR":"","FCLASS_ID":"","FCLASS_PL":"","FCLASS_GR":"","FCLASS_IT":"","FCLASS_NL":"","FCLASS_SE":"","FCLASS_BD":"","FCLASS_UA":"","FCLASS_TLC":""}},
{"type":"Feature","geometry":{"type":"Point","coordinates":[-7.3332839,55.0003754]},"properties":{"SCALERANK":7,"NATSCALE":20,"LABELRANK":5,"FEATURECLA":"Populated place","NAME":"Londonderry/Derry","NAMEPAR":"","NAMEALT":"","NAMEASCII":"Londonderry","ADM0CAP":0,"CAPIN":"","WORLDCITY":0,"MEGACITY":0,"SOV0NAME":"United Kingdom","SOV_A3":"GBR","ADM0NAME":"United Kingdom","ADM0_A3":"GBR","ADM1NAME":"Derry","ISO_A2":"GB","NOTE":"","LATITUDE":55.000375,"LONGITUDE":-7.333284,"POP_MAX":83652,"POP_MIN":81618,"POP_OTHER":78886,"RANK_MAX":8,"RANK_MIN":8,"MEGANAME":"","LS_NAME":"Londonderry","MAX_POP10":81618,"MAX_POP20":81618,"MAX_POP50":0,"MAX_POP300":0,"MAX_POP310":0,"MAX_NATSCA":20,"MIN_AREAKM":36,"MAX_AREAKM":36,"MIN_AREAMI":14,"MAX_AREAMI":14,"MIN_PERKM":44,"MAX_PERKM":44,"MIN_PERMI":28,"MAX_PERMI":28,"MIN_BBXMIN":-7.366667,"MAX_BBXMIN":-7.366667,"MIN_BBXMAX":-7.266667,"MAX_BBXMAX":-7.266667,"MIN_BBYMIN":54.975,"MAX_BBYMIN":54.975,"MIN_BBYMAX":55.041667,"MAX_BBYMAX":55.041667,"MEAN_BBXC":-7.318664,"MEAN_BBYC":55.006107,"TIMEZONE":"Europe/London","UN_FID":0,"POP1950":0,"POP1955":0,"POP1960":0,"POP1965":0,"POP1970":0,"POP1975":0,"POP1980":0,"POP1985":0,"POP1990":0,"POP1995":0,"POP2000":0,"POP2005":0,"POP2010":0,"POP2015":0,"POP2020":0,"POP2025":0,"POP2050":0,"MIN_ZOOM":6.1,"WIKIDATAID":"Q163584","WOF_ID":101751941,"CAPALT":0,"NAME_EN":"Londonderry/Derry","NAME_DE":"Londonderry/Derry","NAME_ES":"Londonderry/Derry","NAME_FR":"Londonderry/Derry","NAME_PT":"Londonderry/Derry","NAME_RU":"Дерри","NAME_ZH":"德里","LABEL":"","NAME_AR":"ديري","NAME_BN":"ডেরি","NAME_EL":"Ντέρι","NAME_HI":"लोंदेंडरी / डेरी","NAME_HU":"Londonderry/Derry","NAME_ID":"Londonderry/Derry","NAME_IT":"Londonderry/Derry","NAME_JA":"ロンドンデリー","NAME_KO":"데리","NAME_NL":"Londonderry/Derry","NAME_PL":"Londonderry/Derry","NAME_SV":"Londonderry/Derry","NAME_TR":"Londonderry/Derry","NAME_VI":"Londonderry/Derry","NE_ID":1159135089,"NAME_FA":"دری","NAME_HE":"דרי","NAME_UK":"Деррі","NAME_UR":"ڈیری","NAME_ZHT":"德里","GEONAMESID":2643736,"FCLASS_ISO":"","FCLASS_US":"","FCLASS_FR":"","FCLASS_RU":"","FCLASS_ES":"","FCLASS_CN":"","FCLASS_TW":"","FCLASS_IN":"","FCLASS_NP":"","FCLASS_PK":"","FCLASS_DE":"","FCLASS_GB":"","FCLASS_BR":"","FCLASS_IL":"","FCLASS_PS":"","FCLASS_SA":"","FCLASS_EG":"","FCLASS_MA":"","FCLASS_PT":"","FCLASS_AR":"","FCLASS_JP":"","FCLASS_KO":"","FCLASS_VN":"","FCLASS_TR":"","FCLASS_ID":"","FCLASS_PL":"","FCLASS_GR":"","FCLASS_IT":"","FCLASS_NL":"","FCLASS_SE":"","FCLASS_BD":"","FCLASS_UA":"","FCLASS_TLC":""}},
{"type":"Feature","geometry":{"type":"Point","coordinates":[-6.047722990732365,54.51034008127803]},"properties":{"SCALERANK":7,"NATSCALE":20,"LABELRANK":5,"FEATURECLA":"Populated place","NAME":"Lisburn","NAMEPAR":"","NAMEALT":"","NAMEASCII":"Lisburn","ADM0CAP":0,"CAPIN":"","WORLDCITY":0,"MEGACITY":0,"SOV0NAME":"United Kingdom","SOV_A3":"GBR","ADM0NAME":"United Kingdom","ADM0_A3":"GBR","ADM1NAME":"Dungannon","ISO_A2":"GB","NOTE":"","LATITUDE":54.520379,"LONGITUDE":-6.670017,"POP_MAX":12899,"POP_MIN":12899,"POP_OTHER":0,"RANK_MAX":6,"RANK_MIN":6,"MEGANAME":"","LS_NAME":"Lisburn","MAX_POP10":12899,"MAX_POP20":0,"MAX_POP50":0,"MAX_POP300":0,"MAX_POP310":0,"MAX_NATSCA":10,"MIN_AREAKM":13,"MAX_AREAKM":13,"MIN_AREAMI":5,"MAX_AREAMI":5,"MIN_PERKM":26,"MAX_PERKM":26,"MIN_PERMI":16,"MAX_PERMI":16,"MIN_BBXMIN":-6.791667,"MAX_BBXMIN":-6.791667,"MIN_BBXMAX":-6.691667,"MAX_BBXMAX":-6.691667,"MIN_BBYMIN":54.475429,"MAX_BBYMIN":54.475429,"MIN_BBYMAX":54.550429,"MAX_BBYMAX":54.550429,"MEAN_BBXC":-6.7505,"MEAN_BBYC":54.513263,"TIMEZONE":"","UN_FID":0,"POP1950":0,"POP1955":0,"POP1960":0,"POP1965":0,"POP1970":0,"POP1975":0,"POP1980":0,"POP1985":0,"POP1990":0,"POP1995":0,"POP2000":0,"POP2005":0,"POP2010":0,"POP2015":0,"POP2020":0,"POP2025":0,"POP2050":0,"MIN_ZOOM":6.7,"WIKIDATAID":"Q1828035","WOF_ID":1141906971,"CAPALT":0,"NAME_EN":"Lisburn","NAME_DE":"Lisburn","NAME_ES":"Lisburn","NAME_FR":"Lisburn","NAME_PT":"Lisburn","NAME_RU":"Лисберн","NAME_ZH":"利斯本","LABEL":"","NAME_AR":"ليسبورن","NAME_BN":"লিসবার্ন","NAME_EL":"Λίσμπερν","NAME_HI":"लिसबर्न","NAME_HU":"Lisburn","NAME_ID":"Lisburn","NAME_IT":"Lisburn","NAME_JA":"リスバーン","NAME_KO":"리즈번","NAME_NL":"Lisburn","NAME_PL":"Lisburn","NAME_SV":"Lisburn","NAME_TR":"Lisburn","NAME_VI":"Lisburn","NE_ID":1159135093,"NAME_FA":"لیسبورن","NAME_HE":"ליסבורן","NAME_UK":"Лісберн","NAME_UR":"لسبرن","NAME_ZHT":"利斯本","GEONAMESID":-1,"FCLASS_ISO":"","FCLASS_US":"","FCLASS_FR":"","FCLASS_RU":"","FCLASS_ES":"","FCLASS_CN":"","FCLASS_TW":"","FCLASS_IN":"","FCLASS_NP":"","FCLASS_PK":"","FCLASS_DE":"","FCLASS_GB":"","FCLASS_BR":"","FCLASS_IL":"","FCLASS_PS":"","FCLASS_SA":"","FCLASS_EG":"","FCLASS_MA":"","FCLASS_PT":"","FCLASS_AR":"","FCLASS_JP":"","FCLASS_KO":"","FCLASS_VN":"","FCLASS_TR":"","FCLASS_ID":"","FCLASS_PL":"","FCLASS_GR":"","FCLASS_IT":"","FCLASS_NL":"","FCLASS_SE":"","FCLASS_BD":"","FCLASS_UA":"","FCLASS_TLC":""}},
{"type":"Feature","geometry":{"type":"Point","coordinates":[-5.5500336,50.1337215]},"properties":{"SCALERANK":7,"NATSCALE":20,"LABELRANK":5,"FEATURECLA":"Populated place","NAME":"Penzance","NAMEPAR":"","NAMEALT":"","NAMEASCII":"Penzance","ADM0CAP":0,"CAPIN":"","WORLDCITY":0,"MEGACITY":0,"SOV0NAME":"United Kingdom","SOV_A3":"GBR","ADM0NAME":"United Kingdom","ADM0_A3":"GBR","ADM1NAME":"Cornwall","ISO_A2":"GB","NOTE":"","LATITUDE":50.133722,"LONGITUDE":-5.550034,"POP_MAX":20812,"POP_MIN":15489,"POP_OTHER":15072,"RANK_MAX":7,"RANK_MIN":6,"MEGANAME":"","LS_NAME":"Penzance","MAX_POP10":15489,"MAX_POP20":15489,"MAX_POP50":0,"MAX_POP300":0,"MAX_POP310":0,"MAX_NATSCA":20,"MIN_AREAKM":14,"MAX_AREAKM":14,"MIN_AREAMI":5,"MAX_AREAMI":5,"MIN_PERKM":29,"MAX_PERKM":29,"MIN_PERMI":18,"MAX_PERMI":18,"MIN_BBXMIN":-5.566667,"MAX_BBXMIN":-5.566667,"MIN_BBXMAX":-5.475,"MAX_BBXMAX":-5.475,"MIN_BBYMIN":50.091667,"MAX_BBYMIN":50.091667,"MIN_BBYMAX":50.141667,"MAX_BBYMAX":50.141667,"MEAN_BBXC":-5.533833,"MEAN_BBYC":50.120833,"TIMEZONE":"Europe/London","UN_FID":0,"POP1950":0,"POP1955":0,"POP1960":0,"POP1965":0,"POP1970":0,"POP1975":0,"POP1980":0,"POP1985":0,"POP1990":0,"POP1995":0,"POP2000":0,"POP2005":0,"POP2010":0,"POP2015":0,"POP2020":0,"POP2025":0,"POP2050":0,"MIN_ZOOM":6.1,"WIKIDATAID":"Q208209","WOF_ID":1141906973,"CAPALT":0,"NAME_EN":"Penzance","NAME_DE":"Penzance","NAME_ES":"Penzance","NAME_FR":"Penzance","NAME_PT":"Penzance","NAME_RU":"Пензанс","NAME_ZH":"彭赞斯","LABEL":"","NAME_AR":"بينزانس","NAME_BN":"পেঞ্জান্সে","NAME_EL":"Πενζάνς","NAME_HI":"पेंजैंस","NAME_HU":"Penzance","NAME_ID":"Penzance","NAME_IT":"Penzance","NAME_JA":"ペンザンス","NAME_KO":"펜잰스","NAME_NL":"Penzance","NAME_PL":"Penzance","NAME_SV":"Penzance","NAME_TR":"Penzance","NAME_VI":"Penzance","NE_ID":1159135097,"NAME_FA":"پنزانس","NAME_HE":"פנזאנס","NAME_UK":"Пензанс","NAME_UR":"پینزانکی","NAME_ZHT":"彭贊斯","GEONAMESID":2640377,"FCLASS_ISO":"","FCLASS_US":"","FCLASS_FR":"","FCLASS_RU":"","FCLASS_ES":"","FCLASS_CN":"","FCLASS_TW":"","FCLASS_IN":"","FCLASS_NP":"","FCLASS_PK":"","FCLASS_DE":"","FCLASS_GB":"","FCLASS_BR":"","FCLASS_IL":"","FCLASS_PS":"","FCLASS_SA":"","FCLASS_EG":"","FCLASS_MA":"","FCLASS_PT":"","FCLASS_AR":"","FCLASS_JP":"","FCLASS_KO":"","FCLASS_VN":"","FCLASS_TR":"","FCLASS_ID":"","FCLASS_PL":"","FCLASS_GR":"","FCLASS_IT":"","FCLASS_NL":"","FCLASS_SE":"","FCLASS_BD":"","FCLASS_UA":"","FCLASS_TLC":""}},
{"type":"Feature","geometry":{"type":"Point","coordinates":[-1.0721040586041342,53.9511680622694]},"properties":{"SCALERANK":7,"NATSCALE":20,"LABELRANK":5,"FEATURECLA":"Populated place","NAME":"York","NAMEPAR":"","NAMEALT":"","NAMEASCII":"York","ADM0CAP":0,"CAPIN":"","WORLDCITY":0,"MEGACITY":0,"SOV0NAME":"United Kingdom","SOV_A3":"GBR","ADM0NAME":"United Kingdom","ADM0_A3":"GBR","ADM1NAME":"York","ISO_A2":"GB","NOTE":"","LATITUDE":53.970387,"LONGITUDE":-1.080022,"POP_MAX":158947,"POP_MIN":144202,"POP_OTHER":214418,"RANK_MAX":9,"RANK_MIN":9,"MEGANAME":"","LS_NAME":"York2","MAX_POP10":158947,"MAX_POP20":158947,"MAX_POP50":0,"MAX_POP300":0,"MAX_POP310":0,"MAX_NATSCA":20,"MIN_AREAKM":64,"MAX_AREAKM":64,"MIN_AREAMI":25,"MAX_AREAMI":25,"MIN_PERKM":70,"MAX_PERKM":70,"MIN_PERMI":43,"MAX_PERMI":43,"MIN_BBXMIN":-1.158333,"MAX_BBXMIN":-1.158333,"MIN_BBXMAX":-1.025,"MAX_BBXMAX":-1.025,"MIN_BBYMIN":53.908333,"MAX_BBYMIN":53.908333,"MIN_BBYMAX":54.025,"MAX_BBYMAX":54.025,"MEAN_BBXC":-1.09019,"MEAN_BBYC":53.969783,"TIMEZONE":"Europe/London","UN_FID":0,"POP1950":0,"POP1955":0,"POP1960":0,"POP1965":0,"POP1970":0,"POP1975":0,"POP1980":0,"POP1985":0,"POP1990":0,"POP1995":0,"POP2000":0,"POP2005":0,"POP2010":0,"POP2015":0,"POP2020":0,"POP2025":0,"POP2050":0,"MIN_ZOOM":6.7,"WIKIDATAID":"Q42462","WOF_ID":101751641,"CAPALT":0,"NAME_EN":"York","NAME_DE":"York","NAME_ES":"York","NAME_FR":"York","NAME_PT":"Iorque","NAME_RU":"Йорк","NAME_ZH":"约克","LABEL":"","NAME_AR":"يورك","NAME_BN":"ইয়র্ক","NAME_EL":"Γιορκ","NAME_HI":"यॉर्क","NAME_HU":"York","NAME_ID":"York","NAME_IT":"York","NAME_JA":"ヨーク","NAME_KO":"요크","NAME_NL":"York","NAME_PL":"York","NAME_SV":"York","NAME_TR":"York","NAME_VI":"York","NE_ID":1159135103,"NAME_FA":"یورک","NAME_HE":"יורק","NAME_UK":"Йорк","NAME_UR":"یورک","NAME_ZHT":"約克","GEONAMESID":2633352,"FCLASS_ISO":"","FCLASS_US":"","FCLASS_FR":"","FCLASS_RU":"","FCLASS_ES":"","FCLASS_CN":"","FCLASS_TW":"","FCLASS_IN":"","FCLASS_NP":"","FCLASS_PK":"","FCLASS_DE":"","FCLASS_GB":"","FCLASS_BR":"","FCLASS_IL":"","FCLASS_PS":"","FCLASS_SA":"","FCLASS_EG":"","FCLASS_MA":"","FCLASS_PT":"","FCLASS_AR":"","FCLASS_JP":"","FCLASS_KO":"","FCLASS_VN":"","FCLASS_TR":"","FCLASS_ID":"","FCLASS_PL":"","FCLASS_GR":"","FCLASS_IT":"","FCLASS_NL":"","FCLASS_SE":"","FCLASS_BD":"","FCLASS_UA":"","FCLASS_TLC":""}},
{"type":"Feature","geometry":{"type":"Point","coordinates":[-3.0500053,53.8303951]},"properties":{"SCALERANK":7,"NATSCALE":20,"LABELRANK":5,"FEATURECLA":"Populated place","NAME":"Blackpool","NAMEPAR":"","NAMEALT":"","NAMEASCII":"Blackpool","ADM0CAP":0,"CAPIN":"","WORLDCITY":0,"MEGACITY":0,"SOV0NAME":"United Kingdom","SOV_A3":"GBR","ADM0NAME":"United Kingdom","ADM0_A3":"GBR","ADM1NAME":"Lancashire","ISO_A2":"GB","NOTE":"","LATITUDE":53.830395,"LONGITUDE":-3.050005,"POP_MAX":272792,"POP_MIN":143101,"POP_OTHER":245350,"RANK_MAX":10,"RANK_MIN":9,"MEGANAME":"","LS_NAME":"Blackpool","MAX_POP10":272792,"MAX_POP20":272792,"MAX_POP50":0,"MAX_POP300":0,"MAX_POP310":0,"MAX_NATSCA":20,"MIN_AREAKM":94,"MAX_AREAKM":94,"MIN_AREAMI":36,"MAX_AREAMI":36,"MIN_PERKM":95,"MAX_PERKM":95,"MIN_PERMI":59,"MAX_PERMI":59,"MIN_BBXMIN":-3.058333,"MAX_BBXMIN":-3.058333,"MIN_BBXMAX":-2.933333,"MAX_BBXMAX":-2.933333,"MIN_BBYMIN":53.733333,"MAX_BBYMIN":53.733333,"MIN_BBYMAX":53.933333,"MAX_BBYMAX":53.933333,"MEAN_BBXC":-3.013542,"MEAN_BBYC":53.828668,"TIMEZONE":"Europe/London","UN_FID":0,"POP1950":0,"POP1955":0,"POP1960":0,"POP1965":0,"POP1970":0,"POP1975":0,"POP1980":0,"POP1985":0,"POP1990":0,"POP1995":0,"POP2000":0,"POP2005":0,"POP2010":0,"POP2015":0,"POP2020":0,"POP2025":0,"POP2050":0,"MIN_ZOOM":6.7,"WIKIDATAID":"Q170377","WOF_ID":101750583,"CAPALT":0,"NAME_EN":"Blackpool","NAME_DE":"Blackpool","NAME_ES":"Blackpool","NAME_FR":"Blackpool","NAME_PT":"Blackpool","NAME_RU":"Блэкпул","NAME_ZH":"布莱克浦","LABEL":"","NAME_AR":"بلاكبول","NAME_BN":"ব্ল্যাকপুল","NAME_EL":"Μπλάκπουλ","NAME_HI":"ब्लैकपूल","NAME_HU":"Blackpool","NAME_ID":"Blackpool","NAME_IT":"Blackpool","NAME_JA":"ブラックプール","NAME_KO":"블랙풀","NAME_NL":"Blackpool","NAME_PL":"Blackpool","NAME_SV":"Blackpool","NAME_TR":"Blackpool","NAME_VI":"Blackpool","NE_ID":1159135107,"NAME_FA":"بلکپول","NAME_HE":"בלקפול","NAME_UK":"Блекпул","NAME_UR":"بلیکپول","NAME_ZHT":"黑潭","GEONAMESID":2655459,"FCLASS_ISO":"","FCLASS_US":"","FCLASS_FR":"","FCLASS_RU":"","FCLASS_ES":"","FCLASS_CN":"","FCLASS_TW":"","FCLASS_IN":"","FCLASS_NP":"","FCLASS_PK":"","FCLASS_DE":"","FCLASS_GB":"","FCLASS_BR":"","FCLASS_IL":"","FCLASS_PS":"","FCLASS_SA":"","FCLASS_EG":"","FCLASS_MA":"","FCLASS_PT":"","FCLASS_AR":"","FCLASS_JP":"","FCLASS_KO":"","FCLASS_VN":"","FCLASS_TR":"","FCLASS_ID":"","FCLASS_PL":"","FCLASS_GR":"","FCLASS_IT":"","FCLASS_NL":"","FCLASS_SE":"","FCLASS_BD":"","FCLASS_UA":"","FCLASS_TLC":""}},
{"type":"Feature","geometry":{"type":"Point","coordinates":[-3.5500007,55.0670897]},"properties":{"SCALERANK":7,"NATSCALE":20,"LABELRANK":5,"FEATURECLA":"Populated place","NAME":"Dumfries","NAMEPAR":"","NAMEALT":"","NAMEASCII":"Dumfries","ADM0CAP":0,"CAPIN":"","WORLDCITY":0,"MEGACITY":0,"SOV0NAME":"United Kingdom","SOV_A3":"GBR","ADM0NAME":"United Kingdom","ADM0_A3":"GBR","ADM1NAME":"Dumfries and Galloway","ISO_A2":"GB","NOTE":"","LATITUDE":55.06709,"LONGITUDE":-3.550001,"POP_MAX":31044,"POP_MIN":31044,"POP_OTHER":0,"RANK_MAX":7,"RANK_MIN":7,"MEGANAME":"","LS_NAME":"Dumfries","MAX_POP10":31044,"MAX_POP20":31044,"MAX_POP50":0,"MAX_POP300":0,"MAX_POP310":0,"MAX_NATSCA":20,"MIN_AREAKM":23,"MAX_AREAKM":23,"MIN_AREAMI":9,"MAX_AREAMI":9,"MIN_PERKM":40,"MAX_PERKM":40,"MIN_PERMI":25,"MAX_PERMI":25,"MIN_BBXMIN":-3.658333,"MAX_BBXMIN":-3.658333,"MIN_BBXMAX":-3.566667,"MAX_BBXMAX":-3.566667,"MIN_BBYMIN":55.041667,"MAX_BBYMIN":55.041667,"MIN_BBYMAX":55.108333,"MAX_BBYMAX":55.108333,"MEAN_BBXC":-3.608954,"MEAN_BBYC":55.071897,"TIMEZONE":"","UN_FID":0,"POP1950":0,"POP1955":0,"POP1960":0,"POP1965":0,"POP1970":0,"POP1975":0,"POP1980":0,"POP1985":0,"POP1990":0,"POP1995":0,"POP2000":0,"POP2005":0,"POP2010":0,"POP2015":0,"POP2020":0,"POP2025":0,"POP2050":0,"MIN_ZOOM":6.1,"WIKIDATAID":"Q652035","WOF_ID":1141906975,"CAPALT":0,"NAME_EN":"Dumfries","NAME_DE":"Dumfries","NAME_ES":"Dumfries","NAME_FR":"Dumfries","NAME_PT":"Dumfries","NAME_RU":"Дамфрис","NAME_ZH":"鄧弗里斯","LABEL":"","NAME_AR":"دامفريس","NAME_BN":"ডামফ্রিজ","NAME_EL":"Ντάμφρις","NAME_HI":"डमफ़्राइज़","NAME_HU":"Dumfries","NAME_ID":"Dumfries","NAME_IT":"Dumfries","NAME_JA":"ダンフリーズ","NAME_KO":"덤프리스","NAME_NL":"Dumfries","NAME_PL":"Dumfries","NAME_SV":"Dumfries","NAME_TR":"Dumfries","NAME_VI":"Dumfries","NE_ID":1159135111,"NAME_FA":"دامفریس","NAME_HE":"דמפריס","NAME_UK":"Дамфріс","NAME_UR":"ڈمفرائز","NAME_ZHT":"鄧弗里斯","GEONAMESID":2650798,"FCLASS_ISO":"","FCLASS_US":"","FCLASS_FR":"","FCLASS_RU":"","FCLASS_ES":"","FCLASS_CN":"","FCLASS_TW":"","FCLASS_IN":"","FCLASS_NP":"","FCLASS_PK":"","FCLASS_DE":"","FCLASS_GB":"","FCLASS_BR":"","FCLASS_IL":"","FCLASS_PS":"","FCLASS_SA":"","FCLASS_EG":"","FCLASS_MA":"","FCLASS_PT":"","FCLASS_AR":"","FCLASS_JP":"","FCLASS_KO":"","FCLASS_VN":"","FCLASS_TR":"","FCLASS_ID":"","FCLASS_PL":"","FCLASS_GR":"","FCLASS_IT":"","FCLASS_NL":"","FCLASS_SE":"","FCLASS_BD":"","FCLASS_UA":"","FCLASS_TLC":""}},
{"type":"Feature","geometry":{"type":"Point","coordinates":[-0.4299844,54.2803935]},"properties":{"SCALERANK":7,"NATSCALE":20,"LABELRANK":5,"FEATURECLA":"Populated place","NAME":"Scarborough","NAMEPAR":"","NAMEALT":"","NAMEASCII":"Scarborough","ADM0CAP":0,"CAPIN":"","WORLDCITY":0,"MEGACITY":0,"SOV0NAME":"United Kingdom","SOV_A3":"GBR","ADM0NAME":"United Kingdom","ADM0_A3":"GBR","ADM1NAME":"North Yorkshire","ISO_A2":"GB","NOTE":"","LATITUDE":54.280394,"LONGITUDE":-0.429984,"POP_MAX":70571,"POP_MIN":70571,"POP_OTHER":66389,"RANK_MAX":8,"RANK_MIN":8,"MEGANAME":"","LS_NAME":"Scarborough","MAX_POP10":70571,"MAX_POP20":70571,"MAX_POP50":0,"MAX_POP300":0,"MAX_POP310":0,"MAX_NATSCA":20,"MIN_AREAKM":32,"MAX_AREAKM":32,"MIN_AREAMI":12,"MAX_AREAMI":12,"MIN_PERKM":53,"MAX_PERKM":53,"MIN_PERMI":33,"MAX_PERMI":33,"MIN_BBXMIN":-0.466667,"MAX_BBXMIN":-0.466667,"MIN_BBXMAX":-0.366667,"MAX_BBXMAX":-0.366667,"MIN_BBYMIN":54.225,"MAX_BBYMIN":54.225,"MIN_BBYMAX":54.308333,"MAX_BBYMAX":54.308333,"MEAN_BBXC":-0.41541,"MEAN_BBYC":54.267659,"TIMEZONE":"","UN_FID":0,"POP1950":0,"POP1955":0,"POP1960":0,"POP1965":0,"POP1970":0,"POP1975":0,"POP1980":0,"POP1985":0,"POP1990":0,"POP1995":0,"POP2000":0,"POP2005":0,"POP2010":0,"POP2015":0,"POP2020":0,"POP2025":0,"POP2050":0,"MIN_ZOOM":6.7,"WIKIDATAID":"Q743521","WOF_ID":1141906979,"CAPALT":0,"NAME_EN":"Scarborough","NAME_DE":"Scarborough","NAME_ES":"Scarborough","NAME_FR":"Scarborough","NAME_PT":"Scarborough","NAME_RU":"Скарборо","NAME_ZH":"斯卡布罗","LABEL":"","NAME_AR":"سكاربورو","NAME_BN":"স্কারবোরাফ","NAME_EL":"Σκάρμπορο","NAME_HI":"स्कारबोरो","NAME_HU":"Scarborough","NAME_ID":"Scarborough","NAME_IT":"Scarborough","NAME_JA":"スカーブラ","NAME_KO":"스카버러","NAME_NL":"Scarborough","NAME_PL":"Scarborough","NAME_SV":"Scarborough","NAME_TR":"Scarborough","NAME_VI":"Scarborough","NE_ID":1159135115,"NAME_FA":"اسکاربرو","NAME_HE":"סקרבורו","NAME_UK":"Скарборо","NAME_UR":"سکاربورو","NAME_ZHT":"斯卡布羅","GEONAMESID":2638419,"FCLASS_ISO":"","FCLASS_US":"","FCLASS_FR":"","FCLASS_RU":"","FCLASS_ES":"","FCLASS_CN":"","FCLASS_TW":"","FCLASS_IN":"","FCLASS_NP":"","FCLASS_PK":"","FCLASS_DE":"","FCLASS_GB":"","FCLASS_BR":"","FCLASS_IL":"","FCLASS_PS":"","FCLASS_SA":"","FCLASS_EG":"","FCLASS_MA":"","FCLASS_PT":"","FCLASS_AR":"","FCLASS_JP":"","FCLASS_KO":"","FCLASS_VN":"","FCLASS_TR":"","FCLASS_ID":"","FCLASS_PL":"","FCLASS_GR":"","FCLASS_IT":"","FCLASS_NL":"","FCLASS_SE":"","FCLASS_BD":"","FCLASS_UA":"","FCLASS_TLC":""}},
{"type":"Feature","geometry":{"type":"Point","coordinates":[-4.1599893,50.3853858]},"properties":{"SCALERANK":7,"NATSCALE":20,"LABELRANK":5,"FEATURECLA":"Populated place","NAME":"Plymouth","NAMEPAR":"","NAMEALT":"","NAMEASCII":"Plymouth","ADM0CAP":0,"CAPIN":"","WORLDCITY":0,"MEGACITY":0,"SOV0NAME":"United Kingdom","SOV_A3":"GBR","ADM0NAME":"United Kingdom","ADM0_A3":"GBR","ADM1NAME":"Plymouth","ISO_A2":"GB","NOTE":"","LATITUDE":50.385386,"LONGITUDE":-4.159989,"POP_MAX":247297,"POP_MIN":231575,"POP_OTHER":227019,"RANK_MAX":10,"RANK_MIN":10,"MEGANAME":"","LS_NAME":"Plymouth","MAX_POP10":231575,"MAX_POP20":231575,"MAX_POP50":0,"MAX_POP300":0,"MAX_POP310":0,"MAX_NATSCA":20,"MIN_AREAKM":86,"MAX_AREAKM":86,"MIN_AREAMI":33,"MAX_AREAMI":33,"MIN_PERKM":78,"MAX_PERKM":78,"MIN_PERMI":48,"MAX_PERMI":48,"MIN_BBXMIN":-4.208333,"MAX_BBXMIN":-4.208333,"MIN_BBXMAX":-4.008333,"MAX_BBXMAX":-4.008333,"MIN_BBYMIN":50.341667,"MAX_BBYMIN":50.341667,"MIN_BBYMAX":50.45,"MAX_BBYMAX":50.45,"MEAN_BBXC":-4.119506,"MEAN_BBYC":50.393286,"TIMEZONE":"Europe/London","UN_FID":0,"POP1950":0,"POP1955":0,"POP1960":0,"POP1965":0,"POP1970":0,"POP1975":0,"POP1980":0,"POP1985":0,"POP1990":0,"POP1995":0,"POP2000":0,"POP2005":0,"POP2010":0,"POP2015":0,"POP2020":0,"POP2025":0,"POP2050":0,"MIN_ZOOM":6.7,"WIKIDATAID":"Q43382","WOF_ID":101750297,"CAPALT":0,"NAME_EN":"Plymouth","NAME_DE":"Plymouth","NAME_ES":"Plymouth","NAME_FR":"Plymouth","NAME_PT":"Plymouth","NAME_RU":"Плимут","NAME_ZH":"普利茅斯","LABEL":"","NAME_AR":"بليموث","NAME_BN":"প্লাইমাউথ","NAME_EL":"Πλίμουθ","NAME_HI":"प्लायमाउथ","NAME_HU":"Plymouth","NAME_ID":"Plymouth","NAME_IT":"Plymouth","NAME_JA":"プリマス","NAME_KO":"플리머스","NAME_NL":"Plymouth","NAME_PL":"Plymouth","NAME_SV":"Plymouth","NAME_TR":"Plymouth","NAME_VI":"Plymouth","NE_ID":1159135121,"NAME_FA":"پلیموث","NAME_HE":"פלימות'","NAME_UK":"Плімут","NAME_UR":"پلایماؤتھ","NAME_ZHT":"普利茅斯","GEONAMESID":2640194,"FCLASS_ISO":"","FCLASS_US":"","FCLASS_FR":"","FCLASS_RU":"","FCLASS_ES":"","FCLASS_CN":"","FCLASS_TW":"","FCLASS_IN":"","FCLASS_NP":"","FCLASS_PK":"","FCLASS_DE":"","FCLASS_GB":"","FCLASS_BR":"","FCLASS_IL":"","FCLASS_PS":"","FCLASS_SA":"","FCLASS_EG":"","FCLASS_MA":"","FCLASS_PT":"","FCLASS_AR":"","FCLASS_JP":"","FCLASS_KO":"","FCLASS_VN":"","FCLASS_TR":"","FCLASS_ID":"","FCLASS_PL":"","FCLASS_GR":"","FCLASS_IT":"","FCLASS_NL":"","FCLASS_SE":"","FCLASS_BD":"","FCLASS_UA":"","FCLASS_TLC":""}},
{"type":"Feature","geometry":{"type":"Point","coordinates":[1.1699955,52.0703475]},"properties":{"SCALERANK":7,"NATSCALE":20,"LABELRANK":5,"FEATURECLA":"Populated place","NAME":"Ipswich","NAMEPAR":"","NAMEALT":"","NAMEASCII":"Ipswich","ADM0CAP":0,"CAPIN":"","WORLDCITY":0,"MEGACITY":0,"SOV0NAME":"United Kingdom","SOV_A3":"GBR","ADM0NAME":"United Kingdom","ADM0_A3":"GBR","ADM1NAME":"Suffolk","ISO_A2":"GB","NOTE":"","LATITUDE":52.070348,"LONGITUDE":1.169996,"POP_MAX":143767,"POP_MIN":134257,"POP_OTHER":132679,"RANK_MAX":9,"RANK_MIN":9,"MEGANAME":"","LS_NAME":"Ipswich","MAX_POP10":134257,"MAX_POP20":134257,"MAX_POP50":0,"MAX_POP300":0,"MAX_POP310":0,"MAX_NATSCA":20,"MIN_AREAKM":66,"MAX_AREAKM":66,"MIN_AREAMI":25,"MAX_AREAMI":25,"MIN_PERKM":68,"MAX_PERKM":68,"MIN_PERMI":42,"MAX_PERMI":42,"MIN_BBXMIN":1.083333,"MAX_BBXMIN":1.083333,"MIN_BBXMAX":1.291667,"MAX_BBXMAX":1.291667,"MIN_BBYMIN":52.025,"MAX_BBYMIN":52.025,"MIN_BBYMAX":52.1,"MAX_BBYMAX":52.1,"MEAN_BBXC":1.172245,"MEAN_BBYC":52.058065,"TIMEZONE":"Europe/London","UN_FID":0,"POP1950":0,"POP1955":0,"POP1960":0,"POP1965":0,"POP1970":0,"POP1975":0,"POP1980":0,"POP1985":0,"POP1990":0,"POP1995":0,"POP2000":0,"POP2005":0,"POP2010":0,"POP2015":0,"POP2020":0,"POP2025":0,"POP2050":0,"MIN_ZOOM":6.7,"WIKIDATAID":"Q184775","WOF_ID":101750447,"CAPALT":0,"NAME_EN":"Ipswich","NAME_DE":"Ipswich","NAME_ES":"Ipswich","NAME_FR":"Ipswich","NAME_PT":"Ipswich","NAME_RU":"Ипсуич","NAME_ZH":"伊普斯威奇","LABEL":"","NAME_AR":"إبسوتش","NAME_BN":"ইপ্সউইচ","NAME_EL":"Ίπσουιτς","NAME_HI":"इप्स्विच","NAME_HU":"Ipswich","NAME_ID":"Ipswich","NAME_IT":"Ipswich","NAME_JA":"イプスウィッチ","NAME_KO":"입스위치","NAME_NL":"Ipswich","NAME_PL":"Ipswich","NAME_SV":"Ipswich","NAME_TR":"Ipswich","NAME_VI":"Ipswich","NE_ID":1159135237,"NAME_FA":"ایپسوییچ","NAME_HE":"איפסוויץ'","NAME_UK":"Іпсвіч","NAME_UR":"اپسوئچ","NAME_ZHT":"伊普斯威奇","GEONAMESID":2646057,"FCLASS_ISO":"","FCLASS_US":"","FCLASS_FR":"","FCLASS_RU":"","FCLASS_ES":"","FCLASS_CN":"","FCLASS_TW":"","FCLASS_IN":"","FCLASS_NP":"","FCLASS_PK":"","FCLASS_DE":"","FCLASS_GB":"","FCLASS_BR":"","FCLASS_IL":"","FCLASS_PS":"","FCLASS_SA":"","FCLASS_EG":"","FCLASS_MA":"","FCLASS_PT":"","FCLASS_AR":"","FCLASS_JP":"","FCLASS_KO":"","FCLASS_VN":"","FCLASS_TR":"","FCLASS_ID":"","FCLASS_PL":"","FCLASS_GR":"","FCLASS_IT":"","FCLASS_NL":"","FCLASS_SE":"","FCLASS_BD":"","FCLASS_UA":"","FCLASS_TLC":""}},
{"type":"Feature","geometry":{"type":"Point","coordinates":[1.3000134,52.630365]},"properties":{"SCALERANK":7,"NATSCALE":20,"LABELRANK":5,"FEATURECLA":"Populated place","NAME":"Norwich","NAMEPAR":"","NAMEALT":"","NAMEASCII":"Norwich","ADM0CAP":0,"CAPIN":"","WORLDCITY":0,"MEGACITY":0,"SOV0NAME":"United Kingdom","SOV_A3":"GBR","ADM0NAME":"United Kingdom","ADM0_A3":"GBR","ADM1NAME":"Norfolk","ISO_A2":"GB","NOTE":"","LATITUDE":52.630365,"LONGITUDE":1.300013,"POP_MAX":190756,"POP_MIN":177636,"POP_OTHER":185536,"RANK_MAX":9,"RANK_MIN":9,"MEGANAME":"","LS_NAME":"Norwich","MAX_POP10":190756,"MAX_POP20":190756,"MAX_POP50":0,"MAX_POP300":0,"MAX_POP310":0,"MAX_NATSCA":20,"MIN_AREAKM":78,"MAX_AREAKM":78,"MIN_AREAMI":30,"MAX_AREAMI":30,"MIN_PERKM":75,"MAX_PERKM":75,"MIN_PERMI":47,"MAX_PERMI":47,"MIN_BBXMIN":1.183333,"MAX_BBXMIN":1.183333,"MIN_BBXMAX":1.375,"MAX_BBXMAX":1.375,"MIN_BBYMIN":52.583333,"MAX_BBYMIN":52.583333,"MIN_BBYMAX":52.7,"MAX_BBYMAX":52.7,"MEAN_BBXC":1.275531,"MEAN_BBYC":52.641806,"TIMEZONE":"Europe/London","UN_FID":0,"POP1950":0,"POP1955":0,"POP1960":0,"POP1965":0,"POP1970":0,"POP1975":0,"POP1980":0,"POP1985":0,"POP1990":0,"POP1995":0,"POP2000":0,"POP2005":0,"POP2010":0,"POP2015":0,"POP2020":0,"POP2025":0,"POP2050":0,"MIN_ZOOM":6.1,"WIKIDATAID":"Q130191","WOF_ID":101750483,"CAPALT":0,"NAME_EN":"Norwich","NAME_DE":"Norwich","NAME_ES":"Norwich","NAME_FR":"Norwich","NAME_PT":"Norwich","NAME_RU":"Норидж","NAME_ZH":"诺里奇","LABEL":"","NAME_AR":"نورتش","NAME_BN":"নরউইচ","NAME_EL":"Νόριτς","NAME_HI":"नॉर्विच","NAME_HU":"Norwich","NAME_ID":"Norwich","NAME_IT":"Norwich","NAME_JA":"ノリッジ","NAME_KO":"노리치","NAME_NL":"Norwich","NAME_PL":"Norwich","NAME_SV":"Norwich","NAME_TR":"Norwich","NAME_VI":"Norwich","NE_ID":1159135241,"NAME_FA":"نورویچ","NAME_HE":"נוריץ'","NAME_UK":"Норвіч","NAME_UR":"نارویچ","NAME_ZHT":"諾威治","GEONAMESID":2641181,"FCLASS_ISO":"","FCLASS_US":"","FCLASS_FR":"","FCLASS_RU":"","FCLASS_ES":"","FCLASS_CN":"","FCLASS_TW":"","FCLASS_IN":"","FCLASS_NP":"","FCLASS_PK":"","FCLASS_DE":"","FCLASS_GB":"","FCLASS_BR":"","FCLASS_IL":"","FCLASS_PS":"","FCLASS_SA":"","FCLASS_EG":"","FCLASS_MA":"","FCLASS_PT":"","FCLASS_AR":"","FCLASS_JP":"","FCLASS_KO":"","FCLASS_VN":"","FCLASS_TR":"","FCLASS_ID":"","FCLASS_PL":"","FCLASS_GR":"","FCLASS_IT":"","FCLASS_NL":"","FCLASS_SE":"","FCLASS_BD":"","FCLASS_UA":"","FCLASS_TLC":""}},
{"type":"Feature","geometry":{"type":"Point","coordinates":[-0.1699744,50.8303457]},"properties":{"SCALERANK":7,"NATSCALE":20,"LABELRANK":5,"FEATURECLA":"Populated place","NAME":"Brighton","NAMEPAR":"","NAMEALT":"","NAMEASCII":"Brighton","ADM0CAP":0,"CAPIN":"","WORLDCITY":0,"MEGACITY":0,"SOV0NAME":"United Kingdom","SOV_A3":"GBR","ADM0NAME":"United Kingdom","ADM0_A3":"GBR","ADM1NAME":"Brighton and Hove","ISO_A2":"GB","NOTE":"","LATITUDE":50.830346,"LONGITUDE":-0.169974,"POP_MAX":503008,"POP_MIN":139001,"POP_OTHER":432796,"RANK_MAX":11,"RANK_MIN":9,"MEGANAME":"","LS_NAME":"Brighton","MAX_POP10":503008,"MAX_POP20":503008,"MAX_POP50":0,"MAX_POP300":0,"MAX_POP310":0,"MAX_NATSCA":20,"MIN_AREAKM":169,"MAX_AREAKM":169,"MIN_AREAMI":65,"MAX_AREAMI":65,"MIN_PERKM":201,"MAX_PERKM":201,"MIN_PERMI":125,"MAX_PERMI":125,"MIN_BBXMIN":-0.558333,"MAX_BBXMIN":-0.558333,"MIN_BBXMAX":0.083333,"MAX_BBXMAX":0.083333,"MIN_BBYMIN":50.783333,"MAX_BBYMIN":50.783333,"MIN_BBYMAX":50.883333,"MAX_BBYMAX":50.883333,"MEAN_BBXC":-0.252446,"MEAN_BBYC":50.828656,"TIMEZONE":"Europe/London","UN_FID":0,"POP1950":0,"POP1955":0,"POP1960":0,"POP1965":0,"POP1970":0,"POP1975":0,"POP1980":0,"POP1985":0,"POP1990":0,"POP1995":0,"POP2000":0,"POP2005":0,"POP2010":0,"POP2015":0,"POP2020":0,"POP2025":0,"POP2050":0,"MIN_ZOOM":6.1,"WIKIDATAID":"Q131491","WOF_ID":1141906989,"CAPALT":0,"NAME_EN":"Brighton","NAME_DE":"Brighton","NAME_ES":"Brighton","NAME_FR":"Brighton","NAME_PT":"Brighton","NAME_RU":"Брайтон","NAME_ZH":"布赖顿","LABEL":"","NAME_AR":"برايتون","NAME_BN":"ব্রাইটন","NAME_EL":"Μπράιτον","NAME_HI":"ब्राइटन","NAME_HU":"Brighton","NAME_ID":"Brighton","NAME_IT":"Brighton","NAME_JA":"ブライトン","NAME_KO":"브라이턴","NAME_NL":"Brighton","NAME_PL":"Brighton","NAME_SV":"Brighton","NAME_TR":"Brighton","NAME_VI":"Brighton","NE_ID":1159135295,"NAME_FA":"برایتون","NAME_HE":"ברייטון","NAME_UK":"Брайтон","NAME_UR":"برائٹن","NAME_ZHT":"布萊頓","GEONAMESID":2654710,"FCLASS_ISO":"","FCLASS_US":"","FCLASS_FR":"","FCLASS_RU":"","FCLASS_ES":"","FCLASS_CN":"","FCLASS_TW":"","FCLASS_IN":"","FCLASS_NP":"","FCLASS_PK":"","FCLASS_DE":"","FCLASS_GB":"","FCLASS_BR":"","FCLASS_IL":"","FCLASS_PS":"","FCLASS_SA":"","FCLASS_EG":"","FCLASS_MA":"","FCLASS_PT":"","FCLASS_AR":"","FCLASS_JP":"","FCLASS_KO":"","FCLASS_VN":"","FCLASS_TR":"","FCLASS_ID":"","FCLASS_PL":"","FCLASS_GR":"","FCLASS_IT":"","FCLASS_NL":"","FCLASS_SE":"","FCLASS_BD":"","FCLASS_UA":"","FCLASS_TLC":""}},
{"type":"Feature","geometry":{"type":"Point","coordinates":[-2.9500114,58.9669808]},"properties":{"SCALERANK":7,"NATSCALE":20,"LABELRANK":5,"FEATURECLA":"Populated place","NAME":"Kirkwall","NAMEPAR":"","NAMEALT":"","NAMEASCII":"Kirkwall","ADM0CAP":0,"CAPIN":"","WORLDCITY":0,"MEGACITY":0,"SOV0NAME":"United Kingdom","SOV_A3":"GBR","ADM0NAME":"United Kingdom","ADM0_A3":"GBR","ADM1NAME":"Moray","ISO_A2":"GB","NOTE":"","LATITUDE":58.966981,"LONGITUDE":-2.950011,"POP_MAX":8500,"POP_MIN":3153,"POP_OTHER":0,"RANK_MAX":5,"RANK_MIN":4,"MEGANAME":"","LS_NAME":"Kirkwall","MAX_POP10":3153,"MAX_POP20":3153,"MAX_POP50":0,"MAX_POP300":0,"MAX_POP310":0,"MAX_NATSCA":20,"MIN_AREAKM":5,"MAX_AREAKM":5,"MIN_AREAMI":2,"MAX_AREAMI":2,"MIN_PERKM":14,"MAX_PERKM":14,"MIN_PERMI":9,"MAX_PERMI":9,"MIN_BBXMIN":-2.983333,"MAX_BBXMIN":-2.983333,"MIN_BBXMAX":-2.933333,"MAX_BBXMAX":-2.933333,"MIN_BBYMIN":58.966667,"MAX_BBYMIN":58.966667,"MIN_BBYMAX":58.991667,"MAX_BBYMAX":58.991667,"MEAN_BBXC":-2.956944,"MEAN_BBYC":58.98125,"TIMEZONE":"Europe/London","UN_FID":0,"POP1950":0,"POP1955":0,"POP1960":0,"POP1965":0,"POP1970":0,"POP1975":0,"POP1980":0,"POP1985":0,"POP1990":0,"POP1995":0,"POP2000":0,"POP2005":0,"POP2010":0,"POP2015":0,"POP2020":0,"POP2025":0,"POP2050":0,"MIN_ZOOM":6.7,"WIKIDATAID":"Q208329","WOF_ID":101874209,"CAPALT":0,"NAME_EN":"Kirkwall","NAME_DE":"Kirkwall","NAME_ES":"Kirkwall","NAME_FR":"Kirkwall","NAME_PT":"Kirkwall","NAME_RU":"Керкуолл","NAME_ZH":"柯克沃尔","LABEL":"","NAME_AR":"كيركوول","NAME_BN":"কিরকওয়াল","NAME_EL":"Κέρκουολ","NAME_HI":"कर्कवॉल","NAME_HU":"Kirkwall","NAME_ID":"Kirkwall","NAME_IT":"Kirkwall","NAME_JA":"カークウォール","NAME_KO":"커크월","NAME_NL":"Kirkwall","NAME_PL":"Kirkwall","NAME_SV":"Kirkwall","NAME_TR":"Kirkwall","NAME_VI":"Kirkwall","NE_ID":1159135297,"NAME_FA":"کرکوال","NAME_HE":"קירקוול","NAME_UK":"Керкволл","NAME_UR":"کیرکوال","NAME_ZHT":"柯克沃爾","GEONAMESID":2645198,"FCLASS_ISO":"","FCLASS_US":"","FCLASS_FR":"","FCLASS_RU":"","FCLASS_ES":"","FCLASS_CN":"","FCLASS_TW":"","FCLASS_IN":"","FCLASS_NP":"","FCLASS_PK":"","FCLASS_DE":"","FCLASS_GB":"","FCLASS_BR":"","FCLASS_IL":"","FCLASS_PS":"","FCLASS_SA":"","FCLASS_EG":"","FCLASS_MA":"","FCLASS_PT":"","FCLASS_AR":"","FCLASS_JP":"","FCLASS_KO":"","FCLASS_VN":"","FCLASS_TR":"","FCLASS_ID":"","FCLASS_PL":"","FCLASS_GR":"","FCLASS_IT":"","FCLASS_NL":"","FCLASS_SE":"","FCLASS_BD":"","FCLASS_UA":"","FCLASS_TLC":""}},
{"type":"Feature","geometry":{"type":"Point","coordinates":[-4.2332664,57.467124]},"properties":{"SCALERANK":7,"NATSCALE":20,"LABELRANK":5,"FEATURECLA":"Populated place","NAME":"Inverness","NAMEPAR":"","NAMEALT":"","NAMEASCII":"Inverness","ADM0CAP":0,"CAPIN":"","WORLDCITY":0,"MEGACITY":0,"SOV0NAME":"United Kingdom","SOV_A3":"GBR","ADM0NAME":"United Kingdom","ADM0_A3":"GBR","ADM1NAME":"Highland","ISO_A2":"GB","NOTE":"","LATITUDE":57.467124,"LONGITUDE":-4.233266,"POP_MAX":45158,"POP_MIN":40755,"POP_OTHER":44726,"RANK_MAX":7,"RANK_MIN":7,"MEGANAME":"","LS_NAME":"Inverness","MAX_POP10":45158,"MAX_POP20":45158,"MAX_POP50":0,"MAX_POP300":0,"MAX_POP310":0,"MAX_NATSCA":20,"MIN_AREAKM":25,"MAX_AREAKM":25,"MIN_AREAMI":9,"MAX_AREAMI":9,"MIN_PERKM":35,"MAX_PERKM":35,"MIN_PERMI":22,"MAX_PERMI":22,"MIN_BBXMIN":-4.275,"MAX_BBXMIN":-4.275,"MIN_BBXMAX":-4.183333,"MAX_BBXMAX":-4.183333,"MIN_BBYMIN":57.441667,"MAX_BBYMIN":57.441667,"MIN_BBYMAX":57.508333,"MAX_BBYMAX":57.508333,"MEAN_BBXC":-4.228223,"MEAN_BBYC":57.474764,"TIMEZONE":"Europe/London","UN_FID":0,"POP1950":0,"POP1955":0,"POP1960":0,"POP1965":0,"POP1970":0,"POP1975":0,"POP1980":0,"POP1985":0,"POP1990":0,"POP1995":0,"POP2000":0,"POP2005":0,"POP2010":0,"POP2015":0,"POP2020":0,"POP2025":0,"POP2050":0,"MIN_ZOOM":6.1,"WIKIDATAID":"Q160493","WOF_ID":101873667,"CAPALT":0,"NAME_EN":"Inverness","NAME_DE":"Inverness","NAME_ES":"Inverness","NAME_FR":"Inverness","NAME_PT":"Inverness","NAME_RU":"Инвернесс","NAME_ZH":"因弗内斯","LABEL":"","NAME_AR":"إنفرنيس","NAME_BN":"ইভারনেস","NAME_EL":"Ινβερνές","NAME_HI":"इनवर्नेस","NAME_HU":"Inverness","NAME_ID":"Inverness","NAME_IT":"Inverness","NAME_JA":"インヴァネス","NAME_KO":"인버네스","NAME_NL":"Inverness","NAME_PL":"Inverness","NAME_SV":"Inverness","NAME_TR":"Inverness","NAME_VI":"Inverness","NE_ID":1159135301,"NAME_FA":"اینورنس","NAME_HE":"אינוורנס","NAME_UK":"Інвернесс","NAME_UR":"اینورنس","NAME_ZHT":"印威內斯","GEONAMESID":2646088,"FCLASS_ISO":"","FCLASS_US":"","FCLASS_FR":"","FCLASS_RU":"","FCLASS_ES":"","FCLASS_CN":"","FCLASS_TW":"","FCLASS_IN":"","FCLASS_NP":"","FCLASS_PK":"","FCLASS_DE":"","FCLASS_GB":"","FCLASS_BR":"","FCLASS_IL":"","FCLASS_PS":"","FCLASS_SA":"","FCLASS_EG":"","FCLASS_MA":"","FCLASS_PT":"","FCLASS_AR":"","FCLASS_JP":"","FCLASS_KO":"","FCLASS_VN":"","FCLASS_TR":"","FCLASS_ID":"","FCLASS_PL":"","FCLASS_GR":"","FCLASS_IT":"","FCLASS_NL":"","FCLASS_SE":"","FCLASS_BD":"","FCLASS_UA":"","FCLASS_TLC":""}},
{"type":"Feature","geometry":{"type":"Point","coordinates":[-1.2480763373698314,51.751827978066444]},"properties":{"SCALERANK":7,"NATSCALE":20,"LABELRANK":5,"FEATURECLA":"Populated place","NAME":"Oxford","NAMEPAR":"","NAMEALT":"","NAMEASCII":"Oxford","ADM0CAP":0,"CAPIN":"","WORLDCITY":0,"MEGACITY":0,"SOV0NAME":"United Kingdom","SOV_A3":"GBR","ADM0NAME":"United Kingdom","ADM0_A3":"GBR","ADM1NAME":"Oxfordshire","ISO_A2":"GB","NOTE":"","LATITUDE":51.770418,"LONGITUDE":-1.249986,"POP_MAX":192796,"POP_MIN":154566,"POP_OTHER":133148,"RANK_MAX":9,"RANK_MIN":9,"MEGANAME":"","LS_NAME":"Oxford","MAX_POP10":192796,"MAX_POP20":192796,"MAX_POP50":0,"MAX_POP300":0,"MAX_POP310":0,"MAX_NATSCA":20,"MIN_AREAKM":94,"MAX_AREAKM":94,"MIN_AREAMI":36,"MAX_AREAMI":36,"MIN_PERKM":119,"MAX_PERKM":119,"MIN_PERMI":74,"MAX_PERMI":74,"MIN_BBXMIN":-1.341667,"MAX_BBXMIN":-1.341667,"MIN_BBXMAX":-1.158333,"MAX_BBXMAX":-1.158333,"MIN_BBYMIN":51.658333,"MAX_BBYMIN":51.658333,"MIN_BBYMAX":51.85,"MAX_BBYMAX":51.85,"MEAN_BBXC":-1.25535,"MEAN_BBYC":51.745407,"TIMEZONE":"Europe/London","UN_FID":0,"POP1950":0,"POP1955":0,"POP1960":0,"POP1965":0,"POP1970":0,"POP1975":0,"POP1980":0,"POP1985":0,"POP1990":0,"POP1995":0,"POP2000":0,"POP2005":0,"POP2010":0,"POP2015":0,"POP2020":0,"POP2025":0,"POP2050":0,"MIN_ZOOM":6.1,"WIKIDATAID":"Q34217","WOF_ID":101750439,"CAPALT":0,"NAME_EN":"Oxford","NAME_DE":"Oxford","NAME_ES":"Oxford","NAME_FR":"Oxford","NAME_PT":"Oxford","NAME_RU":"Оксфорд","NAME_ZH":"牛津","LABEL":"","NAME_AR":"أكسفورد","NAME_BN":"অক্সফোর্ড","NAME_EL":"Οξφόρδη","NAME_HI":"ऑक्सफोर्ड","NAME_HU":"Oxford","NAME_ID":"Oxford","NAME_IT":"Oxford","NAME_JA":"オックスフォード","NAME_KO":"옥스퍼드","NAME_NL":"Oxford","NAME_PL":"Oksford","NAME_SV":"Oxford","NAME_TR":"Oxford","NAME_VI":"Oxford","NE_ID":1159135303,"NAME_FA":"آکسفورد","NAME_HE":"אוקספורד","NAME_UK":"Оксфорд","NAME_UR":"اوکسفرڈ","NAME_ZHT":"牛津","GEONAMESID":2640729,"FCLASS_ISO":"","FCLASS_US":"","FCLASS_FR":"","FCLASS_RU":"","FCLASS_ES":"","FCLASS_CN":"","FCLASS_TW":"","FCLASS_IN":"","FCLASS_NP":"","FCLASS_PK":"","FCLASS_DE":"","FCLASS_GB":"","FCLASS_BR":"","FCLASS_IL":"","FCLASS_PS":"","FCLASS_SA":"","FCLASS_EG":"","FCLASS_MA":"","FCLASS_PT":"","FCLASS_AR":"","FCLASS_JP":"","FCLASS_KO":"","FCLASS_VN":"","FCLASS_TR":"","FCLASS_ID":"","FCLASS_PL":"","FCLASS_GR":"","FCLASS_IT":"","FCLASS_NL":"","FCLASS_SE":"","FCLASS_BD":"","FCLASS_UA":"","FCLASS_TLC":""}},
{"type":"Feature","geometry":{"type":"Point","coordinates":[-0.4200108,51.8803591]},"properties":{"SCALERANK":7,"NATSCALE":20,"LABELRANK":5,"FEATURECLA":"Populated place","NAME":"Luton","NAMEPAR":"","NAMEALT":"","NAMEASCII":"Luton","ADM0CAP":0,"CAPIN":"","WORLDCITY":0,"MEGACITY":0,"SOV0NAME":"United Kingdom","SOV_A3":"GBR","ADM0NAME":"United Kingdom","ADM0_A3":"GBR","ADM1NAME":"Luton","ISO_A2":"GB","NOTE":"","LATITUDE":51.880359,"LONGITUDE":-0.420011,"POP_MAX":235958,"POP_MIN":193669,"POP_OTHER":677450,"RANK_MAX":10,"RANK_MIN":9,"MEGANAME":"","LS_NAME":"Luton","MAX_POP10":235958,"MAX_POP20":235027,"MAX_POP50":0,"MAX_POP300":0,"MAX_POP310":0,"MAX_NATSCA":20,"MIN_AREAKM":76,"MAX_AREAKM":78,"MIN_AREAMI":29,"MAX_AREAMI":30,"MIN_PERKM":87,"MAX_PERKM":95,"MIN_PERMI":54,"MAX_PERMI":59,"MIN_BBXMIN":-0.55,"MAX_BBXMIN":-0.55,"MIN_BBXMAX":-0.35,"MAX_BBXMAX":-0.233333,"MIN_BBYMIN":51.641667,"MAX_BBYMIN":51.85,"MIN_BBYMAX":51.95,"MAX_BBYMAX":51.95,"MEAN_BBXC":-0.449096,"MEAN_BBYC":51.891526,"TIMEZONE":"Europe/London","UN_FID":0,"POP1950":0,"POP1955":0,"POP1960":0,"POP1965":0,"POP1970":0,"POP1975":0,"POP1980":0,"POP1985":0,"POP1990":0,"POP1995":0,"POP2000":0,"POP2005":0,"POP2010":0,"POP2015":0,"POP2020":0,"POP2025":0,"POP2050":0,"MIN_ZOOM":6.7,"WIKIDATAID":"Q203889","WOF_ID":101750401,"CAPALT":0,"NAME_EN":"Luton","NAME_DE":"Luton","NAME_ES":"Luton","NAME_FR":"Luton","NAME_PT":"Luton","NAME_RU":"Лутон","NAME_ZH":"卢顿","LABEL":"","NAME_AR":"لوتن","NAME_BN":"লুটন","NAME_EL":"Λούτον","NAME_HI":"लूटोन","NAME_HU":"Luton","NAME_ID":"Luton","NAME_IT":"Luton","NAME_JA":"ルートン","NAME_KO":"루턴","NAME_NL":"Luton","NAME_PL":"Luton","NAME_SV":"Luton","NAME_TR":"Luton","NAME_VI":"Luton","NE_ID":1159135305,"NAME_FA":"لوتن","NAME_HE":"לוטון","NAME_UK":"Лутон","NAME_UR":"لوٹن","NAME_ZHT":"魯頓","GEONAMESID":2643339,"FCLASS_ISO":"","FCLASS_US":"","FCLASS_FR":"","FCLASS_RU":"","FCLASS_ES":"","FCLASS_CN":"","FCLASS_TW":"","FCLASS_IN":"","FCLASS_NP":"","FCLASS_PK":"","FCLASS_DE":"","FCLASS_GB":"","FCLASS_BR":"","FCLASS_IL":"","FCLASS_PS":"","FCLASS_SA":"","FCLASS_EG":"","FCLASS_MA":"","FCLASS_PT":"","FCLASS_AR":"","FCLASS_JP":"","FCLASS_KO":"","FCLASS_VN":"","FCLASS_TR":"","FCLASS_ID":"","FCLASS_PL":"","FCLASS_GR":"","FCLASS_IT":"","FCLASS_NL":"","FCLASS_SE":"","FCLASS_BD":"","FCLASS_UA":"","FCLASS_TLC":""}},
{"type":"Feature","geometry":{"type":"Point","coordinates":[-1.0800222,50.8003475]},"properties":{"SCALERANK":7,"NATSCALE":20,"LABELRANK":5,"FEATURECLA":"Populated place","NAME":"Portsmouth","NAMEPAR":"","NAMEALT":"","NAMEASCII":"Portsmouth","ADM0CAP":0,"CAPIN":"","WORLDCITY":0,"MEGACITY":0,"SOV0NAME":"United Kingdom","SOV_A3":"GBR","ADM0NAME":"United Kingdom","ADM0_A3":"GBR","ADM1NAME":"Portsmouth","ISO_A2":"GB","NOTE":"","LATITUDE":50.800348,"LONGITUDE":-1.080022,"POP_MAX":442252,"POP_MIN":205100,"POP_OTHER":456844,"RANK_MAX":10,"RANK_MIN":10,"MEGANAME":"","LS_NAME":"Portsmouth","MAX_POP10":466065,"MAX_POP20":848573,"MAX_POP50":0,"MAX_POP300":0,"MAX_POP310":0,"MAX_NATSCA":20,"MIN_AREAKM":172,"MAX_AREAKM":329,"MIN_AREAMI":66,"MAX_AREAMI":127,"MIN_PERKM":178,"MAX_PERKM":340,"MIN_PERMI":110,"MAX_PERMI":211,"MIN_BBXMIN":-1.483333,"MAX_BBXMIN":-1.242621,"MIN_BBXMAX":-0.875,"MAX_BBXMAX":-0.875,"MIN_BBYMIN":50.775,"MAX_BBYMIN":50.775,"MIN_BBYMAX":50.95,"MAX_BBYMAX":51.008333,"MEAN_BBXC":-1.143291,"MEAN_BBYC":50.863425,"TIMEZONE":"Europe/London","UN_FID":0,"POP1950":0,"POP1955":0,"POP1960":0,"POP1965":0,"POP1970":0,"POP1975":0,"POP1980":0,"POP1985":0,"POP1990":0,"POP1995":0,"POP2000":0,"POP2005":0,"POP2010":0,"POP2015":0,"POP2020":0,"POP2025":0,"POP2050":0,"MIN_ZOOM":6.1,"WIKIDATAID":"Q72259","WOF_ID":101750307,"CAPALT":0,"NAME_EN":"Portsmouth","NAME_DE":"Portsmouth","NAME_ES":"Portsmouth","NAME_FR":"Portsmouth","NAME_PT":"Portsmouth","NAME_RU":"Портсмут","NAME_ZH":"朴次茅斯","LABEL":"","NAME_AR":"بورتسموث","NAME_BN":"পোর্টসমাথ","NAME_EL":"Πόρτσμουθ","NAME_HI":"पोर्ट्समाउथ","NAME_HU":"Portsmouth","NAME_ID":"Portsmouth","NAME_IT":"Portsmouth","NAME_JA":"ポーツマス","NAME_KO":"포츠머스","NAME_NL":"Portsmouth","NAME_PL":"Portsmouth","NAME_SV":"Portsmouth","NAME_TR":"Portsmouth","NAME_VI":"Portsmouth","NE_ID":1159135309,"NAME_FA":"پورتسموث","NAME_HE":"פורטסמות'","NAME_UK":"Портсмут","NAME_UR":"پورٹسماؤتھ","NAME_ZHT":"樸茨茅夫","GEONAMESID":2639996,"FCLASS_ISO":"","FCLASS_US":"","FCLASS_FR":"","FCLASS_RU":"","FCLASS_ES":"","FCLASS_CN":"","FCLASS_TW":"","FCLASS_IN":"","FCLASS_NP":"","FCLASS_PK":"","FCLASS_DE":"","FCLASS_GB":"","FCLASS_BR":"","FCLASS_IL":"","FCLASS_PS":"","FCLASS_SA":"","FCLASS_EG":"","FCLASS_MA":"","FCLASS_PT":"","FCLASS_AR":"","FCLASS_JP":"","FCLASS_KO":"","FCLASS_VN":"","FCLASS_TR":"","FCLASS_ID":"","FCLASS_PL":"","FCLASS_GR":"","FCLASS_IT":"","FCLASS_NL":"","FCLASS_SE":"","FCLASS_BD":"","FCLASS_UA":"","FCLASS_TLC":""}},
{"type":"Feature","geometry":{"type":"Point","coordinates":[-0.2484040303391689,52.567187150649296]},"properties":{"SCALERANK":7,"NATSCALE":20,"LABELRANK":5,"FEATURECLA":"Populated place","NAME":"Peterborough","NAMEPAR":"","NAMEALT":"","NAMEASCII":"Peterborough","ADM0CAP":0,"CAPIN":"","WORLDCITY":0,"MEGACITY":0,"SOV0NAME":"United Kingdom","SOV_A3":"GBR","ADM0NAME":"United Kingdom","ADM0_A3":"GBR","ADM1NAME":"Peterborough","ISO_A2":"GB","NOTE":"","LATITUDE":52.58042,"LONGITUDE":-0.249995,"POP_MAX":140141,"POP_MIN":140141,"POP_OTHER":0,"RANK_MAX":9,"RANK_MIN":9,"MEGANAME":"","LS_NAME":"","MAX_POP10":0,"MAX_POP20":0,"MAX_POP50":0,"MAX_POP300":0,"MAX_POP310":0,"MAX_NATSCA":0,"MIN_AREAKM":0,"MAX_AREAKM":0,"MIN_AREAMI":0,"MAX_AREAMI":0,"MIN_PERKM":0,"MAX_PERKM":0,"MIN_PERMI":0,"MAX_PERMI":0,"MIN_BBXMIN":0,"MAX_BBXMIN":0,"MIN_BBXMAX":0,"MAX_BBXMAX":0,"MIN_BBYMIN":0,"MAX_BBYMIN":0,"MIN_BBYMAX":0,"MAX_BBYMAX":0,"MEAN_BBXC":0,"MEAN_BBYC":0,"TIMEZONE":"Europe/London","UN_FID":0,"POP1950":0,"POP1955":0,"POP1960":0,"POP1965":0,"POP1970":0,"POP1975":0,"POP1980":0,"POP1985":0,"POP1990":0,"POP1995":0,"POP2000":0,"POP2005":0,"POP2010":0,"POP2015":0,"POP2020":0,"POP2025":0,"POP2050":0,"MIN_ZOOM":6.7,"WIKIDATAID":"Q172438","WOF_ID":101750461,"CAPALT":0,"NAME_EN":"Peterborough","NAME_DE":"Peterborough","NAME_ES":"Peterborough","NAME_FR":"Peterborough","NAME_PT":"Peterborough","NAME_RU":"Питерборо","NAME_ZH":"彼得伯勒","LABEL":"","NAME_AR":"بيتربرة","NAME_BN":"পিটারবার্গ","NAME_EL":"Πίτερμπρο","NAME_HI":"पीटरबरो","NAME_HU":"Peterborough","NAME_ID":"Peterborough","NAME_IT":"Peterborough","NAME_JA":"ピーターバラ","NAME_KO":"피터버러","NAME_NL":"Peterborough","NAME_PL":"Peterborough","NAME_SV":"Peterborough","NAME_TR":"Peterborough","NAME_VI":"Peterborough","NE_ID":1159135313,"NAME_FA":"پیتربورو","NAME_HE":"פטרבורו","NAME_UK":"Пітерборо","NAME_UR":"پیٹربورو","NAME_ZHT":"彼得伯勒","GEONAMESID":2640354,"FCLASS_ISO":"","FCLASS_US":"","FCLASS_FR":"","FCLASS_RU":"","FCLASS_ES":"","FCLASS_CN":"","FCLASS_TW":"","FCLASS_IN":"","FCLASS_NP":"","FCLASS_PK":"","FCLASS_DE":"","FCLASS_GB":"","FCLASS_BR":"","FCLASS_IL":"","FCLASS_PS":"","FCLASS_SA":"","FCLASS_EG":"","FCLASS_MA":"","FCLASS_PT":"","FCLASS_AR":"","FCLASS_JP":"","FCLASS_KO":"","FCLASS_VN":"","FCLASS_TR":"","FCLASS_ID":"","FCLASS_PL":"","FCLASS_GR":"","FCLASS_IT":"","FCLASS_NL":"","FCLASS_SE":"","FCLASS_BD":"","FCLASS_UA":"","FCLASS_TLC":""}},
{"type":"Feature","geometry":{"type":"Point","coordinates":[-1.1657063345433347,52.941084202004]},"properties":{"SCALERANK":7,"NATSCALE":20,"LABELRANK":5,"FEATURECLA":"Populated place","NAME":"Nottingham","NAMEPAR":"","NAMEALT":"","NAMEASCII":"Nottingham","ADM0CAP":0,"CAPIN":"","WORLDCITY":0,"MEGACITY":0,"SOV0NAME":"United Kingdom","SOV_A3":"GBR","ADM0NAME":"United Kingdom","ADM0_A3":"GBR","ADM1NAME":"Nottingham","ISO_A2":"GB","NOTE":"","LATITUDE":52.970344,"LONGITUDE":-1.170017,"POP_MAX":825600,"POP_MIN":305700,"POP_OTHER":549128,"RANK_MAX":11,"RANK_MIN":10,"MEGANAME":"","LS_NAME":"Nottingham","MAX_POP10":832187,"MAX_POP20":832187,"MAX_POP50":0,"MAX_POP300":0,"MAX_POP310":0,"MAX_NATSCA":20,"MIN_AREAKM":395,"MAX_AREAKM":395,"MIN_AREAMI":152,"MAX_AREAMI":152,"MIN_PERKM":376,"MAX_PERKM":376,"MIN_PERMI":234,"MAX_PERMI":234,"MIN_BBXMIN":-1.425,"MAX_BBXMIN":-1.425,"MIN_BBXMAX":-1.016667,"MAX_BBXMAX":-1.016667,"MIN_BBYMIN":52.875,"MAX_BBYMIN":52.875,"MIN_BBYMAX":53.191667,"MAX_BBYMAX":53.191667,"MEAN_BBXC":-1.237456,"MEAN_BBYC":53.01757,"TIMEZONE":"Europe/London","UN_FID":0,"POP1950":0,"POP1955":0,"POP1960":0,"POP1965":0,"POP1970":0,"POP1975":0,"POP1980":0,"POP1985":0,"POP1990":0,"POP1995":0,"POP2000":0,"POP2005":0,"POP2010":0,"POP2015":0,"POP2020":0,"POP2025":0,"POP2050":0,"MIN_ZOOM":5.1,"WIKIDATAID":"Q41262","WOF_ID":101750491,"CAPALT":0,"NAME_EN":"Nottingham","NAME_DE":"Nottingham","NAME_ES":"Nottingham","NAME_FR":"Nottingham","NAME_PT":"Nottingham","NAME_RU":"Ноттингем","NAME_ZH":"诺丁汉","LABEL":"","NAME_AR":"نوتنغهام","NAME_BN":"নটিংহ্যাম","NAME_EL":"Νότιγχαμ","NAME_HI":"नॉटिंघम","NAME_HU":"Nottingham","NAME_ID":"Nottingham","NAME_IT":"Nottingham","NAME_JA":"ノッティンガム","NAME_KO":"노팅엄","NAME_NL":"Nottingham","NAME_PL":"Nottingham","NAME_SV":"Nottingham","NAME_TR":"Nottingham","NAME_VI":"Nottingham","NE_ID":1159135319,"NAME_FA":"ناتینگهام","NAME_HE":"נוטינגהאם","NAME_UK":"Ноттінгем","NAME_UR":"ناٹنگھم","NAME_ZHT":"諾定咸","GEONAMESID":2641170,"FCLASS_ISO":"","FCLASS_US":"","FCLASS_FR":"","FCLASS_RU":"","FCLASS_ES":"","FCLASS_CN":"","FCLASS_TW":"","FCLASS_IN":"","FCLASS_NP":"","FCLASS_PK":"","FCLASS_DE":"","FCLASS_GB":"","FCLASS_BR":"","FCLASS_IL":"","FCLASS_PS":"","FCLASS_SA":"","FCLASS_EG":"","FCLASS_MA":"","FCLASS_PT":"","FCLASS_AR":"","FCLASS_JP":"","FCLASS_KO":"","FCLASS_VN":"","FCLASS_TR":"","FCLASS_ID":"","FCLASS_PL":"","FCLASS_GR":"","FCLASS_IT":"","FCLASS_NL":"","FCLASS_SE":"","FCLASS_BD":"","FCLASS_UA":"","FCLASS_TLC":""}},
{"type":"Feature","geometry":{"type":"Point","coordinates":[-2.1800068,53.0003683]},"properties":{"SCALERANK":7,"NATSCALE":20,"LABELRANK":5,"FEATURECLA":"Populated place","NAME":"Stoke","NAMEPAR":"","NAMEALT":"","NAMEASCII":"Stoke","ADM0CAP":0,"CAPIN":"","WORLDCITY":0,"MEGACITY":0,"SOV0NAME":"United Kingdom","SOV_A3":"GBR","ADM0NAME":"United Kingdom","ADM0_A3":"GBR","ADM1NAME":"Stoke-on-Trent","ISO_A2":"GB","NOTE":"","LATITUDE":53.000368,"LONGITUDE":-2.180007,"POP_MAX":390801,"POP_MIN":260419,"POP_OTHER":377029,"RANK_MAX":10,"RANK_MIN":10,"MEGANAME":"","LS_NAME":"Stoke","MAX_POP10":390801,"MAX_POP20":390801,"MAX_POP50":0,"MAX_POP300":0,"MAX_POP310":0,"MAX_NATSCA":20,"MIN_AREAKM":188,"MAX_AREAKM":188,"MIN_AREAMI":72,"MAX_AREAMI":72,"MIN_PERKM":182,"MAX_PERKM":182,"MIN_PERMI":113,"MAX_PERMI":113,"MIN_BBXMIN":-2.341667,"MAX_BBXMIN":-2.341667,"MIN_BBXMAX":-2.041667,"MAX_BBXMAX":-2.041667,"MIN_BBYMIN":52.95,"MAX_BBYMIN":52.95,"MIN_BBYMAX":53.133333,"MAX_BBYMAX":53.133333,"MEAN_BBXC":-2.184738,"MEAN_BBYC":53.033471,"TIMEZONE":"Europe/London","UN_FID":0,"POP1950":0,"POP1955":0,"POP1960":0,"POP1965":0,"POP1970":0,"POP1975":0,"POP1980":0,"POP1985":0,"POP1990":0,"POP1995":0,"POP2000":0,"POP2005":0,"POP2010":0,"POP2015":0,"POP2020":0,"POP2025":0,"POP2050":0,"MIN_ZOOM":6.1,"WIKIDATAID":"Q134902","WOF_ID":101750495,"CAPALT":0,"NAME_EN":"Stoke-on-Trent","NAME_DE":"Stoke-on-Trent","NAME_ES":"Stoke-on-Trent","NAME_FR":"Stoke-on-Trent","NAME_PT":"Stoke-on-Trent","NAME_RU":"Сток-он-Трент","NAME_ZH":"特伦特河畔斯托克","LABEL":"","NAME_AR":"ستوك أون ترينت","NAME_BN":"স্টোক অন ট্রেন্ট","NAME_EL":"Στόουκ ον Τρεντ","NAME_HI":"स्टॉक ऑन ट्रेंट","NAME_HU":"Stoke-on-Trent","NAME_ID":"Stoke-on-Trent","NAME_IT":"Stoke-on-Trent","NAME_JA":"ストーク・オン・トレント","NAME_KO":"스토크온트렌트","NAME_NL":"Stoke-on-Trent","NAME_PL":"Stoke-on-Trent","NAME_SV":"Stoke-on-Trent","NAME_TR":"Stoke-on-Trent","NAME_VI":"Stoke-on-Trent","NE_ID":1159135323,"NAME_FA":"استوک-آن-ترنت","NAME_HE":"סטוק-און-טרנט","NAME_UK":"Сток-он-Трент","NAME_UR":"سٹوک آن ٹرینٹ","NAME_ZHT":"特倫特河畔斯托克","GEONAMESID":2636841,"FCLASS_ISO":"","FCLASS_US":"","FCLASS_FR":"","FCLASS_RU":"","FCLASS_ES":"","FCLASS_CN":"","FCLASS_TW":"","FCLASS_IN":"","FCLASS_NP":"","FCLASS_PK":"","FCLASS_DE":"","FCLASS_GB":"","FCLASS_BR":"","FCLASS_IL":"","FCLASS_PS":"","FCLASS_SA":"","FCLASS_EG":"","FCLASS_MA":"","FCLASS_PT":"","FCLASS_AR":"","FCLASS_JP":"","FCLASS_KO":"","FCLASS_VN":"","FCLASS_TR":"","FCLASS_ID":"","FCLASS_PL":"","FCLASS_GR":"","FCLASS_IT":"","FCLASS_NL":"","FCLASS_SE":"","FCLASS_BD":"","FCLASS_UA":"","FCLASS_TLC":""}},
{"type":"Feature","geometry":{"type":"Point","coordinates":[1.3000134,51.1337122]},"properties":{"SCALERANK":7,"NATSCALE":20,"LABELRANK":5,"FEATURECLA":"Populated place","NAME":"Dover","NAMEPAR":"","NAMEALT":"","NAMEASCII":"Dover","ADM0CAP":0,"CAPIN":"","WORLDCITY":0,"MEGACITY":0,"SOV0NAME":"United Kingdom","SOV_A3":"GBR","ADM0NAME":"United Kingdom","ADM0_A3":"GBR","ADM1NAME":"Kent","ISO_A2":"GB","NOTE":"","LATITUDE":51.133712,"LONGITUDE":1.300013,"POP_MAX":36384,"POP_MIN":28156,"POP_OTHER":74556,"RANK_MAX":7,"RANK_MIN":7,"MEGANAME":"","LS_NAME":"Dover2","MAX_POP10":36384,"MAX_POP20":36384,"MAX_POP50":0,"MAX_POP300":0,"MAX_POP310":0,"MAX_NATSCA":20,"MIN_AREAKM":24,"MAX_AREAKM":24,"MIN_AREAMI":9,"MAX_AREAMI":9,"MIN_PERKM":29,"MAX_PERKM":29,"MIN_PERMI":18,"MAX_PERMI":18,"MIN_BBXMIN":1.258333,"MAX_BBXMIN":1.258333,"MIN_BBXMAX":1.333333,"MAX_BBXMAX":1.333333,"MIN_BBYMIN":51.108333,"MAX_BBYMIN":51.108333,"MIN_BBYMAX":51.175,"MAX_BBYMAX":51.175,"MEAN_BBXC":1.297315,"MEAN_BBYC":51.140833,"TIMEZONE":"Europe/London","UN_FID":0,"POP1950":0,"POP1955":0,"POP1960":0,"POP1965":0,"POP1970":0,"POP1975":0,"POP1980":0,"POP1985":0,"POP1990":0,"POP1995":0,"POP2000":0,"POP2005":0,"POP2010":0,"POP2015":0,"POP2020":0,"POP2025":0,"POP2050":0,"MIN_ZOOM":6.1,"WIKIDATAID":"Q179224","WOF_ID":101854657,"CAPALT":0,"NAME_EN":"Dover","NAME_DE":"Dover","NAME_ES":"Dover","NAME_FR":"Douvres","NAME_PT":"Dover","NAME_RU":"Дувр","NAME_ZH":"多佛尔","LABEL":"","NAME_AR":"دوفر","NAME_BN":"ডোভার","NAME_EL":"Ντόβερ","NAME_HI":"डोवर","NAME_HU":"Dover","NAME_ID":"Dover","NAME_IT":"Dover","NAME_JA":"ドーヴァー","NAME_KO":"도버","NAME_NL":"Dover","NAME_PL":"Dover","NAME_SV":"Dover","NAME_TR":"Dover","NAME_VI":"Dover","NE_ID":1159135701,"NAME_FA":"دوور","NAME_HE":"דובר","NAME_UK":"Дувр","NAME_UR":"ڈوور","NAME_ZHT":"多佛爾","GEONAMESID":2651048,"FCLASS_ISO":"","FCLASS_US":"","FCLASS_FR":"","FCLASS_RU":"","FCLASS_ES":"","FCLASS_CN":"","FCLASS_TW":"","FCLASS_IN":"","FCLASS_NP":"","FCLASS_PK":"","FCLASS_DE":"","FCLASS_GB":"","FCLASS_BR":"","FCLASS_IL":"","FCLASS_PS":"","FCLASS_SA":"","FCLASS_EG":"","FCLASS_MA":"","FCLASS_PT":"","FCLASS_AR":"","FCLASS_JP":"","FCLASS_KO":"","FCLASS_VN":"","FCLASS_TR":"","FCLASS_ID":"","FCLASS_PL":"","FCLASS_GR":"","FCLASS_IT":"","FCLASS_NL":"","FCLASS_SE":"","FCLASS_BD":"","FCLASS_UA":"","FCLASS_TLC":""}},
{"type":"Feature","geometry":{"type":"Point","coordinates":[-36.5079889,-54.280577]},"properties":{"SCALERANK":7,"NATSCALE":20,"LABELRANK":0,"FEATURECLA":"Admin-1 capital","NAME":"Grytviken","NAMEPAR":"","NAMEALT":"","NAMEASCII":"Grytviken","ADM0CAP":0,"CAPIN":"","WORLDCITY":0,"MEGACITY":0,"SOV0NAME":"United Kingdom","SOV_A3":"GBR","ADM0NAME":"South Georgia and the Islands","ADM0_A3":"SGS","ADM1NAME":"","ISO_A2":"GS","NOTE":"","LATITUDE":-54.280577,"LONGITUDE":-36.507989,"POP_MAX":99,"POP_MIN":99,"POP_OTHER":0,"RANK_MAX":1,"RANK_MIN":1,"MEGANAME":"","LS_NAME":"Grytviken","MAX_POP10":0,"MAX_POP20":0,"MAX_POP50":0,"MAX_POP300":0,"MAX_POP310":0,"MAX_NATSCA":0,"MIN_AREAKM":0,"MAX_AREAKM":0,"MIN_AREAMI":0,"MAX_AREAMI":0,"MIN_PERKM":0,"MAX_PERKM":0,"MIN_PERMI":0,"MAX_PERMI":0,"MIN_BBXMIN":0,"MAX_BBXMIN":0,"MIN_BBXMAX":0,"MAX_BBXMAX":0,"MIN_BBYMIN":0,"MAX_BBYMIN":0,"MIN_BBYMAX":0,"MAX_BBYMAX":0,"MEAN_BBXC":0,"MEAN_BBYC":0,"TIMEZONE":"Atlantic/South_Georgia","UN_FID":0,"POP1950":0,"POP1955":0,"POP1960":0,"POP1965":0,"POP1970":0,"POP1975":0,"POP1980":0,"POP1985":0,"POP1990":0,"POP1995":0,"POP2000":0,"POP2005":0,"POP2010":0,"POP2015":0,"POP2020":0,"POP2025":0,"POP2050":0,"MIN_ZOOM":6.1,"WIKIDATAID":"Q185672","WOF_ID":1141908377,"CAPALT":0,"NAME_EN":"Grytviken","NAME_DE":"Grytviken","NAME_ES":"Puerto Grytvyken","NAME_FR":"Grytviken","NAME_PT":"Grytviken","NAME_RU":"Грютвикен","NAME_ZH":"古利德维肯","LABEL":"","NAME_AR":"جريتفيكن","NAME_BN":"গ্রিটভিকেন","NAME_EL":"Γκριτβάικεν","NAME_HI":"ग्रित्विकेन","NAME_HU":"Grytviken","NAME_ID":"Grytviken","NAME_IT":"Grytviken","NAME_JA":"グリトビケン","NAME_KO":"그리트비켄","NAME_NL":"Grytviken","NAME_PL":"Grytviken","NAME_SV":"Grytviken","NAME_TR":"Grytviken","NAME_VI":"Grytviken","NE_ID":1159146029,"NAME_FA":"گریت ویکن","NAME_HE":"גריטוויקן","NAME_UK":"Грютвікен","NAME_UR":"گریتویکین","NAME_ZHT":"古利德維肯","GEONAMESID":3426466,"FCLASS_ISO":"","FCLASS_US":"","FCLASS_FR":"","FCLASS_RU":"","FCLASS_ES":"","FCLASS_CN":"","FCLASS_TW":"","FCLASS_IN":"","FCLASS_NP":"","FCLASS_PK":"","FCLASS_DE":"","FCLASS_GB":"","FCLASS_BR":"","FCLASS_IL":"","FCLASS_PS":"","FCLASS_SA":"","FCLASS_EG":"","FCLASS_MA":"","FCLASS_PT":"","FCLASS_AR":"Populated place","FCLASS_JP":"","FCLASS_KO":"","FCLASS_VN":"","FCLASS_TR":"","FCLASS_ID":"","FCLASS_PL":"","FCLASS_GR":"","FCLASS_IT":"","FCLASS_NL":"","FCLASS_SE":"","FCLASS_BD":"","FCLASS_UA":"","FCLASS_TLC":""}},
{"type":"Feature","geometry":{"type":"Point","coordinates":[-60.0869631,-51.95059]},"properties":{"SCALERANK":7,"NATSCALE":20,"LABELRANK":0,"FEATURECLA":"Populated place","NAME":"Fox Bay","NAMEPAR":"","NAMEALT":"Fox Bay West","NAMEASCII":"Fox Bay","ADM0CAP":0,"CAPIN":"","WORLDCITY":0,"MEGACITY":0,"SOV0NAME":"United Kingdom","SOV_A3":"GBR","ADM0NAME":"Falkland Islands","ADM0_A3":"FLK","ADM1NAME":"","ISO_A2":"FK","NOTE":"","LATITUDE":-51.95059,"LONGITUDE":-60.086963,"POP_MAX":120,"POP_MIN":60,"POP_OTHER":0,"RANK_MAX":1,"RANK_MIN":1,"MEGANAME":"","LS_NAME":"Fox Bay West","MAX_POP10":0,"MAX_POP20":0,"MAX_POP50":0,"MAX_POP300":0,"MAX_POP310":0,"MAX_NATSCA":0,"MIN_AREAKM":0,"MAX_AREAKM":0,"MIN_AREAMI":0,"MAX_AREAMI":0,"MIN_PERKM":0,"MAX_PERKM":0,"MIN_PERMI":0,"MAX_PERMI":0,"MIN_BBXMIN":0,"MAX_BBXMIN":0,"MIN_BBXMAX":0,"MAX_BBXMAX":0,"MIN_BBYMIN":0,"MAX_BBYMIN":0,"MIN_BBYMAX":0,"MAX_BBYMAX":0,"MEAN_BBXC":0,"MEAN_BBYC":0,"TIMEZONE":"","UN_FID":0,"POP1950":0,"POP1955":0,"POP1960":0,"POP1965":0,"POP1970":0,"POP1975":0,"POP1980":0,"POP1985":0,"POP1990":0,"POP1995":0,"POP2000":0,"POP2005":0,"POP2010":0,"POP2015":0,"POP2020":0,"POP2025":0,"POP2050":0,"MIN_ZOOM":6.1,"WIKIDATAID":"Q3366786","WOF_ID":1141908379,"CAPALT":0,"NAME_EN":"Fox Bay","NAME_DE":"Fox Bay","NAME_ES":"Bahía Fox","NAME_FR":"Fox Bay","NAME_PT":"Baía Fox","NAME_RU":"Фокс-Бэй","NAME_ZH":"福克兰群岛","LABEL":"","NAME_AR":"فوكس باي","NAME_BN":"ফক্স বে","NAME_EL":"Φοξ Μπέι","NAME_HI":"फ़ॉक्स बे","NAME_HU":"Fox Bay","NAME_ID":"Fox Bay","NAME_IT":"Fox Bay","NAME_JA":"フォックス・ベイ","NAME_KO":"폭스 베이","NAME_NL":"Fox Bay","NAME_PL":"Fox Bay","NAME_SV":"Bahía Fox","NAME_TR":"Fox Bay","NAME_VI":"Fox Bay","NE_ID":1159146031,"NAME_FA":"فاکس بی","NAME_HE":"מפרץ פוקס","NAME_UK":"Фокс-Бей","NAME_UR":"فاکس بے","NAME_ZHT":"福克斯灣","GEONAMESID":3889376,"FCLASS_ISO":"","FCLASS_US":"","FCLASS_FR":"","FCLASS_RU":"","FCLASS_ES":"","FCLASS_CN":"","FCLASS_TW":"","FCLASS_IN":"","FCLASS_NP":"","FCLASS_PK":"","FCLASS_DE":"","FCLASS_GB":"","FCLASS_BR":"","FCLASS_IL":"","FCLASS_PS":"","FCLASS_SA":"","FCLASS_EG":"","FCLASS_MA":"","FCLASS_PT":"","FCLASS_AR":"","FCLASS_JP":"","FCLASS_KO":"","FCLASS_VN":"","FCLASS_TR":"","FCLASS_ID":"","FCLASS_PL":"","FCLASS_GR":"","FCLASS_IT":"","FCLASS_NL":"","FCLASS_SE":"","FCLASS_BD":"","FCLASS_UA":"","FCLASS_TLC":""}},
{"type":"Feature","geometry":{"type":"Point","coordinates":[-81.37156994982368,19.294748156110312]},"properties":{"SCALERANK":7,"NATSCALE":20,"LABELRANK":0,"FEATURECLA":"Admin-0 region capital","NAME":"George Town","NAMEPAR":"","NAMEALT":"","NAMEASCII":"George Town","ADM0CAP":0,"CAPIN":"","WORLDCITY":0,"MEGACITY":0,"SOV0NAME":"United Kingdom","SOV_A3":"GBR","ADM0NAME":"Cayman Islands","ADM0_A3":"CYM","ADM1NAME":"","ISO_A2":"KY","NOTE":"","LATITUDE":19.280437,"LONGITUDE":-81.329982,"POP_MAX":4268,"POP_MIN":1273,"POP_OTHER":1273,"RANK_MAX":4,"RANK_MIN":3,"MEGANAME":"","LS_NAME":"George Town1","MAX_POP10":1273,"MAX_POP20":1273,"MAX_POP50":0,"MAX_POP300":0,"MAX_POP310":0,"MAX_NATSCA":20,"MIN_AREAKM":2,"MAX_AREAKM":2,"MIN_AREAMI":1,"MAX_AREAMI":1,"MIN_PERKM":5,"MAX_PERKM":5,"MIN_PERMI":3,"MAX_PERMI":3,"MIN_BBXMIN":-81.341667,"MAX_BBXMIN":-81.341667,"MIN_BBXMAX":-81.325,"MAX_BBXMAX":-81.325,"MIN_BBYMIN":19.275,"MAX_BBYMIN":19.275,"MIN_BBYMAX":19.283333,"MAX_BBYMAX":19.283333,"MEAN_BBXC":-81.333333,"MEAN_BBYC":19.279167,"TIMEZONE":"Australia/Hobart","UN_FID":0,"POP1950":0,"POP1955":0,"POP1960":0,"POP1965":0,"POP1970":0,"POP1975":0,"POP1980":0,"POP1985":0,"POP1990":0,"POP1995":0,"POP2000":0,"POP2005":0,"POP2010":0,"POP2015":0,"POP2020":0,"POP2025":0,"POP2050":0,"MIN_ZOOM":6.7,"WIKIDATAID":"Q172996","WOF_ID":101938103,"CAPALT":0,"NAME_EN":"George Town","NAME_DE":"George Town","NAME_ES":"George Town","NAME_FR":"George Town","NAME_PT":"George Town","NAME_RU":"Джорджтаун","NAME_ZH":"乔治敦","LABEL":"","NAME_AR":"جورج تاون","NAME_BN":"জর্জ টাউন","NAME_EL":"Τζωρτζτάουν","NAME_HI":"जॉर्ज टाउन","NAME_HU":"George Town","NAME_ID":"George Town","NAME_IT":"George Town","NAME_JA":"ジョージタウン","NAME_KO":"조지타운","NAME_NL":"George Town","NAME_PL":"George Town","NAME_SV":"George Town","NAME_TR":"George Town","NAME_VI":"George Town","NE_ID":1159146033,"NAME_FA":"جرجتاون","NAME_HE":"ג'ורג' טאון","NAME_UK":"Джорджтаун","NAME_UR":"جارج ٹاؤن","NAME_ZHT":"喬治敦","GEONAMESID":2165718,"FCLASS_ISO":"","FCLASS_US":"","FCLASS_FR":"","FCLASS_RU":"","FCLASS_ES":"","FCLASS_CN":"","FCLASS_TW":"","FCLASS_IN":"","FCLASS_NP":"","FCLASS_PK":"","FCLASS_DE":"","FCLASS_GB":"","FCLASS_BR":"","FCLASS_IL":"","FCLASS_PS":"","FCLASS_SA":"","FCLASS_EG":"","FCLASS_MA":"","FCLASS_PT":"","FCLASS_AR":"","FCLASS_JP":"","FCLASS_KO":"","FCLASS_VN":"","FCLASS_TR":"","FCLASS_ID":"","FCLASS_PL":"","FCLASS_GR":"","FCLASS_IT":"","FCLASS_NL":"","FCLASS_SE":"","FCLASS_BD":"","FCLASS_UA":"","FCLASS_TLC":""}},
{"type":"Feature","geometry":{"type":"Point","coordinates":[-71.1359786,21.4664274]},"properties":{"SCALERANK":7,"NATSCALE":20,"LABELRANK":0,"FEATURECLA":"Admin-0 region capital","NAME":"Grand Turk","NAMEPAR":"","NAMEALT":"","NAMEASCII":"Grand Turk","ADM0CAP":0,"CAPIN":"","WORLDCITY":0,"MEGACITY":0,"SOV0NAME":"United Kingdom","SOV_A3":"GBR","ADM0NAME":"Turks and Caicos Islands","ADM0_A3":"TCA","ADM1NAME":"","ISO_A2":"TC","NOTE":"","LATITUDE":21.466427,"LONGITUDE":-71.135979,"POP_MAX":5801,"POP_MIN":3720,"POP_OTHER":5801,"RANK_MAX":5,"RANK_MIN":4,"MEGANAME":"","LS_NAME":"Grand Turk","MAX_POP10":5801,"MAX_POP20":5801,"MAX_POP50":0,"MAX_POP300":0,"MAX_POP310":0,"MAX_NATSCA":20,"MIN_AREAKM":3,"MAX_AREAKM":3,"MIN_AREAMI":1,"MAX_AREAMI":1,"MIN_PERKM":9,"MAX_PERKM":9,"MIN_PERMI":6,"MAX_PERMI":6,"MIN_BBXMIN":-71.15,"MAX_BBXMIN":-71.15,"MIN_BBXMAX":-71.133333,"MAX_BBXMAX":-71.133333,"MIN_BBYMIN":21.45,"MAX_BBYMIN":21.45,"MIN_BBYMAX":21.475,"MAX_BBYMAX":21.475,"MEAN_BBXC":-71.14375,"MEAN_BBYC":21.4625,"TIMEZONE":"America/Grand_Turk","UN_FID":0,"POP1950":0,"POP1955":0,"POP1960":0,"POP1965":0,"POP1970":0,"POP1975":0,"POP1980":0,"POP1985":0,"POP1990":0,"POP1995":0,"POP2000":0,"POP2005":0,"POP2010":0,"POP2015":0,"POP2020":0,"POP2025":0,"POP2050":0,"MIN_ZOOM":6.7,"WIKIDATAID":"Q34205","WOF_ID":890440113,"CAPALT":0,"NAME_EN":"Cockburn Town","NAME_DE":"Cockburn Town","NAME_ES":"Cockburn Town","NAME_FR":"Cockburn Town","NAME_PT":"Cockburn Town","NAME_RU":"Коберн-Таун","NAME_ZH":"科伯恩城","LABEL":"","NAME_AR":"كوكبرن تاون","NAME_BN":"গ্র্যান্ড টার্ক","NAME_EL":"Κόκμπερν Τάουν","NAME_HI":"ग्रांड टर्क","NAME_HU":"Cockburn Town","NAME_ID":"Cockburn Town","NAME_IT":"Cockburn Town","NAME_JA":"コックバーンタウン","NAME_KO":"코크번타운","NAME_NL":"Cockburn Town","NAME_PL":"Cockburn Town","NAME_SV":"Cockburn Town","NAME_TR":"Cockburn Town","NAME_VI":"Cockburn Town","NE_ID":1159146035,"NAME_FA":"کوک برن تاون","NAME_HE":"קוקבורן טאון","NAME_UK":"Коберн-Таун","NAME_UR":"کاک برن ٹاؤن","NAME_ZHT":"科伯恩城","GEONAMESID":3576994,"FCLASS_ISO":"","FCLASS_US":"","FCLASS_FR":"","FCLASS_RU":"","FCLASS_ES":"","FCLASS_CN":"","FCLASS_TW":"","FCLASS_IN":"","FCLASS_NP":"","FCLASS_PK":"","FCLASS_DE":"","FCLASS_GB":"","FCLASS_BR":"","FCLASS_IL":"","FCLASS_PS":"","FCLASS_SA":"","FCLASS_EG":"","FCLASS_MA":"","FCLASS_PT":"","FCLASS_AR":"","FCLASS_JP":"","FCLASS_KO":"","FCLASS_VN":"","FCLASS_TR":"","FCLASS_ID":"","FCLASS_PL":"","FCLASS_GR":"","FCLASS_IT":"","FCLASS_NL":"","FCLASS_SE":"","FCLASS_BD":"","FCLASS_UA":"","FCLASS_TLC":""}},
{"type":"Feature","geometry":{"type":"Point","coordinates":[-4.480269097598402,54.14912168202999]},"properties":{"SCALERANK":7,"NATSCALE":20,"LABELRANK":0,"FEATURECLA":"Admin-0 region capital","NAME":"Douglas","NAMEPAR":"","NAMEALT":"","NAMEASCII":"Douglas","ADM0CAP":0,"CAPIN":"","WORLDCITY":0,"MEGACITY":0,"SOV0NAME":"United Kingdom","SOV_A3":"GBR","ADM0NAME":"Isle of Man","ADM0_A3":"IMN","ADM1NAME":"","ISO_A2":"IM","NOTE":"","LATITUDE":54.150427,"LONGITUDE":-4.480021,"POP_MAX":35854,"POP_MIN":26218,"POP_OTHER":13441,"RANK_MAX":7,"RANK_MIN":7,"MEGANAME":"","LS_NAME":"Douglas3","MAX_POP10":35854,"MAX_POP20":35854,"MAX_POP50":0,"MAX_POP300":0,"MAX_POP310":0,"MAX_NATSCA":20,"MIN_AREAKM":14,"MAX_AREAKM":14,"MIN_AREAMI":5,"MAX_AREAMI":5,"MIN_PERKM":31,"MAX_PERKM":31,"MIN_PERMI":19,"MAX_PERMI":19,"MIN_BBXMIN":-4.533333,"MAX_BBXMIN":-4.533333,"MIN_BBXMAX":-4.433333,"MAX_BBXMAX":-4.433333,"MIN_BBYMIN":54.141667,"MAX_BBYMIN":54.141667,"MIN_BBYMAX":54.191667,"MAX_BBYMAX":54.191667,"MEAN_BBXC":-4.481944,"MEAN_BBYC":54.164352,"TIMEZONE":"Europe/London","UN_FID":0,"POP1950":0,"POP1955":0,"POP1960":0,"POP1965":0,"POP1970":0,"POP1975":0,"POP1980":0,"POP1985":0,"POP1990":0,"POP1995":0,"POP2000":0,"POP2005":0,"POP2010":0,"POP2015":0,"POP2020":0,"POP2025":0,"POP2050":0,"MIN_ZOOM":6.7,"WIKIDATAID":"Q18569","WOF_ID":101872443,"CAPALT":0,"NAME_EN":"Douglas","NAME_DE":"Douglas","NAME_ES":"Douglas","NAME_FR":"Douglas","NAME_PT":"Douglas","NAME_RU":"Дуглас","NAME_ZH":"道格拉斯","LABEL":"","NAME_AR":"دوغلاس","NAME_BN":"ডগলাস","NAME_EL":"Ντάγκλας","NAME_HI":"डग्लस","NAME_HU":"Douglas","NAME_ID":"Douglas","NAME_IT":"Douglas","NAME_JA":"ダグラス","NAME_KO":"더글러스","NAME_NL":"Douglas","NAME_PL":"Douglas","NAME_SV":"Douglas","NAME_TR":"Douglas","NAME_VI":"Douglas","NE_ID":1159146037,"NAME_FA":"دوگلاس","NAME_HE":"דאגלס","NAME_UK":"Дуглас","NAME_UR":"ڈگلس","NAME_ZHT":"道格拉斯","GEONAMESID":2651073,"FCLASS_ISO":"","FCLASS_US":"","FCLASS_FR":"","FCLASS_RU":"","FCLASS_ES":"","FCLASS_CN":"","FCLASS_TW":"","FCLASS_IN":"","FCLASS_NP":"","FCLASS_PK":"","FCLASS_DE":"","FCLASS_GB":"","FCLASS_BR":"","FCLASS_IL":"","FCLASS_PS":"","FCLASS_SA":"","FCLASS_EG":"","FCLASS_MA":"","FCLASS_PT":"","FCLASS_AR":"","FCLASS_JP":"","FCLASS_KO":"","FCLASS_VN":"","FCLASS_TR":"","FCLASS_ID":"","FCLASS_PL":"","FCLASS_GR":"","FCLASS_IT":"","FCLASS_NL":"","FCLASS_SE":"","FCLASS_BD":"","FCLASS_UA":"","FCLASS_TLC":""}},
{"type":"Feature","geometry":{"type":"Point","coordinates":[-5.346014061862125,36.128341769040006]},"properties":{"SCALERANK":6,"NATSCALE":30,"LABELRANK":8,"FEATURECLA":"Admin-0 region capital","NAME":"Gibraltar","NAMEPAR":"","NAMEALT":"","NAMEASCII":"Gibraltar","ADM0CAP":0,"CAPIN":"","WORLDCITY":0,"MEGACITY":0,"SOV0NAME":"United Kingdom","SOV_A3":"GBR","ADM0NAME":"Gibraltar","ADM0_A3":"GIB","ADM1NAME":"Gibraltar","ISO_A2":"GI","NOTE":"","LATITUDE":36.132435,"LONGITUDE":-5.378075,"POP_MAX":187083,"POP_MIN":26544,"POP_OTHER":85683,"RANK_MAX":9,"RANK_MIN":7,"MEGANAME":"","LS_NAME":"Gibraltar","MAX_POP10":89061,"MAX_POP20":187083,"MAX_POP50":0,"MAX_POP300":0,"MAX_POP310":0,"MAX_NATSCA":20,"MIN_AREAKM":26,"MAX_AREAKM":65,"MIN_AREAMI":10,"MAX_AREAMI":25,"MIN_PERKM":40,"MAX_PERKM":90,"MIN_PERMI":25,"MAX_PERMI":56,"MIN_BBXMIN":-5.483333,"MAX_BBXMIN":-5.411054,"MIN_BBXMAX":-5.333333,"MAX_BBXMAX":-5.333333,"MIN_BBYMIN":36.091667,"MAX_BBYMIN":36.108333,"MIN_BBYMAX":36.208333,"MAX_BBYMAX":36.225,"MEAN_BBXC":-5.388976,"MEAN_BBYC":36.162986,"TIMEZONE":"Europe/Gibraltar","UN_FID":0,"POP1950":0,"POP1955":0,"POP1960":0,"POP1965":0,"POP1970":0,"POP1975":0,"POP1980":0,"POP1985":0,"POP1990":0,"POP1995":0,"POP2000":0,"POP2005":0,"POP2010":0,"POP2015":0,"POP2020":0,"POP2025":0,"POP2050":0,"MIN_ZOOM":5.1,"WIKIDATAID":"Q1410","WOF_ID":101753853,"CAPALT":0,"NAME_EN":"Gibraltar","NAME_DE":"Gibraltar","NAME_ES":"Gibraltar","NAME_FR":"Gibraltar","NAME_PT":"Gibraltar","NAME_RU":"Гибралтар","NAME_ZH":"直布罗陀","LABEL":"","NAME_AR":"جبل طارق","NAME_BN":"জিব্রাল্টার","NAME_EL":"Γιβραλτάρ","NAME_HI":"जिब्राल्टर","NAME_HU":"Gibraltár","NAME_ID":"Gibraltar","NAME_IT":"Gibilterra","NAME_JA":"ジブラルタル","NAME_KO":"지브롤터","NAME_NL":"Gibraltar","NAME_PL":"Gibraltar","NAME_SV":"Gibraltar","NAME_TR":"Cebelitarık","NAME_VI":"Gibraltar","NE_ID":1159146301,"NAME_FA":"جبل طارق","NAME_HE":"גיברלטר","NAME_UK":"Гібралтар","NAME_UR":"جبل الطارق","NAME_ZHT":"直布羅陀","GEONAMESID":2411585,"FCLASS_ISO":"","FCLASS_US":"","FCLASS_FR":"","FCLASS_RU":"","FCLASS_ES":"","FCLASS_CN":"","FCLASS_TW":"","FCLASS_IN":"","FCLASS_NP":"","FCLASS_PK":"","FCLASS_DE":"","FCLASS_GB":"","FCLASS_BR":"","FCLASS_IL":"","FCLASS_PS":"","FCLASS_SA":"","FCLASS_EG":"","FCLASS_MA":"","FCLASS_PT":"","FCLASS_AR":"","FCLASS_JP":"","FCLASS_KO":"","FCLASS_VN":"","FCLASS_TR":"","FCLASS_ID":"","FCLASS_PL":"","FCLASS_GR":"","FCLASS_IT":"","FCLASS_NL":"","FCLASS_SE":"","FCLASS_BD":"","FCLASS_UA":"","FCLASS_TLC":""}},
{"type":"Feature","geometry":{"type":"Point","coordinates":[-3.2190906,55.9483279]},"properties":{"SCALERANK":6,"NATSCALE":30,"LABELRANK":5,"FEATURECLA":"Admin-0 region capital","NAME":"Edinburgh","NAMEPAR":"","NAMEALT":"","NAMEASCII":"Edinburgh","ADM0CAP":0,"CAPIN":"","WORLDCITY":0,"MEGACITY":0,"SOV0NAME":"United Kingdom","SOV_A3":"GBR","ADM0NAME":"United Kingdom","ADM0_A3":"GBR","ADM1NAME":"Edinburgh","ISO_A2":"GB","NOTE":"","LATITUDE":55.948328,"LONGITUDE":-3.219091,"POP_MAX":504966,"POP_MIN":435791,"POP_OTHER":442794,"RANK_MAX":11,"RANK_MIN":10,"MEGANAME":"","LS_NAME":"Edinburgh","MAX_POP10":504966,"MAX_POP20":504966,"MAX_POP50":0,"MAX_POP300":0,"MAX_POP310":0,"MAX_NATSCA":20,"MIN_AREAKM":175,"MAX_AREAKM":175,"MIN_AREAMI":68,"MAX_AREAMI":68,"MIN_PERKM":194,"MAX_PERKM":194,"MIN_PERMI":121,"MAX_PERMI":121,"MIN_BBXMIN":-3.358333,"MAX_BBXMIN":-3.358333,"MIN_BBXMAX":-3.008333,"MAX_BBXMAX":-3.008333,"MIN_BBYMIN":55.833333,"MAX_BBYMIN":55.833333,"MIN_BBYMAX":55.983333,"MAX_BBYMAX":55.983333,"MEAN_BBXC":-3.180847,"MEAN_BBYC":55.922399,"TIMEZONE":"Europe/London","UN_FID":0,"POP1950":0,"POP1955":0,"POP1960":0,"POP1965":0,"POP1970":0,"POP1975":0,"POP1980":0,"POP1985":0,"POP1990":0,"POP1995":0,"POP2000":0,"POP2005":0,"POP2010":0,"POP2015":0,"POP2020":0,"POP2025":0,"POP2050":0,"MIN_ZOOM":5.1,"WIKIDATAID":"Q23436","WOF_ID":101750629,"CAPALT":0,"NAME_EN":"Edinburgh","NAME_DE":"Edinburgh","NAME_ES":"Edimburgo","NAME_FR":"Édimbourg","NAME_PT":"Edimburgo","NAME_RU":"Эдинбург","NAME_ZH":"爱丁堡","LABEL":"","NAME_AR":"إدنبرة","NAME_BN":"এডিনবরা","NAME_EL":"Εδιμβούργο","NAME_HI":"एडिनबरा","NAME_HU":"Edinburgh","NAME_ID":"Edinburgh","NAME_IT":"Edimburgo","NAME_JA":"エディンバラ","NAME_KO":"에든버러","NAME_NL":"Edinburgh","NAME_PL":"Edynburg","NAME_SV":"Edinburgh","NAME_TR":"Edinburgh","NAME_VI":"Edinburgh","NE_ID":1159146365,"NAME_FA":"ادینبرو","NAME_HE":"אדינבורו","NAME_UK":"Единбург","NAME_UR":"ایڈنبرگ","NAME_ZHT":"愛丁堡","GEONAMESID":2650225,"FCLASS_ISO":"","FCLASS_US":"","FCLASS_FR":"","FCLASS_RU":"","FCLASS_ES":"","FCLASS_CN":"","FCLASS_TW":"","FCLASS_IN":"","FCLASS_NP":"","FCLASS_PK":"","FCLASS_DE":"","FCLASS_GB":"","FCLASS_BR":"","FCLASS_IL":"","FCLASS_PS":"","FCLASS_SA":"","FCLASS_EG":"","FCLASS_MA":"","FCLASS_PT":"","FCLASS_AR":"","FCLASS_JP":"","FCLASS_KO":"","FCLASS_VN":"","FCLASS_TR":"","FCLASS_ID":"","FCLASS_PL":"","FCLASS_GR":"","FCLASS_IT":"","FCLASS_NL":"","FCLASS_SE":"","FCLASS_BD":"","FCLASS_UA":"","FCLASS_TLC":""}},
{"type":"Feature","geometry":{"type":"Point","coordinates":[-1.6116254893345796,54.98974205316957]},"properties":{"SCALERANK":6,"NATSCALE":30,"LABELRANK":5,"FEATURECLA":"Populated place","NAME":"Newcastle","NAMEPAR":"","NAMEALT":"Newcastle upon Tyne","NAMEASCII":"Newcastle","ADM0CAP":0,"CAPIN":"","WORLDCITY":0,"MEGACITY":1,"SOV0NAME":"United Kingdom","SOV_A3":"GBR","ADM0NAME":"United Kingdom","ADM0_A3":"GBR","ADM1NAME":"Tyne and Wear","ISO_A2":"GB","NOTE":"","LATITUDE":55.002321,"LONGITUDE":-1.601936,"POP_MAX":882000,"POP_MIN":192382,"POP_OTHER":660783,"RANK_MAX":11,"RANK_MIN":9,"MEGANAME":"Newcastle upon Tyne","LS_NAME":"Newcastle","MAX_POP10":717948,"MAX_POP20":1134616,"MAX_POP50":273848,"MAX_POP300":273848,"MAX_POP310":0,"MAX_NATSCA":100,"MIN_AREAKM":179,"MAX_AREAKM":479,"MIN_AREAMI":69,"MAX_AREAMI":185,"MIN_PERKM":188,"MAX_PERKM":374,"MIN_PERMI":117,"MAX_PERMI":233,"MIN_BBXMIN":-1.8,"MAX_BBXMIN":151.566667,"MIN_BBXMAX":-1.451249,"MAX_BBXMAX":151.791667,"MIN_BBYMIN":-33.041667,"MAX_BBYMIN":54.841667,"MIN_BBYMAX":-32.866667,"MAX_BBYMAX":55.108333,"MEAN_BBXC":75.048749,"MEAN_BBYC":11.007107,"TIMEZONE":"Europe/London","UN_FID":521,"POP1950":909,"POP1955":921,"POP1960":934,"POP1965":913,"POP1970":886,"POP1975":838,"POP1980":790,"POP1985":825,"POP1990":877,"POP1995":883,"POP2000":880,"POP2005":880,"POP2010":882,"POP2015":887,"POP2020":898,"POP2025":908,"POP2050":918,"MIN_ZOOM":5.1,"WIKIDATAID":"Q1425428","WOF_ID":101750617,"CAPALT":0,"NAME_EN":"Newcastle upon Tyne","NAME_DE":"Newcastle upon Tyne","NAME_ES":"Newcastle upon Tyne","NAME_FR":"Newcastle upon Tyne","NAME_PT":"Newcastle upon Tyne","NAME_RU":"Ньюкасл-апон-Тайн","NAME_ZH":"泰恩河畔纽卡斯尔","LABEL":"","NAME_AR":"نيوكاسل أبون تاين","NAME_BN":"নিউক্যাসল আপন টাইন","NAME_EL":"Νιούκασλ","NAME_HI":"न्यूकैसल अपॉन टाइन नोड","NAME_HU":"Newcastle upon Tyne","NAME_ID":"Newcastle upon Tyne","NAME_IT":"Newcastle upon Tyne","NAME_JA":"ニューカッスル・アポン・タイン","NAME_KO":"뉴캐슬어폰타인","NAME_NL":"Newcastle upon Tyne","NAME_PL":"Newcastle upon Tyne","NAME_SV":"Newcastle upon Tyne","NAME_TR":"Newcastle upon Tyne","NAME_VI":"Newcastle trên sông Tyne","NE_ID":1159146367,"NAME_FA":"نیوکاسل آپون تاین","NAME_HE":"ניוקאסל","NAME_UK":"Ньюкасл-апон-Тайн","NAME_UR":"نیوکیسل اپون ٹائین","NAME_ZHT":"泰恩河畔紐卡素","GEONAMESID":2641673,"FCLASS_ISO":"","FCLASS_US":"","FCLASS_FR":"","FCLASS_RU":"","FCLASS_ES":"","FCLASS_CN":"","FCLASS_TW":"","FCLASS_IN":"","FCLASS_NP":"","FCLASS_PK":"","FCLASS_DE":"","FCLASS_GB":"","FCLASS_BR":"","FCLASS_IL":"","FCLASS_PS":"","FCLASS_SA":"","FCLASS_EG":"","FCLASS_MA":"","FCLASS_PT":"","FCLASS_AR":"","FCLASS_JP":"","FCLASS_KO":"","FCLASS_VN":"","FCLASS_TR":"","FCLASS_ID":"","FCLASS_PL":"","FCLASS_GR":"","FCLASS_IT":"","FCLASS_NL":"","FCLASS_SE":"","FCLASS_BD":"","FCLASS_UA":"","FCLASS_TLC":""}},
{"type":"Feature","geometry":{"type":"Point","coordinates":[-2.961934009816594,53.405068298036525]},"properties":{"SCALERANK":6,"NATSCALE":30,"LABELRANK":5,"FEATURECLA":"Populated place","NAME":"Liverpool","NAMEPAR":"","NAMEALT":"","NAMEASCII":"Liverpool","ADM0CAP":0,"CAPIN":"","WORLDCITY":0,"MEGACITY":1,"SOV0NAME":"United Kingdom","SOV_A3":"GBR","ADM0NAME":"United Kingdom","ADM0_A3":"GBR","ADM1NAME":"Merseyside","ISO_A2":"GB","NOTE":"","LATITUDE":53.417948,"LONGITUDE":-2.919944,"POP_MAX":811000,"POP_MIN":468945,"POP_OTHER":4331,"RANK_MAX":11,"RANK_MIN":10,"MEGANAME":"Liverpool","LS_NAME":"Liverpool2","MAX_POP10":1300960,"MAX_POP20":1305570,"MAX_POP50":0,"MAX_POP300":0,"MAX_POP310":0,"MAX_NATSCA":20,"MIN_AREAKM":535,"MAX_AREAKM":542,"MIN_AREAMI":206,"MAX_AREAMI":209,"MIN_PERKM":392,"MAX_PERKM":404,"MIN_PERMI":244,"MAX_PERMI":251,"MIN_BBXMIN":-3.058333,"MAX_BBXMIN":-3.058333,"MIN_BBXMAX":-2.567378,"MAX_BBXMAX":-2.567378,"MIN_BBYMIN":53.266667,"MAX_BBYMIN":53.305614,"MIN_BBYMAX":53.6,"MAX_BBYMAX":53.6,"MEAN_BBXC":-2.781569,"MEAN_BBYC":53.443273,"TIMEZONE":"Europe/London","UN_FID":518,"POP1950":1382,"POP1955":1383,"POP1960":1384,"POP1965":1334,"POP1970":1276,"POP1975":1018,"POP1980":784,"POP1985":788,"POP1990":831,"POP1995":829,"POP2000":818,"POP2005":811,"POP2010":811,"POP2015":815,"POP2020":825,"POP2025":836,"POP2050":845,"MIN_ZOOM":6,"WIKIDATAID":"Q24826","WOF_ID":101750547,"CAPALT":0,"NAME_EN":"Liverpool","NAME_DE":"Liverpool","NAME_ES":"Liverpool","NAME_FR":"Liverpool","NAME_PT":"Liverpool","NAME_RU":"Ливерпуль","NAME_ZH":"利物浦","LABEL":"","NAME_AR":"ليفربول","NAME_BN":"লিভারপুল","NAME_EL":"Λίβερπουλ","NAME_HI":"लिवरपूल","NAME_HU":"Liverpool","NAME_ID":"Liverpool","NAME_IT":"Liverpool","NAME_JA":"リヴァプール","NAME_KO":"리버풀","NAME_NL":"Liverpool","NAME_PL":"Liverpool","NAME_SV":"Liverpool","NAME_TR":"Liverpool","NAME_VI":"Liverpool","NE_ID":1159146371,"NAME_FA":"لیورپول","NAME_HE":"ליברפול","NAME_UK":"Ліверпуль","NAME_UR":"لیورپول","NAME_ZHT":"利物浦","GEONAMESID":2644210,"FCLASS_ISO":"","FCLASS_US":"","FCLASS_FR":"","FCLASS_RU":"","FCLASS_ES":"","FCLASS_CN":"","FCLASS_TW":"","FCLASS_IN":"","FCLASS_NP":"","FCLASS_PK":"","FCLASS_DE":"","FCLASS_GB":"","FCLASS_BR":"","FCLASS_IL":"","FCLASS_PS":"","FCLASS_SA":"","FCLASS_EG":"","FCLASS_MA":"","FCLASS_PT":"","FCLASS_AR":"","FCLASS_JP":"","FCLASS_KO":"","FCLASS_VN":"","FCLASS_TR":"","FCLASS_ID":"","FCLASS_PL":"","FCLASS_GR":"","FCLASS_IT":"","FCLASS_NL":"","FCLASS_SE":"","FCLASS_BD":"","FCLASS_UA":"","FCLASS_TLC":""}},
{"type":"Feature","geometry":{"type":"Point","coordinates":[-3.1675981955277295,51.48261904913091]},"properties":{"SCALERANK":6,"NATSCALE":30,"LABELRANK":5,"FEATURECLA":"Admin-0 region capital","NAME":"Cardiff","NAMEPAR":"","NAMEALT":"","NAMEASCII":"Cardiff","ADM0CAP":0,"CAPIN":"","WORLDCITY":0,"MEGACITY":0,"SOV0NAME":"United Kingdom","SOV_A3":"GBR","ADM0NAME":"United Kingdom","ADM0_A3":"GBR","ADM1NAME":"Cardiff","ISO_A2":"GB","NOTE":"","LATITUDE":51.499995,"LONGITUDE":-3.225008,"POP_MAX":861400,"POP_MIN":346100,"POP_OTHER":458831,"RANK_MAX":11,"RANK_MIN":10,"MEGANAME":"","LS_NAME":"Cardiff","MAX_POP10":527695,"MAX_POP20":528178,"MAX_POP50":0,"MAX_POP300":0,"MAX_POP310":0,"MAX_NATSCA":20,"MIN_AREAKM":289,"MAX_AREAKM":290,"MIN_AREAMI":111,"MAX_AREAMI":112,"MIN_PERKM":375,"MAX_PERKM":381,"MIN_PERMI":233,"MAX_PERMI":237,"MIN_BBXMIN":-3.575,"MAX_BBXMIN":-3.555841,"MIN_BBXMAX":-3.058333,"MAX_BBXMAX":-3.058333,"MIN_BBYMIN":51.416667,"MAX_BBYMIN":51.416667,"MIN_BBYMAX":51.758333,"MAX_BBYMAX":51.758333,"MEAN_BBXC":-3.307035,"MEAN_BBYC":51.571972,"TIMEZONE":"Australia/Sydney","UN_FID":0,"POP1950":0,"POP1955":0,"POP1960":0,"POP1965":0,"POP1970":0,"POP1975":0,"POP1980":0,"POP1985":0,"POP1990":0,"POP1995":0,"POP2000":0,"POP2005":0,"POP2010":0,"POP2015":0,"POP2020":0,"POP2025":0,"POP2050":0,"MIN_ZOOM":5.1,"WIKIDATAID":"Q10690","WOF_ID":101929817,"CAPALT":0,"NAME_EN":"Cardiff","NAME_DE":"Cardiff","NAME_ES":"Cardiff","NAME_FR":"Cardiff","NAME_PT":"Cardiff","NAME_RU":"Кардифф","NAME_ZH":"加地夫","LABEL":"","NAME_AR":"كارديف","NAME_BN":"কার্ডিফ","NAME_EL":"Κάρντιφ","NAME_HI":"कार्डिफ़","NAME_HU":"Cardiff","NAME_ID":"Cardiff","NAME_IT":"Cardiff","NAME_JA":"カーディフ","NAME_KO":"카디프","NAME_NL":"Cardiff","NAME_PL":"Cardiff","NAME_SV":"Cardiff","NAME_TR":"Cardiff","NAME_VI":"Cardiff","NE_ID":1159146373,"NAME_FA":"کاردیف","NAME_HE":"קארדיף","NAME_UK":"Кардіфф","NAME_UR":"کارڈف","NAME_ZHT":"卡地夫","GEONAMESID":2172349,"FCLASS_ISO":"","FCLASS_US":"","FCLASS_FR":"","FCLASS_RU":"","FCLASS_ES":"","FCLASS_CN":"","FCLASS_TW":"","FCLASS_IN":"","FCLASS_NP":"","FCLASS_PK":"","FCLASS_DE":"","FCLASS_GB":"","FCLASS_BR":"","FCLASS_IL":"","FCLASS_PS":"","FCLASS_SA":"","FCLASS_EG":"","FCLASS_MA":"","FCLASS_PT":"","FCLASS_AR":"","FCLASS_JP":"","FCLASS_KO":"","FCLASS_VN":"","FCLASS_TR":"","FCLASS_ID":"","FCLASS_PL":"","FCLASS_GR":"","FCLASS_IT":"","FCLASS_NL":"","FCLASS_SE":"","FCLASS_BD":"","FCLASS_UA":"","FCLASS_TLC":""}},
{"type":"Feature","geometry":{"type":"Point","coordinates":[-3.0833625,58.4332925]},"properties":{"SCALERANK":6,"NATSCALE":30,"LABELRANK":5,"FEATURECLA":"Populated place","NAME":"Wick","NAMEPAR":"","NAMEALT":"","NAMEASCII":"Wick","ADM0CAP":0,"CAPIN":"","WORLDCITY":0,"MEGACITY":0,"SOV0NAME":"United Kingdom","SOV_A3":"GBR","ADM0NAME":"United Kingdom","ADM0_A3":"GBR","ADM1NAME":"Highland","ISO_A2":"GB","NOTE":"","LATITUDE":58.433293,"LONGITUDE":-3.083363,"POP_MAX":7147,"POP_MIN":7147,"POP_OTHER":0,"RANK_MAX":5,"RANK_MIN":5,"MEGANAME":"","LS_NAME":"","MAX_POP10":0,"MAX_POP20":0,"MAX_POP50":0,"MAX_POP300":0,"MAX_POP310":0,"MAX_NATSCA":0,"MIN_AREAKM":0,"MAX_AREAKM":0,"MIN_AREAMI":0,"MAX_AREAMI":0,"MIN_PERKM":0,"MAX_PERKM":0,"MIN_PERMI":0,"MAX_PERMI":0,"MIN_BBXMIN":0,"MAX_BBXMIN":0,"MIN_BBXMAX":0,"MAX_BBXMAX":0,"MIN_BBYMIN":0,"MAX_BBYMIN":0,"MIN_BBYMAX":0,"MAX_BBYMAX":0,"MEAN_BBXC":0,"MEAN_BBYC":0,"TIMEZONE":"Europe/London","UN_FID":0,"POP1950":0,"POP1955":0,"POP1960":0,"POP1965":0,"POP1970":0,"POP1975":0,"POP1980":0,"POP1985":0,"POP1990":0,"POP1995":0,"POP2000":0,"POP2005":0,"POP2010":0,"POP2015":0,"POP2020":0,"POP2025":0,"POP2050":0,"MIN_ZOOM":6,"WIKIDATAID":"Q1012502","WOF_ID":101873675,"CAPALT":0,"NAME_EN":"Wick","NAME_DE":"Wick","NAME_ES":"Wick","NAME_FR":"Wick","NAME_PT":"Wick","NAME_RU":"Уик","NAME_ZH":"威克","LABEL":"","NAME_AR":"ويك","NAME_BN":"উইক","NAME_EL":"Γουίκ","NAME_HI":"विक","NAME_HU":"Wick","NAME_ID":"Wick","NAME_IT":"Wick","NAME_JA":"ウィック","NAME_KO":"윅","NAME_NL":"Wick","NAME_PL":"Invernes","NAME_SV":"Wick","NAME_TR":"Wick","NAME_VI":"Wick","NE_ID":1159146383,"NAME_FA":"ویک","NAME_HE":"וויק","NAME_UK":"Вік","NAME_UR":"وک","NAME_ZHT":"威克","GEONAMESID":2633982,"FCLASS_ISO":"","FCLASS_US":"","FCLASS_FR":"","FCLASS_RU":"","FCLASS_ES":"","FCLASS_CN":"","FCLASS_TW":"","FCLASS_IN":"","FCLASS_NP":"","FCLASS_PK":"","FCLASS_DE":"","FCLASS_GB":"","FCLASS_BR":"","FCLASS_IL":"","FCLASS_PS":"","FCLASS_SA":"","FCLASS_EG":"","FCLASS_MA":"","FCLASS_PT":"","FCLASS_AR":"","FCLASS_JP":"","FCLASS_KO":"","FCLASS_VN":"","FCLASS_TR":"","FCLASS_ID":"","FCLASS_PL":"","FCLASS_GR":"","FCLASS_IT":"","FCLASS_NL":"","FCLASS_SE":"","FCLASS_BD":"","FCLASS_UA":"","FCLASS_TLC":""}},
{"type":"Feature","geometry":{"type":"Point","coordinates":[-1.5513477114128407,53.790016637752316]},"properties":{"SCALERANK":6,"NATSCALE":30,"LABELRANK":5,"FEATURECLA":"Populated place","NAME":"Leeds","NAMEPAR":"","NAMEALT":"West Yorkshire","NAMEASCII":"Leeds","ADM0CAP":0,"CAPIN":"","WORLDCITY":0,"MEGACITY":1,"SOV0NAME":"United Kingdom","SOV_A3":"GBR","ADM0NAME":"United Kingdom","ADM0_A3":"GBR","ADM1NAME":"West Yorkshire","ISO_A2":"GB","NOTE":"","LATITUDE":53.831953,"LONGITUDE":-1.581963,"POP_MAX":1529000,"POP_MIN":455123,"POP_OTHER":770655,"RANK_MAX":12,"RANK_MIN":10,"MEGANAME":"West Yorkshire","LS_NAME":"Leeds","MAX_POP10":810324,"MAX_POP20":0,"MAX_POP50":0,"MAX_POP300":0,"MAX_POP310":0,"MAX_NATSCA":10,"MIN_AREAKM":293,"MAX_AREAKM":293,"MIN_AREAMI":113,"MAX_AREAMI":113,"MIN_PERKM":231,"MAX_PERKM":231,"MIN_PERMI":143,"MAX_PERMI":143,"MIN_BBXMIN":-1.675585,"MAX_BBXMIN":-1.675585,"MIN_BBXMAX":-1.425,"MAX_BBXMAX":-1.425,"MIN_BBYMIN":53.616667,"MAX_BBYMIN":53.616667,"MIN_BBYMAX":53.883333,"MAX_BBYMAX":53.883333,"MEAN_BBXC":-1.551024,"MEAN_BBYC":53.760524,"TIMEZONE":"Europe/London","UN_FID":522,"POP1950":1692,"POP1955":1697,"POP1960":1703,"POP1965":1714,"POP1970":1726,"POP1975":1618,"POP1980":1496,"POP1985":1465,"POP1990":1449,"POP1995":1468,"POP2000":1495,"POP2005":1521,"POP2010":1529,"POP2015":1539,"POP2020":1552,"POP2025":1565,"POP2050":1575,"MIN_ZOOM":5.6,"WIKIDATAID":"Q39121","WOF_ID":101750579,"CAPALT":0,"NAME_EN":"Leeds","NAME_DE":"Leeds","NAME_ES":"Leeds","NAME_FR":"Leeds","NAME_PT":"Leeds","NAME_RU":"Лидс","NAME_ZH":"利兹","LABEL":"","NAME_AR":"ليدز","NAME_BN":"লিডস","NAME_EL":"Ληντς","NAME_HI":"लीड्स","NAME_HU":"Leeds","NAME_ID":"Leeds","NAME_IT":"Leeds","NAME_JA":"リーズ","NAME_KO":"리즈","NAME_NL":"Leeds","NAME_PL":"Leeds","NAME_SV":"Leeds","NAME_TR":"Leeds","NAME_VI":"Leeds","NE_ID":1159146385,"NAME_FA":"لیدز","NAME_HE":"לידס","NAME_UK":"Лідс","NAME_UR":"لیڈز","NAME_ZHT":"里茲","GEONAMESID":2644688,"FCLASS_ISO":"","FCLASS_US":"","FCLASS_FR":"","FCLASS_RU":"","FCLASS_ES":"","FCLASS_CN":"","FCLASS_TW":"","FCLASS_IN":"","FCLASS_NP":"","FCLASS_PK":"","FCLASS_DE":"","FCLASS_GB":"","FCLASS_BR":"","FCLASS_IL":"","FCLASS_PS":"","FCLASS_SA":"","FCLASS_EG":"","FCLASS_MA":"","FCLASS_PT":"","FCLASS_AR":"","FCLASS_JP":"","FCLASS_KO":"","FCLASS_VN":"","FCLASS_TR":"","FCLASS_ID":"","FCLASS_PL":"","FCLASS_GR":"","FCLASS_IT":"","FCLASS_NL":"","FCLASS_SE":"","FCLASS_BD":"","FCLASS_UA":"","FCLASS_TLC":""}},
{"type":"Feature","geometry":{"type":"Point","coordinates":[-1.1499921,60.1500352]},"properties":{"SCALERANK":6,"NATSCALE":30,"LABELRANK":5,"FEATURECLA":"Populated place","NAME":"Lerwick","NAMEPAR":"","NAMEALT":"","NAMEASCII":"Lerwick","ADM0CAP":0,"CAPIN":"","WORLDCITY":0,"MEGACITY":0,"SOV0NAME":"United Kingdom","SOV_A3":"GBR","ADM0NAME":"United Kingdom","ADM0_A3":"GBR","ADM1NAME":"Aberdeen","ISO_A2":"GB","NOTE":"","LATITUDE":60.150035,"LONGITUDE":-1.149992,"POP_MAX":6594,"POP_MIN":4614,"POP_OTHER":4366,"RANK_MAX":5,"RANK_MIN":4,"MEGANAME":"","LS_NAME":"Lerwick","MAX_POP10":4614,"MAX_POP20":4614,"MAX_POP50":0,"MAX_POP300":0,"MAX_POP310":0,"MAX_NATSCA":20,"MIN_AREAKM":6,"MAX_AREAKM":6,"MIN_AREAMI":2,"MAX_AREAMI":2,"MIN_PERKM":19,"MAX_PERKM":19,"MIN_PERMI":12,"MAX_PERMI":12,"MIN_BBXMIN":-1.191667,"MAX_BBXMIN":-1.191667,"MIN_BBXMAX":-1.133333,"MAX_BBXMAX":-1.133333,"MIN_BBYMIN":60.141667,"MAX_BBYMIN":60.141667,"MIN_BBYMAX":60.175,"MAX_BBYMAX":60.175,"MEAN_BBXC":-1.16131,"MEAN_BBYC":60.155357,"TIMEZONE":"Europe/London","UN_FID":0,"POP1950":0,"POP1955":0,"POP1960":0,"POP1965":0,"POP1970":0,"POP1975":0,"POP1980":0,"POP1985":0,"POP1990":0,"POP1995":0,"POP2000":0,"POP2005":0,"POP2010":0,"POP2015":0,"POP2020":0,"POP2025":0,"POP2050":0,"MIN_ZOOM":6,"WIKIDATAID":"Q213485","WOF_ID":101874215,"CAPALT":0,"NAME_EN":"Lerwick","NAME_DE":"Lerwick","NAME_ES":"Lerwick","NAME_FR":"Lerwick","NAME_PT":"Lerwick","NAME_RU":"Леруик","NAME_ZH":"勒威克","LABEL":"","NAME_AR":"ليرويك","NAME_BN":"লারওয়িক","NAME_EL":"Λέργουικ","NAME_HI":"लर्विक","NAME_HU":"Lerwick","NAME_ID":"Lerwick","NAME_IT":"Lerwick","NAME_JA":"ラーウィック","NAME_KO":"러윅","NAME_NL":"Lerwick","NAME_PL":"Lerwick","NAME_SV":"Lerwick","NAME_TR":"Lerwick","NAME_VI":"Lerwick","NE_ID":1159147847,"NAME_FA":"لرویک","NAME_HE":"לרוויק","NAME_UK":"Лервік","NAME_UR":"لیرویک","NAME_ZHT":"勒域克","GEONAMESID":2644605,"FCLASS_ISO":"","FCLASS_US":"","FCLASS_FR":"","FCLASS_RU":"","FCLASS_ES":"","FCLASS_CN":"","FCLASS_TW":"","FCLASS_IN":"","FCLASS_NP":"","FCLASS_PK":"","FCLASS_DE":"","FCLASS_GB":"","FCLASS_BR":"","FCLASS_IL":"","FCLASS_PS":"","FCLASS_SA":"","FCLASS_EG":"","FCLASS_MA":"","FCLASS_PT":"","FCLASS_AR":"","FCLASS_JP":"","FCLASS_KO":"","FCLASS_VN":"","FCLASS_TR":"","FCLASS_ID":"","FCLASS_PL":"","FCLASS_GR":"","FCLASS_IT":"","FCLASS_NL":"","FCLASS_SE":"","FCLASS_BD":"","FCLASS_UA":"","FCLASS_TLC":""}},
{"type":"Feature","geometry":{"type":"Point","coordinates":[-2.2486846671598855,53.47531992472453]},"properties":{"SCALERANK":4,"NATSCALE":50,"LABELRANK":5,"FEATURECLA":"Populated place","NAME":"Manchester","NAMEPAR":"","NAMEALT":"","NAMEASCII":"Manchester","ADM0CAP":0,"CAPIN":"","WORLDCITY":0,"MEGACITY":1,"SOV0NAME":"United Kingdom","SOV_A3":"GBR","ADM0NAME":"United Kingdom","ADM0_A3":"GBR","ADM1NAME":"Manchester","ISO_A2":"GB","NOTE":"","LATITUDE":53.502361,"LONGITUDE":-2.249933,"POP_MAX":2230000,"POP_MIN":395515,"POP_OTHER":142301,"RANK_MAX":12,"RANK_MIN":10,"MEGANAME":"Manchester","LS_NAME":"Manchester2","MAX_POP10":2583902,"MAX_POP20":2583902,"MAX_POP50":0,"MAX_POP300":0,"MAX_POP310":0,"MAX_NATSCA":20,"MIN_AREAKM":1052,"MAX_AREAKM":1052,"MIN_AREAMI":406,"MAX_AREAMI":406,"MIN_PERKM":763,"MAX_PERKM":763,"MIN_PERMI":474,"MAX_PERMI":474,"MIN_BBXMIN":-2.6,"MAX_BBXMIN":-2.6,"MIN_BBXMAX":-2.008333,"MAX_BBXMAX":-2.008333,"MIN_BBYMIN":53.283333,"MAX_BBYMIN":53.283333,"MIN_BBYMAX":53.808333,"MAX_BBYMAX":53.808333,"MEAN_BBXC":-2.294601,"MEAN_BBYC":53.518239,"TIMEZONE":"Europe/London","UN_FID":520,"POP1950":2422,"POP1955":2425,"POP1960":2427,"POP1965":2413,"POP1970":2396,"POP1975":2370,"POP1980":2343,"POP1985":2313,"POP1990":2282,"POP1995":2262,"POP2000":2243,"POP2005":2230,"POP2010":2230,"POP2015":2235,"POP2020":2246,"POP2025":2258,"POP2050":2267,"MIN_ZOOM":5,"WIKIDATAID":"Q18125","WOF_ID":101750525,"CAPALT":0,"NAME_EN":"Manchester","NAME_DE":"Manchester","NAME_ES":"Mánchester","NAME_FR":"Manchester","NAME_PT":"Manchester","NAME_RU":"Манчестер","NAME_ZH":"曼彻斯特","LABEL":"","NAME_AR":"مانشستر","NAME_BN":"ম্যানচেস্টার","NAME_EL":"Μάντσεστερ","NAME_HI":"मैन्चेस्टर","NAME_HU":"Manchester","NAME_ID":"Manchester","NAME_IT":"Manchester","NAME_JA":"マンチェスター","NAME_KO":"맨체스터","NAME_NL":"Manchester","NAME_PL":"Manchester","NAME_SV":"Manchester","NAME_TR":"Manchester","NAME_VI":"Manchester","NE_ID":1159149119,"NAME_FA":"منچستر","NAME_HE":"מנצ'סטר","NAME_UK":"Манчестер","NAME_UR":"مانچسٹر","NAME_ZHT":"曼徹斯特","GEONAMESID":2643123,"FCLASS_ISO":"","FCLASS_US":"","FCLASS_FR":"","FCLASS_RU":"","FCLASS_ES":"","FCLASS_CN":"","FCLASS_TW":"","FCLASS_IN":"","FCLASS_NP":"","FCLASS_PK":"","FCLASS_DE":"","FCLASS_GB":"","FCLASS_BR":"","FCLASS_IL":"","FCLASS_PS":"","FCLASS_SA":"","FCLASS_EG":"","FCLASS_MA":"","FCLASS_PT":"","FCLASS_AR":"","FCLASS_JP":"","FCLASS_KO":"","FCLASS_VN":"","FCLASS_TR":"","FCLASS_ID":"","FCLASS_PL":"","FCLASS_GR":"","FCLASS_IT":"","FCLASS_NL":"","FCLASS_SE":"","FCLASS_BD":"","FCLASS_UA":"","FCLASS_TLC":""}},
{"type":"Feature","geometry":{"type":"Point","coordinates":[-1.9219426,52.4769198]},"properties":{"SCALERANK":4,"NATSCALE":50,"LABELRANK":5,"FEATURECLA":"Populated place","NAME":"Birmingham","NAMEPAR":"","NAMEALT":"","NAMEASCII":"Birmingham","ADM0CAP":0,"CAPIN":"","WORLDCITY":0,"MEGACITY":1,"SOV0NAME":"United Kingdom","SOV_A3":"GBR","ADM0NAME":"United Kingdom","ADM0_A3":"GBR","ADM1NAME":"West Midlands","ISO_A2":"GB","NOTE":"","LATITUDE":52.47692,"LONGITUDE":-1.921943,"POP_MAX":2285000,"POP_MIN":984333,"POP_OTHER":631279,"RANK_MAX":12,"RANK_MIN":11,"MEGANAME":"Birmingham","LS_NAME":"Birmingham2","MAX_POP10":2331021,"MAX_POP20":2331021,"MAX_POP50":2331630,"MAX_POP300":0,"MAX_POP310":0,"MAX_NATSCA":50,"MIN_AREAKM":838,"MAX_AREAKM":842,"MIN_AREAMI":324,"MAX_AREAMI":325,"MIN_PERKM":433,"MAX_PERKM":438,"MIN_PERMI":269,"MAX_PERMI":272,"MIN_BBXMIN":-2.216667,"MAX_BBXMIN":-2.216667,"MIN_BBXMAX":-1.698778,"MAX_BBXMAX":-1.683333,"MIN_BBYMIN":52.358333,"MAX_BBYMIN":52.358333,"MIN_BBYMAX":52.733333,"MAX_BBYMAX":52.733333,"MEAN_BBXC":-1.964565,"MEAN_BBYC":52.526389,"TIMEZONE":"Europe/London","UN_FID":516,"POP1950":2229,"POP1955":2283,"POP1960":2338,"POP1965":2357,"POP1970":2370,"POP1975":2365,"POP1980":2357,"POP1985":2330,"POP1990":2301,"POP1995":2291,"POP2000":2285,"POP2005":2283,"POP2010":2285,"POP2015":2291,"POP2020":2303,"POP2025":2315,"POP2050":2323,"MIN_ZOOM":5,"WIKIDATAID":"Q2256","WOF_ID":101750467,"CAPALT":0,"NAME_EN":"Birmingham","NAME_DE":"Birmingham","NAME_ES":"Birmingham","NAME_FR":"Birmingham","NAME_PT":"Birmingham","NAME_RU":"Бирмингем","NAME_ZH":"伯明翰","LABEL":"","NAME_AR":"برمينغهام","NAME_BN":"বার্মিংহাম","NAME_EL":"Μπέρμιγχαμ","NAME_HI":"बर्मिंघम","NAME_HU":"Birmingham","NAME_ID":"Birmingham","NAME_IT":"Birmingham","NAME_JA":"バーミンガム","NAME_KO":"버밍엄","NAME_NL":"Birmingham","NAME_PL":"Birmingham","NAME_SV":"Birmingham","NAME_TR":"Birmingham","NAME_VI":"Birmingham","NE_ID":1159149367,"NAME_FA":"بیرمنگام","NAME_HE":"ברמינגהאם","NAME_UK":"Бірмінгем","NAME_UR":"برمنگھم","NAME_ZHT":"伯明罕","GEONAMESID":2655603,"FCLASS_ISO":"","FCLASS_US":"","FCLASS_FR":"","FCLASS_RU":"","FCLASS_ES":"","FCLASS_CN":"","FCLASS_TW":"","FCLASS_IN":"","FCLASS_NP":"","FCLASS_PK":"","FCLASS_DE":"","FCLASS_GB":"","FCLASS_BR":"","FCLASS_IL":"","FCLASS_PS":"","FCLASS_SA":"","FCLASS_EG":"","FCLASS_MA":"","FCLASS_PT":"","FCLASS_AR":"","FCLASS_JP":"","FCLASS_KO":"","FCLASS_VN":"","FCLASS_TR":"","FCLASS_ID":"","FCLASS_PL":"","FCLASS_GR":"","FCLASS_IT":"","FCLASS_NL":"","FCLASS_SE":"","FCLASS_BD":"","FCLASS_UA":"","FCLASS_TLC":""}},
{"type":"Feature","geometry":{"type":"Point","coordinates":[-5.928177644913072,54.594245156841886]},"properties":{"SCALERANK":4,"NATSCALE":50,"LABELRANK":5,"FEATURECLA":"Admin-0 region capital","NAME":"Belfast","NAMEPAR":"","NAMEALT":"","NAMEASCII":"Belfast","ADM0CAP":0,"CAPIN":"","WORLDCITY":0,"MEGACITY":0,"SOV0NAME":"United Kingdom","SOV_A3":"GBR","ADM0NAME":"United Kingdom","ADM0_A3":"GBR","ADM1NAME":"Belfast","ISO_A2":"GB","NOTE":"","LATITUDE":54.600012,"LONGITUDE":-5.960034,"POP_MAX":450406,"POP_MIN":274770,"POP_OTHER":418064,"RANK_MAX":10,"RANK_MIN":10,"MEGANAME":"","LS_NAME":"Belfast","MAX_POP10":450406,"MAX_POP20":450406,"MAX_POP50":450406,"MAX_POP300":0,"MAX_POP310":0,"MAX_NATSCA":50,"MIN_AREAKM":192,"MAX_AREAKM":192,"MIN_AREAMI":74,"MAX_AREAMI":74,"MIN_PERKM":204,"MAX_PERKM":204,"MIN_PERMI":127,"MAX_PERMI":127,"MIN_BBXMIN":-6.125,"MAX_BBXMIN":-6.125,"MIN_BBXMAX":-5.758333,"MAX_BBXMAX":-5.758333,"MIN_BBYMIN":54.458333,"MAX_BBYMIN":54.458333,"MIN_BBYMAX":54.708333,"MAX_BBYMAX":54.708333,"MEAN_BBXC":-5.948755,"MEAN_BBYC":54.593128,"TIMEZONE":"Europe/London","UN_FID":0,"POP1950":0,"POP1955":0,"POP1960":0,"POP1965":0,"POP1970":0,"POP1975":0,"POP1980":0,"POP1985":0,"POP1990":0,"POP1995":0,"POP2000":0,"POP2005":0,"POP2010":0,"POP2015":0,"POP2020":0,"POP2025":0,"POP2050":0,"MIN_ZOOM":5,"WIKIDATAID":"Q10686","WOF_ID":101751931,"CAPALT":0,"NAME_EN":"Belfast","NAME_DE":"Belfast","NAME_ES":"Belfast","NAME_FR":"Belfast","NAME_PT":"Belfast","NAME_RU":"Белфаст","NAME_ZH":"贝尔法斯特","LABEL":"","NAME_AR":"بلفاست","NAME_BN":"বেলফাস্ট","NAME_EL":"Μπέλφαστ","NAME_HI":"बेलफ़ास्ट","NAME_HU":"Belfast","NAME_ID":"Belfast","NAME_IT":"Belfast","NAME_JA":"ベルファスト","NAME_KO":"벨파스트","NAME_NL":"Belfast","NAME_PL":"Belfast","NAME_SV":"Belfast","NAME_TR":"Belfast","NAME_VI":"Belfast","NE_ID":1159149369,"NAME_FA":"بلفاست","NAME_HE":"בלפסט","NAME_UK":"Белфаст","NAME_UR":"بیلفاسٹ","NAME_ZHT":"貝爾法斯特","GEONAMESID":2655984,"FCLASS_ISO":"","FCLASS_US":"","FCLASS_FR":"","FCLASS_RU":"","FCLASS_ES":"","FCLASS_CN":"","FCLASS_TW":"","FCLASS_IN":"","FCLASS_NP":"","FCLASS_PK":"","FCLASS_DE":"","FCLASS_GB":"","FCLASS_BR":"","FCLASS_IL":"","FCLASS_PS":"","FCLASS_SA":"","FCLASS_EG":"","FCLASS_MA":"","FCLASS_PT":"","FCLASS_AR":"","FCLASS_JP":"","FCLASS_KO":"","FCLASS_VN":"","FCLASS_TR":"","FCLASS_ID":"","FCLASS_PL":"","FCLASS_GR":"","FCLASS_IT":"","FCLASS_NL":"","FCLASS_SE":"","FCLASS_BD":"","FCLASS_UA":"","FCLASS_TLC":""}},
{"type":"Feature","geometry":{"type":"Point","coordinates":[-4.239100528802634,55.86226975799262]},"properties":{"SCALERANK":3,"NATSCALE":110,"LABELRANK":5,"FEATURECLA":"Populated place","NAME":"Glasgow","NAMEPAR":"","NAMEALT":"","NAMEASCII":"Glasgow","ADM0CAP":0,"CAPIN":"","WORLDCITY":0,"MEGACITY":1,"SOV0NAME":"United Kingdom","SOV_A3":"GBR","ADM0NAME":"United Kingdom","ADM0_A3":"GBR","ADM1NAME":"Glasgow","ISO_A2":"GB","NOTE":"","LATITUDE":55.876351,"LONGITUDE":-4.252653,"POP_MAX":1160000,"POP_MIN":610268,"POP_OTHER":3240,"RANK_MAX":12,"RANK_MIN":11,"MEGANAME":"Glasgow","LS_NAME":"Glasgow2","MAX_POP10":1216706,"MAX_POP20":1233551,"MAX_POP50":1233551,"MAX_POP300":1233551,"MAX_POP310":0,"MAX_NATSCA":100,"MIN_AREAKM":468,"MAX_AREAKM":483,"MIN_AREAMI":181,"MAX_AREAMI":187,"MIN_PERKM":377,"MAX_PERKM":408,"MIN_PERMI":234,"MAX_PERMI":254,"MIN_BBXMIN":-4.558333,"MAX_BBXMIN":-4.510663,"MIN_BBXMAX":-3.858333,"MAX_BBXMAX":-3.858333,"MIN_BBYMIN":55.733333,"MAX_BBYMIN":55.733333,"MIN_BBYMAX":55.958333,"MAX_BBYMAX":55.958333,"MEAN_BBXC":-4.225184,"MEAN_BBYC":55.843904,"TIMEZONE":"Europe/London","UN_FID":517,"POP1950":1755,"POP1955":1777,"POP1960":1798,"POP1965":1770,"POP1970":1734,"POP1975":1601,"POP1980":1461,"POP1985":1334,"POP1990":1217,"POP1995":1186,"POP2000":1171,"POP2005":1160,"POP2010":1160,"POP2015":1164,"POP2020":1175,"POP2025":1187,"POP2050":1197,"MIN_ZOOM":4,"WIKIDATAID":"Q4093","WOF_ID":1175612707,"CAPALT":0,"NAME_EN":"Glasgow","NAME_DE":"Glasgow","NAME_ES":"Glasgow","NAME_FR":"Glasgow","NAME_PT":"Glasgow","NAME_RU":"Глазго","NAME_ZH":"格拉斯哥","LABEL":"","NAME_AR":"غلاسكو","NAME_BN":"গ্লাসগো","NAME_EL":"Γλασκώβη","NAME_HI":"ग्लासगो","NAME_HU":"Glasgow","NAME_ID":"Glasgow","NAME_IT":"Glasgow","NAME_JA":"グラスゴー","NAME_KO":"글래스고","NAME_NL":"Glasgow","NAME_PL":"Glasgow","NAME_SV":"Glasgow","NAME_TR":"Glasgow","NAME_VI":"Glasgow","NE_ID":1159150591,"NAME_FA":"گلاسگو","NAME_HE":"גלאזגו","NAME_UK":"Глазго","NAME_UR":"گلاسگو","NAME_ZHT":"格拉斯哥","GEONAMESID":2648579,"FCLASS_ISO":"","FCLASS_US":"","FCLASS_FR":"","FCLASS_RU":"","FCLASS_ES":"","FCLASS_CN":"","FCLASS_TW":"","FCLASS_IN":"","FCLASS_NP":"","FCLASS_PK":"","FCLASS_DE":"","FCLASS_GB":"","FCLASS_BR":"","FCLASS_IL":"","FCLASS_PS":"","FCLASS_SA":"","FCLASS_EG":"","FCLASS_MA":"","FCLASS_PT":"","FCLASS_AR":"","FCLASS_JP":"","FCLASS_KO":"","FCLASS_VN":"","FCLASS_TR":"","FCLASS_ID":"","FCLASS_PL":"","FCLASS_GR":"","FCLASS_IT":"","FCLASS_NL":"","FCLASS_SE":"","FCLASS_BD":"","FCLASS_UA":"","FCLASS_TLC":""}},
{"type":"Feature","geometry":{"type":"Point","coordinates":[-57.8499679,-51.700011]},"properties":{"SCALERANK":3,"NATSCALE":110,"LABELRANK":0,"FEATURECLA":"Admin-0 region capital","NAME":"Stanley","NAMEPAR":"","NAMEALT":"","NAMEASCII":"Stanley","ADM0CAP":0,"CAPIN":"","WORLDCITY":0,"MEGACITY":0,"SOV0NAME":"United Kingdom","SOV_A3":"GBR","ADM0NAME":"Falkland Islands","ADM0_A3":"FLK","ADM1NAME":"","ISO_A2":"FK","NOTE":"","LATITUDE":-51.700011,"LONGITUDE":-57.849968,"POP_MAX":2213,"POP_MIN":2213,"POP_OTHER":0,"RANK_MAX":4,"RANK_MIN":4,"MEGANAME":"","LS_NAME":"Stanley","MAX_POP10":0,"MAX_POP20":0,"MAX_POP50":1565,"MAX_POP300":0,"MAX_POP310":0,"MAX_NATSCA":50,"MIN_AREAKM":3,"MAX_AREAKM":3,"MIN_AREAMI":1,"MAX_AREAMI":1,"MIN_PERKM":10,"MAX_PERKM":10,"MIN_PERMI":6,"MAX_PERMI":6,"MIN_BBXMIN":-57.875,"MAX_BBXMIN":-57.875,"MIN_BBXMAX":-57.833333,"MAX_BBXMAX":-57.833333,"MIN_BBYMIN":-51.7,"MAX_BBYMIN":-51.7,"MIN_BBYMAX":-51.691667,"MAX_BBYMAX":-51.691667,"MEAN_BBXC":-57.854167,"MEAN_BBYC":-51.695833,"TIMEZONE":"Atlantic/Stanley","UN_FID":0,"POP1950":0,"POP1955":0,"POP1960":0,"POP1965":0,"POP1970":0,"POP1975":0,"POP1980":0,"POP1985":0,"POP1990":0,"POP1995":0,"POP2000":0,"POP2005":0,"POP2010":0,"POP2015":0,"POP2020":0,"POP2025":0,"POP2050":0,"MIN_ZOOM":5,"WIKIDATAID":"Q12245","WOF_ID":1141909409,"CAPALT":0,"NAME_EN":"Stanley","NAME_DE":"Stanley","NAME_ES":"Puerto Argentino","NAME_FR":"Port Stanley","NAME_PT":"Stanley","NAME_RU":"Порт-Стэнли","NAME_ZH":"斯坦利","LABEL":"","NAME_AR":"ستانلي","NAME_BN":"স্ট্যানলি","NAME_EL":"Στάνλεϋ","NAME_HI":"स्टैनले","NAME_HU":"Stanley","NAME_ID":"Stanley","NAME_IT":"Stanley","NAME_JA":"スタンリー","NAME_KO":"스탠리","NAME_NL":"Stanley","NAME_PL":"Stanley","NAME_SV":"Stanley","NAME_TR":"Stanley","NAME_VI":"Stanley","NE_ID":1159151183,"NAME_FA":"استنلی","NAME_HE":"סטנלי","NAME_UK":"Порт-Стенлі","NAME_UR":"اسٹینلے","NAME_ZHT":"史坦利","GEONAMESID":3426691,"FCLASS_ISO":"","FCLASS_US":"","FCLASS_FR":"","FCLASS_RU":"","FCLASS_ES":"","FCLASS_CN":"","FCLASS_TW":"","FCLASS_IN":"","FCLASS_NP":"","FCLASS_PK":"","FCLASS_DE":"","FCLASS_GB":"","FCLASS_BR":"","FCLASS_IL":"","FCLASS_PS":"","FCLASS_SA":"","FCLASS_EG":"","FCLASS_MA":"","FCLASS_PT":"","FCLASS_AR":"Admin-1 capital","FCLASS_JP":"","FCLASS_KO":"","FCLASS_VN":"","FCLASS_TR":"","FCLASS_ID":"","FCLASS_PL":"","FCLASS_GR":"","FCLASS_IT":"","FCLASS_NL":"","FCLASS_SE":"","FCLASS_BD":"","FCLASS_UA":"","FCLASS_TLC":""}},
{"type":"Feature","geometry":{"type":"Point","coordinates":[-64.7839374,32.2941903]},"properties":{"SCALERANK":3,"NATSCALE":110,"LABELRANK":0,"FEATURECLA":"Admin-0 region capital","NAME":"Hamilton","NAMEPAR":"","NAMEALT":"","NAMEASCII":"Hamilton","ADM0CAP":1,"CAPIN":"","WORLDCITY":0,"MEGACITY":0,"SOV0NAME":"United Kingdom","SOV_A3":"GBR","ADM0NAME":"Bermuda","ADM0_A3":"BMU","ADM1NAME":"","ISO_A2":"BM","NOTE":"","LATITUDE":32.29419,"LONGITUDE":-64.783937,"POP_MAX":52320,"POP_MIN":13500,"POP_OTHER":52320,"RANK_MAX":8,"RANK_MIN":6,"MEGANAME":"","LS_NAME":"Hamilton1","MAX_POP10":52320,"MAX_POP20":52320,"MAX_POP50":52320,"MAX_POP300":52320,"MAX_POP310":0,"MAX_NATSCA":100,"MIN_AREAKM":44,"MAX_AREAKM":44,"MIN_AREAMI":17,"MAX_AREAMI":17,"MIN_PERKM":82,"MAX_PERKM":82,"MIN_PERMI":51,"MAX_PERMI":51,"MIN_BBXMIN":-64.883333,"MAX_BBXMIN":-64.883333,"MIN_BBXMAX":-64.7,"MAX_BBXMAX":-64.7,"MIN_BBYMIN":32.25,"MAX_BBYMIN":32.25,"MIN_BBYMAX":32.358333,"MAX_BBYMAX":32.358333,"MEAN_BBXC":-64.77903,"MEAN_BBYC":32.296516,"TIMEZONE":"Atlantic/Bermuda","UN_FID":0,"POP1950":0,"POP1955":0,"POP1960":0,"POP1965":0,"POP1970":0,"POP1975":0,"POP1980":0,"POP1985":0,"POP1990":0,"POP1995":0,"POP2000":0,"POP2005":0,"POP2010":0,"POP2015":0,"POP2020":0,"POP2025":0,"POP2050":0,"MIN_ZOOM":5,"WIKIDATAID":"Q30985","WOF_ID":890442097,"CAPALT":0,"NAME_EN":"Hamilton","NAME_DE":"Hamilton","NAME_ES":"Hamilton","NAME_FR":"Hamilton","NAME_PT":"Hamilton","NAME_RU":"Гамильтон","NAME_ZH":"哈密尔顿","LABEL":"","NAME_AR":"هاميلتون","NAME_BN":"হ্যামিল্টন","NAME_EL":"Χάμιλτον","NAME_HI":"हैमिल्टन","NAME_HU":"Hamilton","NAME_ID":"Hamilton","NAME_IT":"Hamilton","NAME_JA":"ハミルトン","NAME_KO":"해밀턴","NAME_NL":"Hamilton","NAME_PL":"Hamilton","NAME_SV":"Hamilton","NAME_TR":"Hamilton","NAME_VI":"Hamilton","NE_ID":1159151185,"NAME_FA":"همیلتون","NAME_HE":"המילטון","NAME_UK":"Гамільтон","NAME_UR":"ہیملٹن","NAME_ZHT":"漢密爾頓","GEONAMESID":3573197,"FCLASS_ISO":"","FCLASS_US":"","FCLASS_FR":"","FCLASS_RU":"","FCLASS_ES":"","FCLASS_CN":"","FCLASS_TW":"","FCLASS_IN":"","FCLASS_NP":"","FCLASS_PK":"","FCLASS_DE":"","FCLASS_GB":"","FCLASS_BR":"","FCLASS_IL":"","FCLASS_PS":"","FCLASS_SA":"","FCLASS_EG":"","FCLASS_MA":"","FCLASS_PT":"","FCLASS_AR":"","FCLASS_JP":"","FCLASS_KO":"","FCLASS_VN":"","FCLASS_TR":"","FCLASS_ID":"","FCLASS_PL":"","FCLASS_GR":"","FCLASS_IT":"","FCLASS_NL":"","FCLASS_SE":"","FCLASS_BD":"","FCLASS_UA":"","FCLASS_TLC":""}},
{"type":"Feature","geometry":{"type":"Point","coordinates":[-0.1186677,51.5019406]},"properties":{"SCALERANK":0,"NATSCALE":600,"LABELRANK":5,"FEATURECLA":"Admin-0 capital","NAME":"London","NAMEPAR":"","NAMEALT":"","NAMEASCII":"London","ADM0CAP":1,"CAPIN":"","WORLDCITY":1,"MEGACITY":1,"SOV0NAME":"United Kingdom","SOV_A3":"GBR","ADM0NAME":"United Kingdom","ADM0_A3":"GBR","ADM1NAME":"Westminster","ISO_A2":"GB","NOTE":"","LATITUDE":51.501941,"LONGITUDE":-0.118668,"POP_MAX":8567000,"POP_MIN":7421209,"POP_OTHER":326670,"RANK_MAX":13,"RANK_MIN":13,"MEGANAME":"London","LS_NAME":"London2","MAX_POP10":7721282,"MAX_POP20":8370578,"MAX_POP50":10011551,"MAX_POP300":10011551,"MAX_POP310":10011551,"MAX_NATSCA":300,"MIN_AREAKM":1914,"MAX_AREAKM":3198,"MIN_AREAMI":739,"MAX_AREAMI":1235,"MIN_PERKM":994,"MAX_PERKM":2440,"MIN_PERMI":618,"MAX_PERMI":1516,"MIN_BBXMIN":-1.091667,"MAX_BBXMIN":-0.546866,"MIN_BBXMAX":0.307108,"MAX_BBXMAX":0.816667,"MIN_BBYMIN":51.133333,"MAX_BBYMIN":51.208333,"MIN_BBYMAX":51.825,"MAX_BBYMAX":51.825,"MEAN_BBXC":-0.169651,"MEAN_BBYC":51.489624,"TIMEZONE":"Europe/London","UN_FID":519,"POP1950":8361,"POP1955":8278,"POP1960":8196,"POP1965":7869,"POP1970":7509,"POP1975":7546,"POP1980":7660,"POP1985":7667,"POP1990":7654,"POP1995":7908,"POP2000":8225,"POP2005":8505,"POP2010":8567,"POP2015":8607,"POP2020":8618,"POP2025":8618,"POP2050":8618,"MIN_ZOOM":1.7,"WIKIDATAID":"Q84","WOF_ID":101750367,"CAPALT":0,"NAME_EN":"London","NAME_DE":"London","NAME_ES":"Londres","NAME_FR":"Londres","NAME_PT":"Londres","NAME_RU":"Лондон","NAME_ZH":"伦敦","LABEL":"","NAME_AR":"لندن","NAME_BN":"লন্ডন","NAME_EL":"Λονδίνο","NAME_HI":"लंदन","NAME_HU":"London","NAME_ID":"London","NAME_IT":"Londra","NAME_JA":"ロンドン","NAME_KO":"런던","NAME_NL":"Londen","NAME_PL":"Londyn","NAME_SV":"London","NAME_TR":"Londra","NAME_VI":"Luân Đôn","NE_ID":1159151577,"NAME_FA":"لندن","NAME_HE":"לונדון","NAME_UK":"Лондон","NAME_UR":"لندن","NAME_ZHT":"倫敦","GEONAMESID":2643743,"FCLASS_ISO":"","FCLASS_US":"","FCLASS_FR":"","FCLASS_RU":"","FCLASS_ES":"","FCLASS_CN":"","FCLASS_TW":"","FCLASS_IN":"","FCLASS_NP":"","FCLASS_PK":"","FCLASS_DE":"","FCLASS_GB":"","FCLASS_BR":"","FCLASS_IL":"","FCLASS_PS":"","FCLASS_SA":"","FCLASS_EG":"","FCLASS_MA":"","FCLASS_PT":"","FCLASS_AR":"","FCLASS_JP":"","FCLASS_KO":"","FCLASS_VN":"","FCLASS_TR":"","FCLASS_ID":"","FCLASS_PL":"","FCLASS_GR":"","FCLASS_IT":"","FCLASS_NL":"","FCLASS_SE":"","FCLASS_BD":"","FCLASS_UA":"","FCLASS_TLC":""}}
]}